{"type":"FeatureCollection","features":[{"type":"Feature","properties":{"id":"1700251","nome":"Abreulândia","uf":"TO"},"geometry":{"type":"Point","coordinates":[-50,-13]}},{"type":"Feature","properties":{"id":"1700301","nome":"Aguiarnópolis","uf":"TO"},"geometry":{"type":"Point","coordinates":[-49.65,-12.76]}},{"type":"Feature","properties":{"id":"1700350","nome":"Aliança do Tocantins","uf":"TO"},"geometry":{"type":"Point","coordinates":[-49.3,-12.52]}},{"type":"Feature","properties":{"id":"1700400","nome":"Almas","uf":"TO"},"geometry":{"type":"Point","coordinates":[-48.95,-12.28]}},{"type":"Feature","properties":{"id":"1700707","nome":"Alvorada","uf":"TO"},"geometry":{"type":"Point","coordinates":[-48.6,-12.04]}},{"type":"Feature","properties":{"id":"1701002","nome":"Ananás","uf":"TO"},"geometry":{"type":"Point","coordinates":[-48.25,-11.8]}},{"type":"Feature","properties":{"id":"1701051","nome":"Angico","uf":"TO"},"geometry":{"type":"Point","coordinates":[-47.9,-11.56]}},{"type":"Feature","properties":{"id":"1701101","nome":"Aparecida do Rio Negro","uf":"TO"},"geometry":{"type":"Point","coordinates":[-47.55,-11.32]}},{"type":"Feature","properties":{"id":"1701309","nome":"Aragominas","uf":"TO"},"geometry":{"type":"Point","coordinates":[-47.2,-11.08]}},{"type":"Feature","properties":{"id":"1701903","nome":"Araguacema","uf":"TO"},"geometry":{"type":"Point","coordinates":[-46.85,-10.84]}},{"type":"Feature","properties":{"id":"1702000","nome":"Araguaçu","uf":"TO"},"geometry":{"type":"Point","coordinates":[-46.5,-10.6]}},{"type":"Feature","properties":{"id":"1702109","nome":"Araguaína","uf":"TO"},"geometry":{"type":"Point","coordinates":[-46.15,-10.36]}},{"type":"Feature","properties":{"id":"1702158","nome":"Araguanã","uf":"TO"},"geometry":{"type":"Point","coordinates":[-45.8,-10.120000000000001]}},{"type":"Feature","properties":{"id":"1702208","nome":"Araguatins","uf":"TO"},"geometry":{"type":"Point","coordinates":[-45.45,-9.879999999999999]}},{"type":"Feature","properties":{"id":"1702307","nome":"Arapoema","uf":"TO"},"geometry":{"type":"Point","coordinates":[-45.1,-9.64]}},{"type":"Feature","properties":{"id":"1702406","nome":"Arraias","uf":"TO"},"geometry":{"type":"Point","coordinates":[-49.75,-9.4]}},{"type":"Feature","properties":{"id":"1702554","nome":"Augustinópolis","uf":"TO"},"geometry":{"type":"Point","coordinates":[-49.4,-9.16]}},{"type":"Feature","properties":{"id":"1702703","nome":"Aurora do Tocantins","uf":"TO"},"geometry":{"type":"Point","coordinates":[-49.05,-8.92]}},{"type":"Feature","properties":{"id":"1702901","nome":"Axixá do Tocantins","uf":"TO"},"geometry":{"type":"Point","coordinates":[-48.7,-8.68]}},{"type":"Feature","properties":{"id":"1703008","nome":"Babaçulândia","uf":"TO"},"geometry":{"type":"Point","coordinates":[-48.35,-8.44]}},{"type":"Feature","properties":{"id":"1703057","nome":"Bandeirantes do Tocantins","uf":"TO"},"geometry":{"type":"Point","coordinates":[-48,-8.2]}},{"type":"Feature","properties":{"id":"1703073","nome":"Barra do Ouro","uf":"TO"},"geometry":{"type":"Point","coordinates":[-47.65,-7.96]}},{"type":"Feature","properties":{"id":"1703107","nome":"Barrolândia","uf":"TO"},"geometry":{"type":"Point","coordinates":[-47.3,-7.72]}},{"type":"Feature","properties":{"id":"1703206","nome":"Bernardo Sayão","uf":"TO"},"geometry":{"type":"Point","coordinates":[-46.95,-7.4799999999999995]}},{"type":"Feature","properties":{"id":"1703305","nome":"Bom Jesus do Tocantins","uf":"TO"},"geometry":{"type":"Point","coordinates":[-46.6,-7.24]}},{"type":"Feature","properties":{"id":"1703602","nome":"Brasilândia do Tocantins","uf":"TO"},"geometry":{"type":"Point","coordinates":[-46.25,-7]}},{"type":"Feature","properties":{"id":"1703701","nome":"Brejinho de Nazaré","uf":"TO"},"geometry":{"type":"Point","coordinates":[-45.9,-6.76]}},{"type":"Feature","properties":{"id":"1703800","nome":"Buriti do Tocantins","uf":"TO"},"geometry":{"type":"Point","coordinates":[-45.55,-6.52]}},{"type":"Feature","properties":{"id":"1703826","nome":"Cachoeirinha","uf":"TO"},"geometry":{"type":"Point","coordinates":[-45.2,-6.28]}},{"type":"Feature","properties":{"id":"1703842","nome":"Campos Lindos","uf":"TO"},"geometry":{"type":"Point","coordinates":[-49.85,-6.04]}},{"type":"Feature","properties":{"id":"1703867","nome":"Cariri do Tocantins","uf":"TO"},"geometry":{"type":"Point","coordinates":[-49.5,-5.8]}},{"type":"Feature","properties":{"id":"1703883","nome":"Carmolândia","uf":"TO"},"geometry":{"type":"Point","coordinates":[-49.15,-5.56]}},{"type":"Feature","properties":{"id":"1703891","nome":"Carrasco Bonito","uf":"TO"},"geometry":{"type":"Point","coordinates":[-48.8,-5.32]}},{"type":"Feature","properties":{"id":"1703909","nome":"Caseara","uf":"TO"},"geometry":{"type":"Point","coordinates":[-48.45,-5.08]}},{"type":"Feature","properties":{"id":"1704105","nome":"Centenário","uf":"TO"},"geometry":{"type":"Point","coordinates":[-48.1,-12.84]}},{"type":"Feature","properties":{"id":"1704600","nome":"Chapada de Areia","uf":"TO"},"geometry":{"type":"Point","coordinates":[-47.75,-12.6]}},{"type":"Feature","properties":{"id":"1705102","nome":"Chapada da Natividade","uf":"TO"},"geometry":{"type":"Point","coordinates":[-47.4,-12.36]}},{"type":"Feature","properties":{"id":"1705508","nome":"Colinas do Tocantins","uf":"TO"},"geometry":{"type":"Point","coordinates":[-47.05,-12.12]}},{"type":"Feature","properties":{"id":"1705557","nome":"Combinado","uf":"TO"},"geometry":{"type":"Point","coordinates":[-46.7,-11.879999999999999]}},{"type":"Feature","properties":{"id":"1705607","nome":"Conceição do Tocantins","uf":"TO"},"geometry":{"type":"Point","coordinates":[-46.35,-11.64]}},{"type":"Feature","properties":{"id":"1706001","nome":"Couto Magalhães","uf":"TO"},"geometry":{"type":"Point","coordinates":[-46,-11.4]}},{"type":"Feature","properties":{"id":"1706100","nome":"Cristalândia","uf":"TO"},"geometry":{"type":"Point","coordinates":[-45.65,-11.16]}},{"type":"Feature","properties":{"id":"1706258","nome":"Crixás do Tocantins","uf":"TO"},"geometry":{"type":"Point","coordinates":[-45.3,-10.92]}},{"type":"Feature","properties":{"id":"1706506","nome":"Darcinópolis","uf":"TO"},"geometry":{"type":"Point","coordinates":[-49.95,-10.68]}},{"type":"Feature","properties":{"id":"1707009","nome":"Dianópolis","uf":"TO"},"geometry":{"type":"Point","coordinates":[-49.6,-10.44]}},{"type":"Feature","properties":{"id":"1707108","nome":"Divinópolis do Tocantins","uf":"TO"},"geometry":{"type":"Point","coordinates":[-49.25,-10.2]}},{"type":"Feature","properties":{"id":"1707207","nome":"Dois Irmãos do Tocantins","uf":"TO"},"geometry":{"type":"Point","coordinates":[-48.9,-9.96]}},{"type":"Feature","properties":{"id":"1707306","nome":"Dueré","uf":"TO"},"geometry":{"type":"Point","coordinates":[-48.55,-9.719999999999999]}},{"type":"Feature","properties":{"id":"1707405","nome":"Esperantina","uf":"TO"},"geometry":{"type":"Point","coordinates":[-48.2,-9.48]}},{"type":"Feature","properties":{"id":"1707553","nome":"Fátima","uf":"TO"},"geometry":{"type":"Point","coordinates":[-47.85,-9.24]}},{"type":"Feature","properties":{"id":"1707652","nome":"Figueirópolis","uf":"TO"},"geometry":{"type":"Point","coordinates":[-47.5,-9]}},{"type":"Feature","properties":{"id":"1707702","nome":"Filadélfia","uf":"TO"},"geometry":{"type":"Point","coordinates":[-47.15,-8.76]}},{"type":"Feature","properties":{"id":"1708205","nome":"Formoso do Araguaia","uf":"TO"},"geometry":{"type":"Point","coordinates":[-46.8,-8.52]}},{"type":"Feature","properties":{"id":"1708254","nome":"Tabocão","uf":"TO"},"geometry":{"type":"Point","coordinates":[-46.45,-8.280000000000001]}},{"type":"Feature","properties":{"id":"1708304","nome":"Goianorte","uf":"TO"},"geometry":{"type":"Point","coordinates":[-46.1,-8.04]}},{"type":"Feature","properties":{"id":"1709005","nome":"Goiatins","uf":"TO"},"geometry":{"type":"Point","coordinates":[-45.75,-7.8]}},{"type":"Feature","properties":{"id":"1709302","nome":"Guaraí","uf":"TO"},"geometry":{"type":"Point","coordinates":[-45.4,-7.56]}},{"type":"Feature","properties":{"id":"1709500","nome":"Gurupi","uf":"TO"},"geometry":{"type":"Point","coordinates":[-45.05,-7.32]}},{"type":"Feature","properties":{"id":"1709807","nome":"Ipueiras","uf":"TO"},"geometry":{"type":"Point","coordinates":[-49.7,-7.08]}},{"type":"Feature","properties":{"id":"1710508","nome":"Itacajá","uf":"TO"},"geometry":{"type":"Point","coordinates":[-49.35,-6.84]}},{"type":"Feature","properties":{"id":"1710706","nome":"Itaguatins","uf":"TO"},"geometry":{"type":"Point","coordinates":[-49,-6.6]}},{"type":"Feature","properties":{"id":"1710904","nome":"Itapiratins","uf":"TO"},"geometry":{"type":"Point","coordinates":[-48.65,-6.359999999999999]}},{"type":"Feature","properties":{"id":"1711100","nome":"Itaporã do Tocantins","uf":"TO"},"geometry":{"type":"Point","coordinates":[-48.3,-6.12]}},{"type":"Feature","properties":{"id":"1711506","nome":"Jaú do Tocantins","uf":"TO"},"geometry":{"type":"Point","coordinates":[-47.95,-5.88]}},{"type":"Feature","properties":{"id":"1711803","nome":"Juarina","uf":"TO"},"geometry":{"type":"Point","coordinates":[-47.6,-5.64]}},{"type":"Feature","properties":{"id":"1711902","nome":"Lagoa da Confusão","uf":"TO"},"geometry":{"type":"Point","coordinates":[-47.25,-5.3999999999999995]}},{"type":"Feature","properties":{"id":"1711951","nome":"Lagoa do Tocantins","uf":"TO"},"geometry":{"type":"Point","coordinates":[-46.9,-5.16]}},{"type":"Feature","properties":{"id":"1712009","nome":"Lajeado","uf":"TO"},"geometry":{"type":"Point","coordinates":[-46.55,-12.92]}},{"type":"Feature","properties":{"id":"1712157","nome":"Lavandeira","uf":"TO"},"geometry":{"type":"Point","coordinates":[-46.2,-12.68]}},{"type":"Feature","properties":{"id":"1712405","nome":"Lizarda","uf":"TO"},"geometry":{"type":"Point","coordinates":[-45.85,-12.44]}},{"type":"Feature","properties":{"id":"1712454","nome":"Luzinópolis","uf":"TO"},"geometry":{"type":"Point","coordinates":[-45.5,-12.2]}},{"type":"Feature","properties":{"id":"1712504","nome":"Marianópolis do Tocantins","uf":"TO"},"geometry":{"type":"Point","coordinates":[-45.15,-11.96]}},{"type":"Feature","properties":{"id":"1712702","nome":"Mateiros","uf":"TO"},"geometry":{"type":"Point","coordinates":[-49.8,-11.72]}},{"type":"Feature","properties":{"id":"1712801","nome":"Maurilândia do Tocantins","uf":"TO"},"geometry":{"type":"Point","coordinates":[-49.45,-11.48]}},{"type":"Feature","properties":{"id":"1713205","nome":"Miracema do Tocantins","uf":"TO"},"geometry":{"type":"Point","coordinates":[-49.1,-11.24]}},{"type":"Feature","properties":{"id":"1713304","nome":"Miranorte","uf":"TO"},"geometry":{"type":"Point","coordinates":[-48.75,-11]}},{"type":"Feature","properties":{"id":"1713601","nome":"Monte do Carmo","uf":"TO"},"geometry":{"type":"Point","coordinates":[-48.4,-10.76]}},{"type":"Feature","properties":{"id":"1713700","nome":"Monte Santo do Tocantins","uf":"TO"},"geometry":{"type":"Point","coordinates":[-48.05,-10.52]}},{"type":"Feature","properties":{"id":"1713809","nome":"Palmeiras do Tocantins","uf":"TO"},"geometry":{"type":"Point","coordinates":[-47.7,-10.28]}},{"type":"Feature","properties":{"id":"1713957","nome":"Muricilândia","uf":"TO"},"geometry":{"type":"Point","coordinates":[-47.35,-10.04]}},{"type":"Feature","properties":{"id":"1714203","nome":"Natividade","uf":"TO"},"geometry":{"type":"Point","coordinates":[-47,-9.8]}},{"type":"Feature","properties":{"id":"1714302","nome":"Nazaré","uf":"TO"},"geometry":{"type":"Point","coordinates":[-46.65,-9.56]}},{"type":"Feature","properties":{"id":"1714880","nome":"Nova Olinda","uf":"TO"},"geometry":{"type":"Point","coordinates":[-46.3,-9.32]}},{"type":"Feature","properties":{"id":"1715002","nome":"Nova Rosalândia","uf":"TO"},"geometry":{"type":"Point","coordinates":[-45.95,-9.08]}},{"type":"Feature","properties":{"id":"1715101","nome":"Novo Acordo","uf":"TO"},"geometry":{"type":"Point","coordinates":[-45.6,-8.84]}},{"type":"Feature","properties":{"id":"1715150","nome":"Novo Alegre","uf":"TO"},"geometry":{"type":"Point","coordinates":[-45.25,-8.6]}},{"type":"Feature","properties":{"id":"1715259","nome":"Novo Jardim","uf":"TO"},"geometry":{"type":"Point","coordinates":[-49.9,-8.36]}},{"type":"Feature","properties":{"id":"1715507","nome":"Oliveira de Fátima","uf":"TO"},"geometry":{"type":"Point","coordinates":[-49.55,-8.120000000000001]}},{"type":"Feature","properties":{"id":"1715705","nome":"Palmeirante","uf":"TO"},"geometry":{"type":"Point","coordinates":[-49.2,-7.88]}},{"type":"Feature","properties":{"id":"1715754","nome":"Palmeirópolis","uf":"TO"},"geometry":{"type":"Point","coordinates":[-48.85,-7.64]}},{"type":"Feature","properties":{"id":"1716109","nome":"Paraíso do Tocantins","uf":"TO"},"geometry":{"type":"Point","coordinates":[-48.5,-7.3999999999999995]}},{"type":"Feature","properties":{"id":"1716208","nome":"Paranã","uf":"TO"},"geometry":{"type":"Point","coordinates":[-48.15,-7.16]}},{"type":"Feature","properties":{"id":"1716307","nome":"Pau D'Arco","uf":"TO"},"geometry":{"type":"Point","coordinates":[-47.8,-6.92]}},{"type":"Feature","properties":{"id":"1716505","nome":"Pedro Afonso","uf":"TO"},"geometry":{"type":"Point","coordinates":[-47.45,-6.68]}},{"type":"Feature","properties":{"id":"1716604","nome":"Peixe","uf":"TO"},"geometry":{"type":"Point","coordinates":[-47.1,-6.4399999999999995]}},{"type":"Feature","properties":{"id":"1716653","nome":"Pequizeiro","uf":"TO"},"geometry":{"type":"Point","coordinates":[-46.75,-6.2]}},{"type":"Feature","properties":{"id":"1716703","nome":"Colméia","uf":"TO"},"geometry":{"type":"Point","coordinates":[-46.4,-5.96]}},{"type":"Feature","properties":{"id":"1717008","nome":"Pindorama do Tocantins","uf":"TO"},"geometry":{"type":"Point","coordinates":[-46.05,-5.72]}},{"type":"Feature","properties":{"id":"1717206","nome":"Piraquê","uf":"TO"},"geometry":{"type":"Point","coordinates":[-45.7,-5.4799999999999995]}},{"type":"Feature","properties":{"id":"1717503","nome":"Pium","uf":"TO"},"geometry":{"type":"Point","coordinates":[-45.35,-5.24]}},{"type":"Feature","properties":{"id":"1717800","nome":"Ponte Alta do Bom Jesus","uf":"TO"},"geometry":{"type":"Point","coordinates":[-50,-13]}},{"type":"Feature","properties":{"id":"1717909","nome":"Ponte Alta do Tocantins","uf":"TO"},"geometry":{"type":"Point","coordinates":[-49.65,-12.76]}},{"type":"Feature","properties":{"id":"1718006","nome":"Porto Alegre do Tocantins","uf":"TO"},"geometry":{"type":"Point","coordinates":[-49.3,-12.52]}},{"type":"Feature","properties":{"id":"1718204","nome":"Porto Nacional","uf":"TO"},"geometry":{"type":"Point","coordinates":[-48.95,-12.28]}},{"type":"Feature","properties":{"id":"1718303","nome":"Praia Norte","uf":"TO"},"geometry":{"type":"Point","coordinates":[-48.6,-12.04]}},{"type":"Feature","properties":{"id":"1718402","nome":"Presidente Kennedy","uf":"TO"},"geometry":{"type":"Point","coordinates":[-48.25,-11.8]}},{"type":"Feature","properties":{"id":"1718451","nome":"Pugmil","uf":"TO"},"geometry":{"type":"Point","coordinates":[-47.9,-11.56]}},{"type":"Feature","properties":{"id":"1718501","nome":"Recursolândia","uf":"TO"},"geometry":{"type":"Point","coordinates":[-47.55,-11.32]}},{"type":"Feature","properties":{"id":"1718550","nome":"Riachinho","uf":"TO"},"geometry":{"type":"Point","coordinates":[-47.2,-11.08]}},{"type":"Feature","properties":{"id":"1718659","nome":"Rio da Conceição","uf":"TO"},"geometry":{"type":"Point","coordinates":[-46.85,-10.84]}},{"type":"Feature","properties":{"id":"1718709","nome":"Rio dos Bois","uf":"TO"},"geometry":{"type":"Point","coordinates":[-46.5,-10.6]}},{"type":"Feature","properties":{"id":"1718758","nome":"Rio Sono","uf":"TO"},"geometry":{"type":"Point","coordinates":[-46.15,-10.36]}},{"type":"Feature","properties":{"id":"1718808","nome":"Sampaio","uf":"TO"},"geometry":{"type":"Point","coordinates":[-45.8,-10.120000000000001]}},{"type":"Feature","properties":{"id":"1718840","nome":"Sandolândia","uf":"TO"},"geometry":{"type":"Point","coordinates":[-45.45,-9.879999999999999]}},{"type":"Feature","properties":{"id":"1718865","nome":"Santa Fé do Araguaia","uf":"TO"},"geometry":{"type":"Point","coordinates":[-45.1,-9.64]}},{"type":"Feature","properties":{"id":"1718881","nome":"Santa Maria do Tocantins","uf":"TO"},"geometry":{"type":"Point","coordinates":[-49.75,-9.4]}},{"type":"Feature","properties":{"id":"1718899","nome":"Santa Rita do Tocantins","uf":"TO"},"geometry":{"type":"Point","coordinates":[-49.4,-9.16]}},{"type":"Feature","properties":{"id":"1718907","nome":"Santa Rosa do Tocantins","uf":"TO"},"geometry":{"type":"Point","coordinates":[-49.05,-8.92]}},{"type":"Feature","properties":{"id":"1719004","nome":"Santa Tereza do Tocantins","uf":"TO"},"geometry":{"type":"Point","coordinates":[-48.7,-8.68]}},{"type":"Feature","properties":{"id":"1720002","nome":"Santa Terezinha do Tocantins","uf":"TO"},"geometry":{"type":"Point","coordinates":[-48.35,-8.44]}},{"type":"Feature","properties":{"id":"1720101","nome":"São Bento do Tocantins","uf":"TO"},"geometry":{"type":"Point","coordinates":[-48,-8.2]}},{"type":"Feature","properties":{"id":"1720150","nome":"São Félix do Tocantins","uf":"TO"},"geometry":{"type":"Point","coordinates":[-47.65,-7.96]}},{"type":"Feature","properties":{"id":"1720200","nome":"São Miguel do Tocantins","uf":"TO"},"geometry":{"type":"Point","coordinates":[-47.3,-7.72]}},{"type":"Feature","properties":{"id":"1720259","nome":"São Salvador do Tocantins","uf":"TO"},"geometry":{"type":"Point","coordinates":[-46.95,-7.4799999999999995]}},{"type":"Feature","properties":{"id":"1720309","nome":"São Sebastião do Tocantins","uf":"TO"},"geometry":{"type":"Point","coordinates":[-46.6,-7.24]}},{"type":"Feature","properties":{"id":"1720499","nome":"São Valério","uf":"TO"},"geometry":{"type":"Point","coordinates":[-46.25,-7]}},{"type":"Feature","properties":{"id":"1720655","nome":"Silvanópolis","uf":"TO"},"geometry":{"type":"Point","coordinates":[-45.9,-6.76]}},{"type":"Feature","properties":{"id":"1720804","nome":"Sítio Novo do Tocantins","uf":"TO"},"geometry":{"type":"Point","coordinates":[-45.55,-6.52]}},{"type":"Feature","properties":{"id":"1720853","nome":"Sucupira","uf":"TO"},"geometry":{"type":"Point","coordinates":[-45.2,-6.28]}},{"type":"Feature","properties":{"id":"1720903","nome":"Taguatinga","uf":"TO"},"geometry":{"type":"Point","coordinates":[-49.85,-6.04]}},{"type":"Feature","properties":{"id":"1720937","nome":"Taipas do Tocantins","uf":"TO"},"geometry":{"type":"Point","coordinates":[-49.5,-5.8]}},{"type":"Feature","properties":{"id":"1720978","nome":"Talismã","uf":"TO"},"geometry":{"type":"Point","coordinates":[-49.15,-5.56]}},{"type":"Feature","properties":{"id":"1721000","nome":"Palmas","uf":"TO"},"geometry":{"type":"Point","coordinates":[-48.8,-5.32]}},{"type":"Feature","properties":{"id":"1721109","nome":"Tocantínia","uf":"TO"},"geometry":{"type":"Point","coordinates":[-48.45,-5.08]}},{"type":"Feature","properties":{"id":"1721208","nome":"Tocantinópolis","uf":"TO"},"geometry":{"type":"Point","coordinates":[-48.1,-12.84]}},{"type":"Feature","properties":{"id":"1721257","nome":"Tupirama","uf":"TO"},"geometry":{"type":"Point","coordinates":[-47.75,-12.6]}},{"type":"Feature","properties":{"id":"1721307","nome":"Tupiratins","uf":"TO"},"geometry":{"type":"Point","coordinates":[-47.4,-12.36]}},{"type":"Feature","properties":{"id":"1722081","nome":"Wanderlândia","uf":"TO"},"geometry":{"type":"Point","coordinates":[-47.05,-12.12]}},{"type":"Feature","properties":{"id":"1722107","nome":"Xambioá","uf":"TO"},"geometry":{"type":"Point","coordinates":[-46.7,-11.879999999999999]}}]}