{"type":"FeatureCollection","features":[{"type":"Feature","properties":{"id":"2100055","nome":"Açailândia","uf":"MA"},"geometry":{"type":"Point","coordinates":[-48,-10]}},{"type":"Feature","properties":{"id":"2100105","nome":"Afonso Cunha","uf":"MA"},"geometry":{"type":"Point","coordinates":[-47.51,-9.73]}},{"type":"Feature","properties":{"id":"2100154","nome":"Água Doce do Maranhão","uf":"MA"},"geometry":{"type":"Point","coordinates":[-47.02,-9.46]}},{"type":"Feature","properties":{"id":"2100204","nome":"Alcântara","uf":"MA"},"geometry":{"type":"Point","coordinates":[-46.53,-9.19]}},{"type":"Feature","properties":{"id":"2100303","nome":"Aldeias Altas","uf":"MA"},"geometry":{"type":"Point","coordinates":[-46.04,-8.92]}},{"type":"Feature","properties":{"id":"2100402","nome":"Altamira do Maranhão","uf":"MA"},"geometry":{"type":"Point","coordinates":[-45.55,-8.65]}},{"type":"Feature","properties":{"id":"2100436","nome":"Alto Alegre do Maranhão","uf":"MA"},"geometry":{"type":"Point","coordinates":[-45.06,-8.38]}},{"type":"Feature","properties":{"id":"2100477","nome":"Alto Alegre do Pindaré","uf":"MA"},"geometry":{"type":"Point","coordinates":[-44.57,-8.11]}},{"type":"Feature","properties":{"id":"2100501","nome":"Alto Parnaíba","uf":"MA"},"geometry":{"type":"Point","coordinates":[-44.08,-7.84]}},{"type":"Feature","properties":{"id":"2100550","nome":"Amapá do Maranhão","uf":"MA"},"geometry":{"type":"Point","coordinates":[-43.59,-7.57]}},{"type":"Feature","properties":{"id":"2100600","nome":"Amarante do Maranhão","uf":"MA"},"geometry":{"type":"Point","coordinates":[-43.1,-7.300000000000001]}},{"type":"Feature","properties":{"id":"2100709","nome":"Anajatuba","uf":"MA"},"geometry":{"type":"Point","coordinates":[-42.61,-7.03]}},{"type":"Feature","properties":{"id":"2100808","nome":"Anapurus","uf":"MA"},"geometry":{"type":"Point","coordinates":[-42.12,-6.76]}},{"type":"Feature","properties":{"id":"2100832","nome":"Apicum-Açu","uf":"MA"},"geometry":{"type":"Point","coordinates":[-41.629999999999995,-6.49]}},{"type":"Feature","properties":{"id":"2100873","nome":"Araguanã","uf":"MA"},"geometry":{"type":"Point","coordinates":[-41.14,-6.220000000000001]}},{"type":"Feature","properties":{"id":"2100907","nome":"Araioses","uf":"MA"},"geometry":{"type":"Point","coordinates":[-47.65,-5.95]}},{"type":"Feature","properties":{"id":"2100956","nome":"Arame","uf":"MA"},"geometry":{"type":"Point","coordinates":[-47.16,-5.68]}},{"type":"Feature","properties":{"id":"2101004","nome":"Arari","uf":"MA"},"geometry":{"type":"Point","coordinates":[-46.67,-5.41]}},{"type":"Feature","properties":{"id":"2101103","nome":"Axixá","uf":"MA"},"geometry":{"type":"Point","coordinates":[-46.18,-5.140000000000001]}},{"type":"Feature","properties":{"id":"2101202","nome":"Bacabal","uf":"MA"},"geometry":{"type":"Point","coordinates":[-45.69,-4.87]}},{"type":"Feature","properties":{"id":"2101251","nome":"Bacabeira","uf":"MA"},"geometry":{"type":"Point","coordinates":[-45.2,-4.6000000000000005]}},{"type":"Feature","properties":{"id":"2101301","nome":"Bacuri","uf":"MA"},"geometry":{"type":"Point","coordinates":[-44.71,-4.33]}},{"type":"Feature","properties":{"id":"2101350","nome":"Bacurituba","uf":"MA"},"geometry":{"type":"Point","coordinates":[-44.22,-4.0600000000000005]}},{"type":"Feature","properties":{"id":"2101400","nome":"Balsas","uf":"MA"},"geometry":{"type":"Point","coordinates":[-43.73,-3.79]}},{"type":"Feature","properties":{"id":"2101509","nome":"Barão de Grajaú","uf":"MA"},"geometry":{"type":"Point","coordinates":[-43.24,-3.5200000000000005]}},{"type":"Feature","properties":{"id":"2101608","nome":"Barra do Corda","uf":"MA"},"geometry":{"type":"Point","coordinates":[-42.75,-3.25]}},{"type":"Feature","properties":{"id":"2101707","nome":"Barreirinhas","uf":"MA"},"geometry":{"type":"Point","coordinates":[-42.26,-2.9800000000000004]}},{"type":"Feature","properties":{"id":"2101731","nome":"Belágua","uf":"MA"},"geometry":{"type":"Point","coordinates":[-41.769999999999996,-2.71]}},{"type":"Feature","properties":{"id":"2101772","nome":"Bela Vista do Maranhão","uf":"MA"},"geometry":{"type":"Point","coordinates":[-41.28,-2.4400000000000004]}},{"type":"Feature","properties":{"id":"2101806","nome":"Benedito Leite","uf":"MA"},"geometry":{"type":"Point","coordinates":[-47.79,-2.17]}},{"type":"Feature","properties":{"id":"2101905","nome":"Bequimão","uf":"MA"},"geometry":{"type":"Point","coordinates":[-47.3,-1.9000000000000004]}},{"type":"Feature","properties":{"id":"2101939","nome":"Bernardo do Mearim","uf":"MA"},"geometry":{"type":"Point","coordinates":[-46.81,-1.6300000000000008]}},{"type":"Feature","properties":{"id":"2101970","nome":"Boa Vista do Gurupi","uf":"MA"},"geometry":{"type":"Point","coordinates":[-46.32,-1.3599999999999994]}},{"type":"Feature","properties":{"id":"2102002","nome":"Bom Jardim","uf":"MA"},"geometry":{"type":"Point","coordinates":[-45.83,-1.0899999999999999]}},{"type":"Feature","properties":{"id":"2102036","nome":"Bom Jesus das Selvas","uf":"MA"},"geometry":{"type":"Point","coordinates":[-45.34,-9.82]}},{"type":"Feature","properties":{"id":"2102077","nome":"Bom Lugar","uf":"MA"},"geometry":{"type":"Point","coordinates":[-44.85,-9.55]}},{"type":"Feature","properties":{"id":"2102101","nome":"Brejo","uf":"MA"},"geometry":{"type":"Point","coordinates":[-44.36,-9.28]}},{"type":"Feature","properties":{"id":"2102150","nome":"Brejo de Areia","uf":"MA"},"geometry":{"type":"Point","coordinates":[-43.87,-9.01]}},{"type":"Feature","properties":{"id":"2102200","nome":"Buriti","uf":"MA"},"geometry":{"type":"Point","coordinates":[-43.38,-8.74]}},{"type":"Feature","properties":{"id":"2102309","nome":"Buriti Bravo","uf":"MA"},"geometry":{"type":"Point","coordinates":[-42.89,-8.47]}},{"type":"Feature","properties":{"id":"2102325","nome":"Buriticupu","uf":"MA"},"geometry":{"type":"Point","coordinates":[-42.4,-8.2]}},{"type":"Feature","properties":{"id":"2102358","nome":"Buritirana","uf":"MA"},"geometry":{"type":"Point","coordinates":[-41.91,-7.93]}},{"type":"Feature","properties":{"id":"2102374","nome":"Cachoeira Grande","uf":"MA"},"geometry":{"type":"Point","coordinates":[-41.42,-7.66]}},{"type":"Feature","properties":{"id":"2102408","nome":"Cajapió","uf":"MA"},"geometry":{"type":"Point","coordinates":[-47.93,-7.390000000000001]}},{"type":"Feature","properties":{"id":"2102507","nome":"Cajari","uf":"MA"},"geometry":{"type":"Point","coordinates":[-47.44,-7.12]}},{"type":"Feature","properties":{"id":"2102556","nome":"Campestre do Maranhão","uf":"MA"},"geometry":{"type":"Point","coordinates":[-46.95,-6.85]}},{"type":"Feature","properties":{"id":"2102606","nome":"Cândido Mendes","uf":"MA"},"geometry":{"type":"Point","coordinates":[-46.46,-6.58]}},{"type":"Feature","properties":{"id":"2102705","nome":"Cantanhede","uf":"MA"},"geometry":{"type":"Point","coordinates":[-45.97,-6.3100000000000005]}},{"type":"Feature","properties":{"id":"2102754","nome":"Capinzal do Norte","uf":"MA"},"geometry":{"type":"Point","coordinates":[-45.48,-6.04]}},{"type":"Feature","properties":{"id":"2102804","nome":"Carolina","uf":"MA"},"geometry":{"type":"Point","coordinates":[-44.99,-5.7700000000000005]}},{"type":"Feature","properties":{"id":"2102903","nome":"Carutapera","uf":"MA"},"geometry":{"type":"Point","coordinates":[-44.5,-5.5]}},{"type":"Feature","properties":{"id":"2103000","nome":"Caxias","uf":"MA"},"geometry":{"type":"Point","coordinates":[-44.01,-5.23]}},{"type":"Feature","properties":{"id":"2103109","nome":"Cedral","uf":"MA"},"geometry":{"type":"Point","coordinates":[-43.519999999999996,-4.96]}},{"type":"Feature","properties":{"id":"2103125","nome":"Central do Maranhão","uf":"MA"},"geometry":{"type":"Point","coordinates":[-43.03,-4.69]}},{"type":"Feature","properties":{"id":"2103158","nome":"Centro do Guilherme","uf":"MA"},"geometry":{"type":"Point","coordinates":[-42.54,-4.42]}},{"type":"Feature","properties":{"id":"2103174","nome":"Centro Novo do Maranhão","uf":"MA"},"geometry":{"type":"Point","coordinates":[-42.05,-4.15]}},{"type":"Feature","properties":{"id":"2103208","nome":"Chapadinha","uf":"MA"},"geometry":{"type":"Point","coordinates":[-41.56,-3.88]}},{"type":"Feature","properties":{"id":"2103257","nome":"Cidelândia","uf":"MA"},"geometry":{"type":"Point","coordinates":[-41.07,-3.6100000000000003]}},{"type":"Feature","properties":{"id":"2103307","nome":"Codó","uf":"MA"},"geometry":{"type":"Point","coordinates":[-47.58,-3.34]}},{"type":"Feature","properties":{"id":"2103406","nome":"Coelho Neto","uf":"MA"},"geometry":{"type":"Point","coordinates":[-47.09,-3.0700000000000003]}},{"type":"Feature","properties":{"id":"2103505","nome":"Colinas","uf":"MA"},"geometry":{"type":"Point","coordinates":[-46.6,-2.8000000000000007]}},{"type":"Feature","properties":{"id":"2103554","nome":"Conceição do Lago-Açu","uf":"MA"},"geometry":{"type":"Point","coordinates":[-46.11,-2.5300000000000002]}},{"type":"Feature","properties":{"id":"2103604","nome":"Coroatá","uf":"MA"},"geometry":{"type":"Point","coordinates":[-45.62,-2.2600000000000007]}},{"type":"Feature","properties":{"id":"2103703","nome":"Cururupu","uf":"MA"},"geometry":{"type":"Point","coordinates":[-45.13,-1.9900000000000002]}},{"type":"Feature","properties":{"id":"2103752","nome":"Davinópolis","uf":"MA"},"geometry":{"type":"Point","coordinates":[-44.64,-1.7200000000000006]}},{"type":"Feature","properties":{"id":"2103802","nome":"Dom Pedro","uf":"MA"},"geometry":{"type":"Point","coordinates":[-44.15,-1.450000000000001]}},{"type":"Feature","properties":{"id":"2103901","nome":"Duque Bacelar","uf":"MA"},"geometry":{"type":"Point","coordinates":[-43.66,-1.1799999999999997]}},{"type":"Feature","properties":{"id":"2104008","nome":"Esperantinópolis","uf":"MA"},"geometry":{"type":"Point","coordinates":[-43.17,-9.91]}},{"type":"Feature","properties":{"id":"2104057","nome":"Estreito","uf":"MA"},"geometry":{"type":"Point","coordinates":[-42.68,-9.64]}},{"type":"Feature","properties":{"id":"2104073","nome":"Feira Nova do Maranhão","uf":"MA"},"geometry":{"type":"Point","coordinates":[-42.19,-9.37]}},{"type":"Feature","properties":{"id":"2104081","nome":"Fernando Falcão","uf":"MA"},"geometry":{"type":"Point","coordinates":[-41.7,-9.1]}},{"type":"Feature","properties":{"id":"2104099","nome":"Formosa da Serra Negra","uf":"MA"},"geometry":{"type":"Point","coordinates":[-41.21,-8.83]}},{"type":"Feature","properties":{"id":"2104107","nome":"Fortaleza dos Nogueiras","uf":"MA"},"geometry":{"type":"Point","coordinates":[-47.72,-8.56]}},{"type":"Feature","properties":{"id":"2104206","nome":"Fortuna","uf":"MA"},"geometry":{"type":"Point","coordinates":[-47.23,-8.29]}},{"type":"Feature","properties":{"id":"2104305","nome":"Godofredo Viana","uf":"MA"},"geometry":{"type":"Point","coordinates":[-46.74,-8.02]}},{"type":"Feature","properties":{"id":"2104404","nome":"Gonçalves Dias","uf":"MA"},"geometry":{"type":"Point","coordinates":[-46.25,-7.75]}},{"type":"Feature","properties":{"id":"2104503","nome":"Governador Archer","uf":"MA"},"geometry":{"type":"Point","coordinates":[-45.76,-7.48]}},{"type":"Feature","properties":{"id":"2104552","nome":"Governador Edison Lobão","uf":"MA"},"geometry":{"type":"Point","coordinates":[-45.269999999999996,-7.21]}},{"type":"Feature","properties":{"id":"2104602","nome":"Governador Eugênio Barros","uf":"MA"},"geometry":{"type":"Point","coordinates":[-44.78,-6.9399999999999995]}},{"type":"Feature","properties":{"id":"2104628","nome":"Governador Luiz Rocha","uf":"MA"},"geometry":{"type":"Point","coordinates":[-44.29,-6.67]}},{"type":"Feature","properties":{"id":"2104651","nome":"Governador Newton Bello","uf":"MA"},"geometry":{"type":"Point","coordinates":[-43.8,-6.4]}},{"type":"Feature","properties":{"id":"2104677","nome":"Governador Nunes Freire","uf":"MA"},"geometry":{"type":"Point","coordinates":[-43.31,-6.130000000000001]}},{"type":"Feature","properties":{"id":"2104701","nome":"Graça Aranha","uf":"MA"},"geometry":{"type":"Point","coordinates":[-42.82,-5.86]}},{"type":"Feature","properties":{"id":"2104800","nome":"Grajaú","uf":"MA"},"geometry":{"type":"Point","coordinates":[-42.33,-5.59]}},{"type":"Feature","properties":{"id":"2104909","nome":"Guimarães","uf":"MA"},"geometry":{"type":"Point","coordinates":[-41.84,-5.32]}},{"type":"Feature","properties":{"id":"2105005","nome":"Humberto de Campos","uf":"MA"},"geometry":{"type":"Point","coordinates":[-41.35,-5.05]}},{"type":"Feature","properties":{"id":"2105104","nome":"Icatu","uf":"MA"},"geometry":{"type":"Point","coordinates":[-47.86,-4.78]}},{"type":"Feature","properties":{"id":"2105153","nome":"Igarapé do Meio","uf":"MA"},"geometry":{"type":"Point","coordinates":[-47.37,-4.51]}},{"type":"Feature","properties":{"id":"2105203","nome":"Igarapé Grande","uf":"MA"},"geometry":{"type":"Point","coordinates":[-46.88,-4.24]}},{"type":"Feature","properties":{"id":"2105302","nome":"Imperatriz","uf":"MA"},"geometry":{"type":"Point","coordinates":[-46.39,-3.9700000000000006]}},{"type":"Feature","properties":{"id":"2105351","nome":"Itaipava do Grajaú","uf":"MA"},"geometry":{"type":"Point","coordinates":[-45.9,-3.7]}},{"type":"Feature","properties":{"id":"2105401","nome":"Itapecuru Mirim","uf":"MA"},"geometry":{"type":"Point","coordinates":[-45.41,-3.4300000000000006]}},{"type":"Feature","properties":{"id":"2105427","nome":"Itinga do Maranhão","uf":"MA"},"geometry":{"type":"Point","coordinates":[-44.92,-3.16]}},{"type":"Feature","properties":{"id":"2105450","nome":"Jatobá","uf":"MA"},"geometry":{"type":"Point","coordinates":[-44.43,-2.8900000000000006]}},{"type":"Feature","properties":{"id":"2105476","nome":"Jenipapo dos Vieiras","uf":"MA"},"geometry":{"type":"Point","coordinates":[-43.94,-2.62]}},{"type":"Feature","properties":{"id":"2105500","nome":"João Lisboa","uf":"MA"},"geometry":{"type":"Point","coordinates":[-43.45,-2.3500000000000005]}},{"type":"Feature","properties":{"id":"2105609","nome":"Joselândia","uf":"MA"},"geometry":{"type":"Point","coordinates":[-42.96,-2.08]}},{"type":"Feature","properties":{"id":"2105658","nome":"Junco do Maranhão","uf":"MA"},"geometry":{"type":"Point","coordinates":[-42.47,-1.8100000000000005]}},{"type":"Feature","properties":{"id":"2105708","nome":"Lago da Pedra","uf":"MA"},"geometry":{"type":"Point","coordinates":[-41.98,-1.540000000000001]}},{"type":"Feature","properties":{"id":"2105807","nome":"Lago do Junco","uf":"MA"},"geometry":{"type":"Point","coordinates":[-41.49,-1.2699999999999996]}},{"type":"Feature","properties":{"id":"2105906","nome":"Lago Verde","uf":"MA"},"geometry":{"type":"Point","coordinates":[-48,-10]}},{"type":"Feature","properties":{"id":"2105922","nome":"Lagoa do Mato","uf":"MA"},"geometry":{"type":"Point","coordinates":[-47.51,-9.73]}},{"type":"Feature","properties":{"id":"2105948","nome":"Lago dos Rodrigues","uf":"MA"},"geometry":{"type":"Point","coordinates":[-47.02,-9.46]}},{"type":"Feature","properties":{"id":"2105963","nome":"Lagoa Grande do Maranhão","uf":"MA"},"geometry":{"type":"Point","coordinates":[-46.53,-9.19]}},{"type":"Feature","properties":{"id":"2105989","nome":"Lajeado Novo","uf":"MA"},"geometry":{"type":"Point","coordinates":[-46.04,-8.92]}},{"type":"Feature","properties":{"id":"2106003","nome":"Lima Campos","uf":"MA"},"geometry":{"type":"Point","coordinates":[-45.55,-8.65]}},{"type":"Feature","properties":{"id":"2106102","nome":"Loreto","uf":"MA"},"geometry":{"type":"Point","coordinates":[-45.06,-8.38]}},{"type":"Feature","properties":{"id":"2106201","nome":"Luís Domingues","uf":"MA"},"geometry":{"type":"Point","coordinates":[-44.57,-8.11]}},{"type":"Feature","properties":{"id":"2106300","nome":"Magalhães de Almeida","uf":"MA"},"geometry":{"type":"Point","coordinates":[-44.08,-7.84]}},{"type":"Feature","properties":{"id":"2106326","nome":"Maracaçumé","uf":"MA"},"geometry":{"type":"Point","coordinates":[-43.59,-7.57]}},{"type":"Feature","properties":{"id":"2106359","nome":"Marajá do Sena","uf":"MA"},"geometry":{"type":"Point","coordinates":[-43.1,-7.300000000000001]}},{"type":"Feature","properties":{"id":"2106375","nome":"Maranhãozinho","uf":"MA"},"geometry":{"type":"Point","coordinates":[-42.61,-7.03]}},{"type":"Feature","properties":{"id":"2106409","nome":"Mata Roma","uf":"MA"},"geometry":{"type":"Point","coordinates":[-42.12,-6.76]}},{"type":"Feature","properties":{"id":"2106508","nome":"Matinha","uf":"MA"},"geometry":{"type":"Point","coordinates":[-41.629999999999995,-6.49]}},{"type":"Feature","properties":{"id":"2106607","nome":"Matões","uf":"MA"},"geometry":{"type":"Point","coordinates":[-41.14,-6.220000000000001]}},{"type":"Feature","properties":{"id":"2106631","nome":"Matões do Norte","uf":"MA"},"geometry":{"type":"Point","coordinates":[-47.65,-5.95]}},{"type":"Feature","properties":{"id":"2106672","nome":"Milagres do Maranhão","uf":"MA"},"geometry":{"type":"Point","coordinates":[-47.16,-5.68]}},{"type":"Feature","properties":{"id":"2106706","nome":"Mirador","uf":"MA"},"geometry":{"type":"Point","coordinates":[-46.67,-5.41]}},{"type":"Feature","properties":{"id":"2106755","nome":"Miranda do Norte","uf":"MA"},"geometry":{"type":"Point","coordinates":[-46.18,-5.140000000000001]}},{"type":"Feature","properties":{"id":"2106805","nome":"Mirinzal","uf":"MA"},"geometry":{"type":"Point","coordinates":[-45.69,-4.87]}},{"type":"Feature","properties":{"id":"2106904","nome":"Monção","uf":"MA"},"geometry":{"type":"Point","coordinates":[-45.2,-4.6000000000000005]}},{"type":"Feature","properties":{"id":"2107001","nome":"Montes Altos","uf":"MA"},"geometry":{"type":"Point","coordinates":[-44.71,-4.33]}},{"type":"Feature","properties":{"id":"2107100","nome":"Morros","uf":"MA"},"geometry":{"type":"Point","coordinates":[-44.22,-4.0600000000000005]}},{"type":"Feature","properties":{"id":"2107209","nome":"Nina Rodrigues","uf":"MA"},"geometry":{"type":"Point","coordinates":[-43.73,-3.79]}},{"type":"Feature","properties":{"id":"2107258","nome":"Nova Colinas","uf":"MA"},"geometry":{"type":"Point","coordinates":[-43.24,-3.5200000000000005]}},{"type":"Feature","properties":{"id":"2107308","nome":"Nova Iorque","uf":"MA"},"geometry":{"type":"Point","coordinates":[-42.75,-3.25]}},{"type":"Feature","properties":{"id":"2107357","nome":"Nova Olinda do Maranhão","uf":"MA"},"geometry":{"type":"Point","coordinates":[-42.26,-2.9800000000000004]}},{"type":"Feature","properties":{"id":"2107407","nome":"Olho d'Água das Cunhãs","uf":"MA"},"geometry":{"type":"Point","coordinates":[-41.769999999999996,-2.71]}},{"type":"Feature","properties":{"id":"2107456","nome":"Olinda Nova do Maranhão","uf":"MA"},"geometry":{"type":"Point","coordinates":[-41.28,-2.4400000000000004]}},{"type":"Feature","properties":{"id":"2107506","nome":"Paço do Lumiar","uf":"MA"},"geometry":{"type":"Point","coordinates":[-47.79,-2.17]}},{"type":"Feature","properties":{"id":"2107605","nome":"Palmeirândia","uf":"MA"},"geometry":{"type":"Point","coordinates":[-47.3,-1.9000000000000004]}},{"type":"Feature","properties":{"id":"2107704","nome":"Paraibano","uf":"MA"},"geometry":{"type":"Point","coordinates":[-46.81,-1.6300000000000008]}},{"type":"Feature","properties":{"id":"2107803","nome":"Parnarama","uf":"MA"},"geometry":{"type":"Point","coordinates":[-46.32,-1.3599999999999994]}},{"type":"Feature","properties":{"id":"2107902","nome":"Passagem Franca","uf":"MA"},"geometry":{"type":"Point","coordinates":[-45.83,-1.0899999999999999]}},{"type":"Feature","properties":{"id":"2108009","nome":"Pastos Bons","uf":"MA"},"geometry":{"type":"Point","coordinates":[-45.34,-9.82]}},{"type":"Feature","properties":{"id":"2108058","nome":"Paulino Neves","uf":"MA"},"geometry":{"type":"Point","coordinates":[-44.85,-9.55]}},{"type":"Feature","properties":{"id":"2108108","nome":"Paulo Ramos","uf":"MA"},"geometry":{"type":"Point","coordinates":[-44.36,-9.28]}},{"type":"Feature","properties":{"id":"2108207","nome":"Pedreiras","uf":"MA"},"geometry":{"type":"Point","coordinates":[-43.87,-9.01]}},{"type":"Feature","properties":{"id":"2108256","nome":"Pedro do Rosário","uf":"MA"},"geometry":{"type":"Point","coordinates":[-43.38,-8.74]}},{"type":"Feature","properties":{"id":"2108306","nome":"Penalva","uf":"MA"},"geometry":{"type":"Point","coordinates":[-42.89,-8.47]}},{"type":"Feature","properties":{"id":"2108405","nome":"Peri Mirim","uf":"MA"},"geometry":{"type":"Point","coordinates":[-42.4,-8.2]}},{"type":"Feature","properties":{"id":"2108454","nome":"Peritoró","uf":"MA"},"geometry":{"type":"Point","coordinates":[-41.91,-7.93]}},{"type":"Feature","properties":{"id":"2108504","nome":"Pindaré-Mirim","uf":"MA"},"geometry":{"type":"Point","coordinates":[-41.42,-7.66]}},{"type":"Feature","properties":{"id":"2108603","nome":"Pinheiro","uf":"MA"},"geometry":{"type":"Point","coordinates":[-47.93,-7.390000000000001]}},{"type":"Feature","properties":{"id":"2108702","nome":"Pio XII","uf":"MA"},"geometry":{"type":"Point","coordinates":[-47.44,-7.12]}},{"type":"Feature","properties":{"id":"2108801","nome":"Pirapemas","uf":"MA"},"geometry":{"type":"Point","coordinates":[-46.95,-6.85]}},{"type":"Feature","properties":{"id":"2108900","nome":"Poção de Pedras","uf":"MA"},"geometry":{"type":"Point","coordinates":[-46.46,-6.58]}},{"type":"Feature","properties":{"id":"2109007","nome":"Porto Franco","uf":"MA"},"geometry":{"type":"Point","coordinates":[-45.97,-6.3100000000000005]}},{"type":"Feature","properties":{"id":"2109056","nome":"Porto Rico do Maranhão","uf":"MA"},"geometry":{"type":"Point","coordinates":[-45.48,-6.04]}},{"type":"Feature","properties":{"id":"2109106","nome":"Presidente Dutra","uf":"MA"},"geometry":{"type":"Point","coordinates":[-44.99,-5.7700000000000005]}},{"type":"Feature","properties":{"id":"2109205","nome":"Presidente Juscelino","uf":"MA"},"geometry":{"type":"Point","coordinates":[-44.5,-5.5]}},{"type":"Feature","properties":{"id":"2109239","nome":"Presidente Médici","uf":"MA"},"geometry":{"type":"Point","coordinates":[-44.01,-5.23]}},{"type":"Feature","properties":{"id":"2109270","nome":"Presidente Sarney","uf":"MA"},"geometry":{"type":"Point","coordinates":[-43.519999999999996,-4.96]}},{"type":"Feature","properties":{"id":"2109304","nome":"Presidente Vargas","uf":"MA"},"geometry":{"type":"Point","coordinates":[-43.03,-4.69]}},{"type":"Feature","properties":{"id":"2109403","nome":"Primeira Cruz","uf":"MA"},"geometry":{"type":"Point","coordinates":[-42.54,-4.42]}},{"type":"Feature","properties":{"id":"2109452","nome":"Raposa","uf":"MA"},"geometry":{"type":"Point","coordinates":[-42.05,-4.15]}},{"type":"Feature","properties":{"id":"2109502","nome":"Riachão","uf":"MA"},"geometry":{"type":"Point","coordinates":[-41.56,-3.88]}},{"type":"Feature","properties":{"id":"2109551","nome":"Ribamar Fiquene","uf":"MA"},"geometry":{"type":"Point","coordinates":[-41.07,-3.6100000000000003]}},{"type":"Feature","properties":{"id":"2109601","nome":"Rosário","uf":"MA"},"geometry":{"type":"Point","coordinates":[-47.58,-3.34]}},{"type":"Feature","properties":{"id":"2109700","nome":"Sambaíba","uf":"MA"},"geometry":{"type":"Point","coordinates":[-47.09,-3.0700000000000003]}},{"type":"Feature","properties":{"id":"2109759","nome":"Santa Filomena do Maranhão","uf":"MA"},"geometry":{"type":"Point","coordinates":[-46.6,-2.8000000000000007]}},{"type":"Feature","properties":{"id":"2109809","nome":"Santa Helena","uf":"MA"},"geometry":{"type":"Point","coordinates":[-46.11,-2.5300000000000002]}},{"type":"Feature","properties":{"id":"2109908","nome":"Santa Inês","uf":"MA"},"geometry":{"type":"Point","coordinates":[-45.62,-2.2600000000000007]}},{"type":"Feature","properties":{"id":"2110005","nome":"Santa Luzia","uf":"MA"},"geometry":{"type":"Point","coordinates":[-45.13,-1.9900000000000002]}},{"type":"Feature","properties":{"id":"2110039","nome":"Santa Luzia do Paruá","uf":"MA"},"geometry":{"type":"Point","coordinates":[-44.64,-1.7200000000000006]}},{"type":"Feature","properties":{"id":"2110104","nome":"Santa Quitéria do Maranhão","uf":"MA"},"geometry":{"type":"Point","coordinates":[-44.15,-1.450000000000001]}},{"type":"Feature","properties":{"id":"2110203","nome":"Santa Rita","uf":"MA"},"geometry":{"type":"Point","coordinates":[-43.66,-1.1799999999999997]}},{"type":"Feature","properties":{"id":"2110237","nome":"Santana do Maranhão","uf":"MA"},"geometry":{"type":"Point","coordinates":[-43.17,-9.91]}},{"type":"Feature","properties":{"id":"2110278","nome":"Santo Amaro do Maranhão","uf":"MA"},"geometry":{"type":"Point","coordinates":[-42.68,-9.64]}},{"type":"Feature","properties":{"id":"2110302","nome":"Santo Antônio dos Lopes","uf":"MA"},"geometry":{"type":"Point","coordinates":[-42.19,-9.37]}},{"type":"Feature","properties":{"id":"2110401","nome":"São Benedito do Rio Preto","uf":"MA"},"geometry":{"type":"Point","coordinates":[-41.7,-9.1]}},{"type":"Feature","properties":{"id":"2110500","nome":"São Bento","uf":"MA"},"geometry":{"type":"Point","coordinates":[-41.21,-8.83]}},{"type":"Feature","properties":{"id":"2110609","nome":"São Bernardo","uf":"MA"},"geometry":{"type":"Point","coordinates":[-47.72,-8.56]}},{"type":"Feature","properties":{"id":"2110658","nome":"São Domingos do Azeitão","uf":"MA"},"geometry":{"type":"Point","coordinates":[-47.23,-8.29]}},{"type":"Feature","properties":{"id":"2110708","nome":"São Domingos do Maranhão","uf":"MA"},"geometry":{"type":"Point","coordinates":[-46.74,-8.02]}},{"type":"Feature","properties":{"id":"2110807","nome":"São Félix de Balsas","uf":"MA"},"geometry":{"type":"Point","coordinates":[-46.25,-7.75]}},{"type":"Feature","properties":{"id":"2110856","nome":"São Francisco do Brejão","uf":"MA"},"geometry":{"type":"Point","coordinates":[-45.76,-7.48]}},{"type":"Feature","properties":{"id":"2110906","nome":"São Francisco do Maranhão","uf":"MA"},"geometry":{"type":"Point","coordinates":[-45.269999999999996,-7.21]}},{"type":"Feature","properties":{"id":"2111003","nome":"São João Batista","uf":"MA"},"geometry":{"type":"Point","coordinates":[-44.78,-6.9399999999999995]}},{"type":"Feature","properties":{"id":"2111029","nome":"São João do Carú","uf":"MA"},"geometry":{"type":"Point","coordinates":[-44.29,-6.67]}},{"type":"Feature","properties":{"id":"2111052","nome":"São João do Paraíso","uf":"MA"},"geometry":{"type":"Point","coordinates":[-43.8,-6.4]}},{"type":"Feature","properties":{"id":"2111078","nome":"São João do Soter","uf":"MA"},"geometry":{"type":"Point","coordinates":[-43.31,-6.130000000000001]}},{"type":"Feature","properties":{"id":"2111102","nome":"São João dos Patos","uf":"MA"},"geometry":{"type":"Point","coordinates":[-42.82,-5.86]}},{"type":"Feature","properties":{"id":"2111201","nome":"São José de Ribamar","uf":"MA"},"geometry":{"type":"Point","coordinates":[-42.33,-5.59]}},{"type":"Feature","properties":{"id":"2111250","nome":"São José dos Basílios","uf":"MA"},"geometry":{"type":"Point","coordinates":[-41.84,-5.32]}},{"type":"Feature","properties":{"id":"2111300","nome":"São Luís","uf":"MA"},"geometry":{"type":"Point","coordinates":[-41.35,-5.05]}},{"type":"Feature","properties":{"id":"2111409","nome":"São Luís Gonzaga do Maranhão","uf":"MA"},"geometry":{"type":"Point","coordinates":[-47.86,-4.78]}},{"type":"Feature","properties":{"id":"2111508","nome":"São Mateus do Maranhão","uf":"MA"},"geometry":{"type":"Point","coordinates":[-47.37,-4.51]}},{"type":"Feature","properties":{"id":"2111532","nome":"São Pedro da Água Branca","uf":"MA"},"geometry":{"type":"Point","coordinates":[-46.88,-4.24]}},{"type":"Feature","properties":{"id":"2111573","nome":"São Pedro dos Crentes","uf":"MA"},"geometry":{"type":"Point","coordinates":[-46.39,-3.9700000000000006]}},{"type":"Feature","properties":{"id":"2111607","nome":"São Raimundo das Mangabeiras","uf":"MA"},"geometry":{"type":"Point","coordinates":[-45.9,-3.7]}},{"type":"Feature","properties":{"id":"2111631","nome":"São Raimundo do Doca Bezerra","uf":"MA"},"geometry":{"type":"Point","coordinates":[-45.41,-3.4300000000000006]}},{"type":"Feature","properties":{"id":"2111672","nome":"São Roberto","uf":"MA"},"geometry":{"type":"Point","coordinates":[-44.92,-3.16]}},{"type":"Feature","properties":{"id":"2111706","nome":"São Vicente Ferrer","uf":"MA"},"geometry":{"type":"Point","coordinates":[-44.43,-2.8900000000000006]}},{"type":"Feature","properties":{"id":"2111722","nome":"Satubinha","uf":"MA"},"geometry":{"type":"Point","coordinates":[-43.94,-2.62]}},{"type":"Feature","properties":{"id":"2111748","nome":"Senador Alexandre Costa","uf":"MA"},"geometry":{"type":"Point","coordinates":[-43.45,-2.3500000000000005]}},{"type":"Feature","properties":{"id":"2111763","nome":"Senador La Rocque","uf":"MA"},"geometry":{"type":"Point","coordinates":[-42.96,-2.08]}},{"type":"Feature","properties":{"id":"2111789","nome":"Serrano do Maranhão","uf":"MA"},"geometry":{"type":"Point","coordinates":[-42.47,-1.8100000000000005]}},{"type":"Feature","properties":{"id":"2111805","nome":"Sítio Novo","uf":"MA"},"geometry":{"type":"Point","coordinates":[-41.98,-1.540000000000001]}},{"type":"Feature","properties":{"id":"2111904","nome":"Sucupira do Norte","uf":"MA"},"geometry":{"type":"Point","coordinates":[-41.49,-1.2699999999999996]}},{"type":"Feature","properties":{"id":"2111953","nome":"Sucupira do Riachão","uf":"MA"},"geometry":{"type":"Point","coordinates":[-48,-10]}},{"type":"Feature","properties":{"id":"2112001","nome":"Tasso Fragoso","uf":"MA"},"geometry":{"type":"Point","coordinates":[-47.51,-9.73]}},{"type":"Feature","properties":{"id":"2112100","nome":"Timbiras","uf":"MA"},"geometry":{"type":"Point","coordinates":[-47.02,-9.46]}},{"type":"Feature","properties":{"id":"2112209","nome":"Timon","uf":"MA"},"geometry":{"type":"Point","coordinates":[-46.53,-9.19]}},{"type":"Feature","properties":{"id":"2112233","nome":"Trizidela do Vale","uf":"MA"},"geometry":{"type":"Point","coordinates":[-46.04,-8.92]}},{"type":"Feature","properties":{"id":"2112274","nome":"Tufilândia","uf":"MA"},"geometry":{"type":"Point","coordinates":[-45.55,-8.65]}},{"type":"Feature","properties":{"id":"2112308","nome":"Tuntum","uf":"MA"},"geometry":{"type":"Point","coordinates":[-45.06,-8.38]}},{"type":"Feature","properties":{"id":"2112407","nome":"Turiaçu","uf":"MA"},"geometry":{"type":"Point","coordinates":[-44.57,-8.11]}},{"type":"Feature","properties":{"id":"2112456","nome":"Turilândia","uf":"MA"},"geometry":{"type":"Point","coordinates":[-44.08,-7.84]}},{"type":"Feature","properties":{"id":"2112506","nome":"Tutóia","uf":"MA"},"geometry":{"type":"Point","coordinates":[-43.59,-7.57]}},{"type":"Feature","properties":{"id":"2112605","nome":"Urbano Santos","uf":"MA"},"geometry":{"type":"Point","coordinates":[-43.1,-7.300000000000001]}},{"type":"Feature","properties":{"id":"2112704","nome":"Vargem Grande","uf":"MA"},"geometry":{"type":"Point","coordinates":[-42.61,-7.03]}},{"type":"Feature","properties":{"id":"2112803","nome":"Viana","uf":"MA"},"geometry":{"type":"Point","coordinates":[-42.12,-6.76]}},{"type":"Feature","properties":{"id":"2112852","nome":"Vila Nova dos Martírios","uf":"MA"},"geometry":{"type":"Point","coordinates":[-41.629999999999995,-6.49]}},{"type":"Feature","properties":{"id":"2112902","nome":"Vitória do Mearim","uf":"MA"},"geometry":{"type":"Point","coordinates":[-41.14,-6.220000000000001]}},{"type":"Feature","properties":{"id":"2113009","nome":"Vitorino Freire","uf":"MA"},"geometry":{"type":"Point","coordinates":[-47.65,-5.95]}},{"type":"Feature","properties":{"id":"2114007","nome":"Zé Doca","uf":"MA"},"geometry":{"type":"Point","coordinates":[-47.16,-5.68]}}]}