{"type":"FeatureCollection","features":[{"type":"Feature","properties":{"id":"2300101","nome":"Abaiara","uf":"CE"},"geometry":{"type":"Point","coordinates":[-41,-8]}},{"type":"Feature","properties":{"id":"2300150","nome":"Acarape","uf":"CE"},"geometry":{"type":"Point","coordinates":[-40.72,-7.82]}},{"type":"Feature","properties":{"id":"2300200","nome":"Acaraú","uf":"CE"},"geometry":{"type":"Point","coordinates":[-40.44,-7.64]}},{"type":"Feature","properties":{"id":"2300309","nome":"Acopiara","uf":"CE"},"geometry":{"type":"Point","coordinates":[-40.16,-7.46]}},{"type":"Feature","properties":{"id":"2300408","nome":"Aiuaba","uf":"CE"},"geometry":{"type":"Point","coordinates":[-39.88,-7.28]}},{"type":"Feature","properties":{"id":"2300507","nome":"Alcântaras","uf":"CE"},"geometry":{"type":"Point","coordinates":[-39.6,-7.1]}},{"type":"Feature","properties":{"id":"2300606","nome":"Altaneira","uf":"CE"},"geometry":{"type":"Point","coordinates":[-39.32,-6.92]}},{"type":"Feature","properties":{"id":"2300705","nome":"Alto Santo","uf":"CE"},"geometry":{"type":"Point","coordinates":[-39.04,-6.74]}},{"type":"Feature","properties":{"id":"2300754","nome":"Amontada","uf":"CE"},"geometry":{"type":"Point","coordinates":[-38.76,-6.5600000000000005]}},{"type":"Feature","properties":{"id":"2300804","nome":"Antonina do Norte","uf":"CE"},"geometry":{"type":"Point","coordinates":[-38.48,-6.38]}},{"type":"Feature","properties":{"id":"2300903","nome":"Apuiarés","uf":"CE"},"geometry":{"type":"Point","coordinates":[-38.2,-6.2]}},{"type":"Feature","properties":{"id":"2301000","nome":"Aquiraz","uf":"CE"},"geometry":{"type":"Point","coordinates":[-37.92,-6.02]}},{"type":"Feature","properties":{"id":"2301109","nome":"Aracati","uf":"CE"},"geometry":{"type":"Point","coordinates":[-37.64,-5.84]}},{"type":"Feature","properties":{"id":"2301208","nome":"Aracoiaba","uf":"CE"},"geometry":{"type":"Point","coordinates":[-37.36,-5.66]}},{"type":"Feature","properties":{"id":"2301257","nome":"Ararendá","uf":"CE"},"geometry":{"type":"Point","coordinates":[-37.08,-5.48]}},{"type":"Feature","properties":{"id":"2301307","nome":"Araripe","uf":"CE"},"geometry":{"type":"Point","coordinates":[-40.8,-5.300000000000001]}},{"type":"Feature","properties":{"id":"2301406","nome":"Aratuba","uf":"CE"},"geometry":{"type":"Point","coordinates":[-40.52,-5.12]}},{"type":"Feature","properties":{"id":"2301505","nome":"Arneiroz","uf":"CE"},"geometry":{"type":"Point","coordinates":[-40.24,-4.9399999999999995]}},{"type":"Feature","properties":{"id":"2301604","nome":"Assaré","uf":"CE"},"geometry":{"type":"Point","coordinates":[-39.96,-4.76]}},{"type":"Feature","properties":{"id":"2301703","nome":"Aurora","uf":"CE"},"geometry":{"type":"Point","coordinates":[-39.68,-4.58]}},{"type":"Feature","properties":{"id":"2301802","nome":"Baixio","uf":"CE"},"geometry":{"type":"Point","coordinates":[-39.4,-4.4]}},{"type":"Feature","properties":{"id":"2301851","nome":"Banabuiú","uf":"CE"},"geometry":{"type":"Point","coordinates":[-39.12,-4.220000000000001]}},{"type":"Feature","properties":{"id":"2301901","nome":"Barbalha","uf":"CE"},"geometry":{"type":"Point","coordinates":[-38.84,-4.04]}},{"type":"Feature","properties":{"id":"2301950","nome":"Barreira","uf":"CE"},"geometry":{"type":"Point","coordinates":[-38.56,-3.8600000000000003]}},{"type":"Feature","properties":{"id":"2302008","nome":"Barro","uf":"CE"},"geometry":{"type":"Point","coordinates":[-38.28,-3.6799999999999997]}},{"type":"Feature","properties":{"id":"2302057","nome":"Barroquinha","uf":"CE"},"geometry":{"type":"Point","coordinates":[-38,-3.5]}},{"type":"Feature","properties":{"id":"2302107","nome":"Baturité","uf":"CE"},"geometry":{"type":"Point","coordinates":[-37.72,-3.3200000000000003]}},{"type":"Feature","properties":{"id":"2302206","nome":"Beberibe","uf":"CE"},"geometry":{"type":"Point","coordinates":[-37.44,-3.1400000000000006]}},{"type":"Feature","properties":{"id":"2302305","nome":"Bela Cruz","uf":"CE"},"geometry":{"type":"Point","coordinates":[-37.16,-2.96]}},{"type":"Feature","properties":{"id":"2302404","nome":"Boa Viagem","uf":"CE"},"geometry":{"type":"Point","coordinates":[-40.88,-2.7800000000000002]}},{"type":"Feature","properties":{"id":"2302503","nome":"Brejo Santo","uf":"CE"},"geometry":{"type":"Point","coordinates":[-40.6,-2.6000000000000005]}},{"type":"Feature","properties":{"id":"2302602","nome":"Camocim","uf":"CE"},"geometry":{"type":"Point","coordinates":[-40.32,-2.42]}},{"type":"Feature","properties":{"id":"2302701","nome":"Campos Sales","uf":"CE"},"geometry":{"type":"Point","coordinates":[-40.04,-2.24]}},{"type":"Feature","properties":{"id":"2302800","nome":"Canindé","uf":"CE"},"geometry":{"type":"Point","coordinates":[-39.76,-2.0600000000000005]}},{"type":"Feature","properties":{"id":"2302909","nome":"Capistrano","uf":"CE"},"geometry":{"type":"Point","coordinates":[-39.48,-7.88]}},{"type":"Feature","properties":{"id":"2303006","nome":"Caridade","uf":"CE"},"geometry":{"type":"Point","coordinates":[-39.2,-7.7]}},{"type":"Feature","properties":{"id":"2303105","nome":"Cariré","uf":"CE"},"geometry":{"type":"Point","coordinates":[-38.92,-7.52]}},{"type":"Feature","properties":{"id":"2303204","nome":"Caririaçu","uf":"CE"},"geometry":{"type":"Point","coordinates":[-38.64,-7.34]}},{"type":"Feature","properties":{"id":"2303303","nome":"Cariús","uf":"CE"},"geometry":{"type":"Point","coordinates":[-38.36,-7.16]}},{"type":"Feature","properties":{"id":"2303402","nome":"Carnaubal","uf":"CE"},"geometry":{"type":"Point","coordinates":[-38.08,-6.98]}},{"type":"Feature","properties":{"id":"2303501","nome":"Cascavel","uf":"CE"},"geometry":{"type":"Point","coordinates":[-37.8,-6.8]}},{"type":"Feature","properties":{"id":"2303600","nome":"Catarina","uf":"CE"},"geometry":{"type":"Point","coordinates":[-37.52,-6.62]}},{"type":"Feature","properties":{"id":"2303659","nome":"Catunda","uf":"CE"},"geometry":{"type":"Point","coordinates":[-37.24,-6.4399999999999995]}},{"type":"Feature","properties":{"id":"2303709","nome":"Caucaia","uf":"CE"},"geometry":{"type":"Point","coordinates":[-40.96,-6.26]}},{"type":"Feature","properties":{"id":"2303808","nome":"Cedro","uf":"CE"},"geometry":{"type":"Point","coordinates":[-40.68,-6.08]}},{"type":"Feature","properties":{"id":"2303907","nome":"Chaval","uf":"CE"},"geometry":{"type":"Point","coordinates":[-40.4,-5.9]}},{"type":"Feature","properties":{"id":"2303931","nome":"Choró","uf":"CE"},"geometry":{"type":"Point","coordinates":[-40.12,-5.720000000000001]}},{"type":"Feature","properties":{"id":"2303956","nome":"Chorozinho","uf":"CE"},"geometry":{"type":"Point","coordinates":[-39.84,-5.54]}},{"type":"Feature","properties":{"id":"2304004","nome":"Coreaú","uf":"CE"},"geometry":{"type":"Point","coordinates":[-39.56,-5.36]}},{"type":"Feature","properties":{"id":"2304103","nome":"Crateús","uf":"CE"},"geometry":{"type":"Point","coordinates":[-39.28,-5.18]}},{"type":"Feature","properties":{"id":"2304202","nome":"Crato","uf":"CE"},"geometry":{"type":"Point","coordinates":[-39,-5]}},{"type":"Feature","properties":{"id":"2304236","nome":"Croatá","uf":"CE"},"geometry":{"type":"Point","coordinates":[-38.72,-4.82]}},{"type":"Feature","properties":{"id":"2304251","nome":"Cruz","uf":"CE"},"geometry":{"type":"Point","coordinates":[-38.44,-4.640000000000001]}},{"type":"Feature","properties":{"id":"2304269","nome":"Deputado Irapuan Pinheiro","uf":"CE"},"geometry":{"type":"Point","coordinates":[-38.16,-4.46]}},{"type":"Feature","properties":{"id":"2304277","nome":"Ereré","uf":"CE"},"geometry":{"type":"Point","coordinates":[-37.88,-4.28]}},{"type":"Feature","properties":{"id":"2304285","nome":"Eusébio","uf":"CE"},"geometry":{"type":"Point","coordinates":[-37.6,-4.1]}},{"type":"Feature","properties":{"id":"2304301","nome":"Farias Brito","uf":"CE"},"geometry":{"type":"Point","coordinates":[-37.32,-3.92]}},{"type":"Feature","properties":{"id":"2304350","nome":"Forquilha","uf":"CE"},"geometry":{"type":"Point","coordinates":[-37.04,-3.74]}},{"type":"Feature","properties":{"id":"2304400","nome":"Fortaleza","uf":"CE"},"geometry":{"type":"Point","coordinates":[-40.76,-3.5600000000000005]}},{"type":"Feature","properties":{"id":"2304459","nome":"Fortim","uf":"CE"},"geometry":{"type":"Point","coordinates":[-40.48,-3.38]}},{"type":"Feature","properties":{"id":"2304509","nome":"Frecheirinha","uf":"CE"},"geometry":{"type":"Point","coordinates":[-40.2,-3.2]}},{"type":"Feature","properties":{"id":"2304608","nome":"General Sampaio","uf":"CE"},"geometry":{"type":"Point","coordinates":[-39.92,-3.0200000000000005]}},{"type":"Feature","properties":{"id":"2304657","nome":"Graça","uf":"CE"},"geometry":{"type":"Point","coordinates":[-39.64,-2.84]}},{"type":"Feature","properties":{"id":"2304707","nome":"Granja","uf":"CE"},"geometry":{"type":"Point","coordinates":[-39.36,-2.66]}},{"type":"Feature","properties":{"id":"2304806","nome":"Granjeiro","uf":"CE"},"geometry":{"type":"Point","coordinates":[-39.08,-2.4800000000000004]}},{"type":"Feature","properties":{"id":"2304905","nome":"Groaíras","uf":"CE"},"geometry":{"type":"Point","coordinates":[-38.8,-2.3]}},{"type":"Feature","properties":{"id":"2304954","nome":"Guaiúba","uf":"CE"},"geometry":{"type":"Point","coordinates":[-38.52,-2.12]}},{"type":"Feature","properties":{"id":"2305001","nome":"Guaraciaba do Norte","uf":"CE"},"geometry":{"type":"Point","coordinates":[-38.24,-7.94]}},{"type":"Feature","properties":{"id":"2305100","nome":"Guaramiranga","uf":"CE"},"geometry":{"type":"Point","coordinates":[-37.96,-7.76]}},{"type":"Feature","properties":{"id":"2305209","nome":"Hidrolândia","uf":"CE"},"geometry":{"type":"Point","coordinates":[-37.68,-7.58]}},{"type":"Feature","properties":{"id":"2305233","nome":"Horizonte","uf":"CE"},"geometry":{"type":"Point","coordinates":[-37.4,-7.4]}},{"type":"Feature","properties":{"id":"2305266","nome":"Ibaretama","uf":"CE"},"geometry":{"type":"Point","coordinates":[-37.12,-7.22]}},{"type":"Feature","properties":{"id":"2305308","nome":"Ibiapina","uf":"CE"},"geometry":{"type":"Point","coordinates":[-40.84,-7.04]}},{"type":"Feature","properties":{"id":"2305332","nome":"Ibicuitinga","uf":"CE"},"geometry":{"type":"Point","coordinates":[-40.56,-6.86]}},{"type":"Feature","properties":{"id":"2305357","nome":"Icapuí","uf":"CE"},"geometry":{"type":"Point","coordinates":[-40.28,-6.68]}},{"type":"Feature","properties":{"id":"2305407","nome":"Icó","uf":"CE"},"geometry":{"type":"Point","coordinates":[-40,-6.5]}},{"type":"Feature","properties":{"id":"2305506","nome":"Iguatu","uf":"CE"},"geometry":{"type":"Point","coordinates":[-39.72,-6.32]}},{"type":"Feature","properties":{"id":"2305605","nome":"Independência","uf":"CE"},"geometry":{"type":"Point","coordinates":[-39.44,-6.140000000000001]}},{"type":"Feature","properties":{"id":"2305654","nome":"Ipaporanga","uf":"CE"},"geometry":{"type":"Point","coordinates":[-39.16,-5.96]}},{"type":"Feature","properties":{"id":"2305704","nome":"Ipaumirim","uf":"CE"},"geometry":{"type":"Point","coordinates":[-38.88,-5.78]}},{"type":"Feature","properties":{"id":"2305803","nome":"Ipu","uf":"CE"},"geometry":{"type":"Point","coordinates":[-38.6,-5.6]}},{"type":"Feature","properties":{"id":"2305902","nome":"Ipueiras","uf":"CE"},"geometry":{"type":"Point","coordinates":[-38.32,-5.42]}},{"type":"Feature","properties":{"id":"2306009","nome":"Iracema","uf":"CE"},"geometry":{"type":"Point","coordinates":[-38.04,-5.24]}},{"type":"Feature","properties":{"id":"2306108","nome":"Irauçuba","uf":"CE"},"geometry":{"type":"Point","coordinates":[-37.76,-5.0600000000000005]}},{"type":"Feature","properties":{"id":"2306207","nome":"Itaiçaba","uf":"CE"},"geometry":{"type":"Point","coordinates":[-37.48,-4.88]}},{"type":"Feature","properties":{"id":"2306256","nome":"Itaitinga","uf":"CE"},"geometry":{"type":"Point","coordinates":[-37.2,-4.7]}},{"type":"Feature","properties":{"id":"2306306","nome":"Itapajé","uf":"CE"},"geometry":{"type":"Point","coordinates":[-40.92,-4.52]}},{"type":"Feature","properties":{"id":"2306405","nome":"Itapipoca","uf":"CE"},"geometry":{"type":"Point","coordinates":[-40.64,-4.34]}},{"type":"Feature","properties":{"id":"2306504","nome":"Itapiúna","uf":"CE"},"geometry":{"type":"Point","coordinates":[-40.36,-4.16]}},{"type":"Feature","properties":{"id":"2306553","nome":"Itarema","uf":"CE"},"geometry":{"type":"Point","coordinates":[-40.08,-3.9800000000000004]}},{"type":"Feature","properties":{"id":"2306603","nome":"Itatira","uf":"CE"},"geometry":{"type":"Point","coordinates":[-39.8,-3.8]}},{"type":"Feature","properties":{"id":"2306702","nome":"Jaguaretama","uf":"CE"},"geometry":{"type":"Point","coordinates":[-39.52,-3.62]}},{"type":"Feature","properties":{"id":"2306801","nome":"Jaguaribara","uf":"CE"},"geometry":{"type":"Point","coordinates":[-39.24,-3.4400000000000004]}},{"type":"Feature","properties":{"id":"2306900","nome":"Jaguaribe","uf":"CE"},"geometry":{"type":"Point","coordinates":[-38.96,-3.26]}},{"type":"Feature","properties":{"id":"2307007","nome":"Jaguaruana","uf":"CE"},"geometry":{"type":"Point","coordinates":[-38.68,-3.08]}},{"type":"Feature","properties":{"id":"2307106","nome":"Jardim","uf":"CE"},"geometry":{"type":"Point","coordinates":[-38.4,-2.9000000000000004]}},{"type":"Feature","properties":{"id":"2307205","nome":"Jati","uf":"CE"},"geometry":{"type":"Point","coordinates":[-38.12,-2.7200000000000006]}},{"type":"Feature","properties":{"id":"2307254","nome":"Jijoca de Jericoacoara","uf":"CE"},"geometry":{"type":"Point","coordinates":[-37.84,-2.54]}},{"type":"Feature","properties":{"id":"2307304","nome":"Juazeiro do Norte","uf":"CE"},"geometry":{"type":"Point","coordinates":[-37.56,-2.3600000000000003]}},{"type":"Feature","properties":{"id":"2307403","nome":"Jucás","uf":"CE"},"geometry":{"type":"Point","coordinates":[-37.28,-2.1800000000000006]}},{"type":"Feature","properties":{"id":"2307502","nome":"Lavras da Mangabeira","uf":"CE"},"geometry":{"type":"Point","coordinates":[-41,-8]}},{"type":"Feature","properties":{"id":"2307601","nome":"Limoeiro do Norte","uf":"CE"},"geometry":{"type":"Point","coordinates":[-40.72,-7.82]}},{"type":"Feature","properties":{"id":"2307635","nome":"Madalena","uf":"CE"},"geometry":{"type":"Point","coordinates":[-40.44,-7.64]}},{"type":"Feature","properties":{"id":"2307650","nome":"Maracanaú","uf":"CE"},"geometry":{"type":"Point","coordinates":[-40.16,-7.46]}},{"type":"Feature","properties":{"id":"2307700","nome":"Maranguape","uf":"CE"},"geometry":{"type":"Point","coordinates":[-39.88,-7.28]}},{"type":"Feature","properties":{"id":"2307809","nome":"Marco","uf":"CE"},"geometry":{"type":"Point","coordinates":[-39.6,-7.1]}},{"type":"Feature","properties":{"id":"2307908","nome":"Martinópole","uf":"CE"},"geometry":{"type":"Point","coordinates":[-39.32,-6.92]}},{"type":"Feature","properties":{"id":"2308005","nome":"Massapê","uf":"CE"},"geometry":{"type":"Point","coordinates":[-39.04,-6.74]}},{"type":"Feature","properties":{"id":"2308104","nome":"Mauriti","uf":"CE"},"geometry":{"type":"Point","coordinates":[-38.76,-6.5600000000000005]}},{"type":"Feature","properties":{"id":"2308203","nome":"Meruoca","uf":"CE"},"geometry":{"type":"Point","coordinates":[-38.48,-6.38]}},{"type":"Feature","properties":{"id":"2308302","nome":"Milagres","uf":"CE"},"geometry":{"type":"Point","coordinates":[-38.2,-6.2]}},{"type":"Feature","properties":{"id":"2308351","nome":"Milhã","uf":"CE"},"geometry":{"type":"Point","coordinates":[-37.92,-6.02]}},{"type":"Feature","properties":{"id":"2308377","nome":"Miraíma","uf":"CE"},"geometry":{"type":"Point","coordinates":[-37.64,-5.84]}},{"type":"Feature","properties":{"id":"2308401","nome":"Missão Velha","uf":"CE"},"geometry":{"type":"Point","coordinates":[-37.36,-5.66]}},{"type":"Feature","properties":{"id":"2308500","nome":"Mombaça","uf":"CE"},"geometry":{"type":"Point","coordinates":[-37.08,-5.48]}},{"type":"Feature","properties":{"id":"2308609","nome":"Monsenhor Tabosa","uf":"CE"},"geometry":{"type":"Point","coordinates":[-40.8,-5.300000000000001]}},{"type":"Feature","properties":{"id":"2308708","nome":"Morada Nova","uf":"CE"},"geometry":{"type":"Point","coordinates":[-40.52,-5.12]}},{"type":"Feature","properties":{"id":"2308807","nome":"Moraújo","uf":"CE"},"geometry":{"type":"Point","coordinates":[-40.24,-4.9399999999999995]}},{"type":"Feature","properties":{"id":"2308906","nome":"Morrinhos","uf":"CE"},"geometry":{"type":"Point","coordinates":[-39.96,-4.76]}},{"type":"Feature","properties":{"id":"2309003","nome":"Mucambo","uf":"CE"},"geometry":{"type":"Point","coordinates":[-39.68,-4.58]}},{"type":"Feature","properties":{"id":"2309102","nome":"Mulungu","uf":"CE"},"geometry":{"type":"Point","coordinates":[-39.4,-4.4]}},{"type":"Feature","properties":{"id":"2309201","nome":"Nova Olinda","uf":"CE"},"geometry":{"type":"Point","coordinates":[-39.12,-4.220000000000001]}},{"type":"Feature","properties":{"id":"2309300","nome":"Nova Russas","uf":"CE"},"geometry":{"type":"Point","coordinates":[-38.84,-4.04]}},{"type":"Feature","properties":{"id":"2309409","nome":"Novo Oriente","uf":"CE"},"geometry":{"type":"Point","coordinates":[-38.56,-3.8600000000000003]}},{"type":"Feature","properties":{"id":"2309458","nome":"Ocara","uf":"CE"},"geometry":{"type":"Point","coordinates":[-38.28,-3.6799999999999997]}},{"type":"Feature","properties":{"id":"2309508","nome":"Orós","uf":"CE"},"geometry":{"type":"Point","coordinates":[-38,-3.5]}},{"type":"Feature","properties":{"id":"2309607","nome":"Pacajus","uf":"CE"},"geometry":{"type":"Point","coordinates":[-37.72,-3.3200000000000003]}},{"type":"Feature","properties":{"id":"2309706","nome":"Pacatuba","uf":"CE"},"geometry":{"type":"Point","coordinates":[-37.44,-3.1400000000000006]}},{"type":"Feature","properties":{"id":"2309805","nome":"Pacoti","uf":"CE"},"geometry":{"type":"Point","coordinates":[-37.16,-2.96]}},{"type":"Feature","properties":{"id":"2309904","nome":"Pacujá","uf":"CE"},"geometry":{"type":"Point","coordinates":[-40.88,-2.7800000000000002]}},{"type":"Feature","properties":{"id":"2310001","nome":"Palhano","uf":"CE"},"geometry":{"type":"Point","coordinates":[-40.6,-2.6000000000000005]}},{"type":"Feature","properties":{"id":"2310100","nome":"Palmácia","uf":"CE"},"geometry":{"type":"Point","coordinates":[-40.32,-2.42]}},{"type":"Feature","properties":{"id":"2310209","nome":"Paracuru","uf":"CE"},"geometry":{"type":"Point","coordinates":[-40.04,-2.24]}},{"type":"Feature","properties":{"id":"2310258","nome":"Paraipaba","uf":"CE"},"geometry":{"type":"Point","coordinates":[-39.76,-2.0600000000000005]}},{"type":"Feature","properties":{"id":"2310308","nome":"Parambu","uf":"CE"},"geometry":{"type":"Point","coordinates":[-39.48,-7.88]}},{"type":"Feature","properties":{"id":"2310407","nome":"Paramoti","uf":"CE"},"geometry":{"type":"Point","coordinates":[-39.2,-7.7]}},{"type":"Feature","properties":{"id":"2310506","nome":"Pedra Branca","uf":"CE"},"geometry":{"type":"Point","coordinates":[-38.92,-7.52]}},{"type":"Feature","properties":{"id":"2310605","nome":"Penaforte","uf":"CE"},"geometry":{"type":"Point","coordinates":[-38.64,-7.34]}},{"type":"Feature","properties":{"id":"2310704","nome":"Pentecoste","uf":"CE"},"geometry":{"type":"Point","coordinates":[-38.36,-7.16]}},{"type":"Feature","properties":{"id":"2310803","nome":"Pereiro","uf":"CE"},"geometry":{"type":"Point","coordinates":[-38.08,-6.98]}},{"type":"Feature","properties":{"id":"2310852","nome":"Pindoretama","uf":"CE"},"geometry":{"type":"Point","coordinates":[-37.8,-6.8]}},{"type":"Feature","properties":{"id":"2310902","nome":"Piquet Carneiro","uf":"CE"},"geometry":{"type":"Point","coordinates":[-37.52,-6.62]}},{"type":"Feature","properties":{"id":"2310951","nome":"Pires Ferreira","uf":"CE"},"geometry":{"type":"Point","coordinates":[-37.24,-6.4399999999999995]}},{"type":"Feature","properties":{"id":"2311009","nome":"Poranga","uf":"CE"},"geometry":{"type":"Point","coordinates":[-40.96,-6.26]}},{"type":"Feature","properties":{"id":"2311108","nome":"Porteiras","uf":"CE"},"geometry":{"type":"Point","coordinates":[-40.68,-6.08]}},{"type":"Feature","properties":{"id":"2311207","nome":"Potengi","uf":"CE"},"geometry":{"type":"Point","coordinates":[-40.4,-5.9]}},{"type":"Feature","properties":{"id":"2311231","nome":"Potiretama","uf":"CE"},"geometry":{"type":"Point","coordinates":[-40.12,-5.720000000000001]}},{"type":"Feature","properties":{"id":"2311264","nome":"Quiterianópolis","uf":"CE"},"geometry":{"type":"Point","coordinates":[-39.84,-5.54]}},{"type":"Feature","properties":{"id":"2311306","nome":"Quixadá","uf":"CE"},"geometry":{"type":"Point","coordinates":[-39.56,-5.36]}},{"type":"Feature","properties":{"id":"2311355","nome":"Quixelô","uf":"CE"},"geometry":{"type":"Point","coordinates":[-39.28,-5.18]}},{"type":"Feature","properties":{"id":"2311405","nome":"Quixeramobim","uf":"CE"},"geometry":{"type":"Point","coordinates":[-39,-5]}},{"type":"Feature","properties":{"id":"2311504","nome":"Quixeré","uf":"CE"},"geometry":{"type":"Point","coordinates":[-38.72,-4.82]}},{"type":"Feature","properties":{"id":"2311603","nome":"Redenção","uf":"CE"},"geometry":{"type":"Point","coordinates":[-38.44,-4.640000000000001]}},{"type":"Feature","properties":{"id":"2311702","nome":"Reriutaba","uf":"CE"},"geometry":{"type":"Point","coordinates":[-38.16,-4.46]}},{"type":"Feature","properties":{"id":"2311801","nome":"Russas","uf":"CE"},"geometry":{"type":"Point","coordinates":[-37.88,-4.28]}},{"type":"Feature","properties":{"id":"2311900","nome":"Saboeiro","uf":"CE"},"geometry":{"type":"Point","coordinates":[-37.6,-4.1]}},{"type":"Feature","properties":{"id":"2311959","nome":"Salitre","uf":"CE"},"geometry":{"type":"Point","coordinates":[-37.32,-3.92]}},{"type":"Feature","properties":{"id":"2312007","nome":"Santana do Acaraú","uf":"CE"},"geometry":{"type":"Point","coordinates":[-37.04,-3.74]}},{"type":"Feature","properties":{"id":"2312106","nome":"Santana do Cariri","uf":"CE"},"geometry":{"type":"Point","coordinates":[-40.76,-3.5600000000000005]}},{"type":"Feature","properties":{"id":"2312205","nome":"Santa Quitéria","uf":"CE"},"geometry":{"type":"Point","coordinates":[-40.48,-3.38]}},{"type":"Feature","properties":{"id":"2312304","nome":"São Benedito","uf":"CE"},"geometry":{"type":"Point","coordinates":[-40.2,-3.2]}},{"type":"Feature","properties":{"id":"2312403","nome":"São Gonçalo do Amarante","uf":"CE"},"geometry":{"type":"Point","coordinates":[-39.92,-3.0200000000000005]}},{"type":"Feature","properties":{"id":"2312502","nome":"São João do Jaguaribe","uf":"CE"},"geometry":{"type":"Point","coordinates":[-39.64,-2.84]}},{"type":"Feature","properties":{"id":"2312601","nome":"São Luís do Curu","uf":"CE"},"geometry":{"type":"Point","coordinates":[-39.36,-2.66]}},{"type":"Feature","properties":{"id":"2312700","nome":"Senador Pompeu","uf":"CE"},"geometry":{"type":"Point","coordinates":[-39.08,-2.4800000000000004]}},{"type":"Feature","properties":{"id":"2312809","nome":"Senador Sá","uf":"CE"},"geometry":{"type":"Point","coordinates":[-38.8,-2.3]}},{"type":"Feature","properties":{"id":"2312908","nome":"Sobral","uf":"CE"},"geometry":{"type":"Point","coordinates":[-38.52,-2.12]}},{"type":"Feature","properties":{"id":"2313005","nome":"Solonópole","uf":"CE"},"geometry":{"type":"Point","coordinates":[-38.24,-7.94]}},{"type":"Feature","properties":{"id":"2313104","nome":"Tabuleiro do Norte","uf":"CE"},"geometry":{"type":"Point","coordinates":[-37.96,-7.76]}},{"type":"Feature","properties":{"id":"2313203","nome":"Tamboril","uf":"CE"},"geometry":{"type":"Point","coordinates":[-37.68,-7.58]}},{"type":"Feature","properties":{"id":"2313252","nome":"Tarrafas","uf":"CE"},"geometry":{"type":"Point","coordinates":[-37.4,-7.4]}},{"type":"Feature","properties":{"id":"2313302","nome":"Tauá","uf":"CE"},"geometry":{"type":"Point","coordinates":[-37.12,-7.22]}},{"type":"Feature","properties":{"id":"2313351","nome":"Tejuçuoca","uf":"CE"},"geometry":{"type":"Point","coordinates":[-40.84,-7.04]}},{"type":"Feature","properties":{"id":"2313401","nome":"Tianguá","uf":"CE"},"geometry":{"type":"Point","coordinates":[-40.56,-6.86]}},{"type":"Feature","properties":{"id":"2313500","nome":"Trairi","uf":"CE"},"geometry":{"type":"Point","coordinates":[-40.28,-6.68]}},{"type":"Feature","properties":{"id":"2313559","nome":"Tururu","uf":"CE"},"geometry":{"type":"Point","coordinates":[-40,-6.5]}},{"type":"Feature","properties":{"id":"2313609","nome":"Ubajara","uf":"CE"},"geometry":{"type":"Point","coordinates":[-39.72,-6.32]}},{"type":"Feature","properties":{"id":"2313708","nome":"Umari","uf":"CE"},"geometry":{"type":"Point","coordinates":[-39.44,-6.140000000000001]}},{"type":"Feature","properties":{"id":"2313757","nome":"Umirim","uf":"CE"},"geometry":{"type":"Point","coordinates":[-39.16,-5.96]}},{"type":"Feature","properties":{"id":"2313807","nome":"Uruburetama","uf":"CE"},"geometry":{"type":"Point","coordinates":[-38.88,-5.78]}},{"type":"Feature","properties":{"id":"2313906","nome":"Uruoca","uf":"CE"},"geometry":{"type":"Point","coordinates":[-38.6,-5.6]}},{"type":"Feature","properties":{"id":"2313955","nome":"Varjota","uf":"CE"},"geometry":{"type":"Point","coordinates":[-38.32,-5.42]}},{"type":"Feature","properties":{"id":"2314003","nome":"Várzea Alegre","uf":"CE"},"geometry":{"type":"Point","coordinates":[-38.04,-5.24]}},{"type":"Feature","properties":{"id":"2314102","nome":"Viçosa do Ceará","uf":"CE"},"geometry":{"type":"Point","coordinates":[-37.76,-5.0600000000000005]}}]}