{"type":"FeatureCollection","features":[{"type":"Feature","properties":{"id":"2600054","nome":"Abreu e Lima","uf":"PE"},"geometry":{"type":"Point","coordinates":[-41,-10]}},{"type":"Feature","properties":{"id":"2600104","nome":"Afogados da Ingazeira","uf":"PE"},"geometry":{"type":"Point","coordinates":[-40.51,-9.91]}},{"type":"Feature","properties":{"id":"2600203","nome":"Afrânio","uf":"PE"},"geometry":{"type":"Point","coordinates":[-40.02,-9.82]}},{"type":"Feature","properties":{"id":"2600302","nome":"Agrestina","uf":"PE"},"geometry":{"type":"Point","coordinates":[-39.53,-9.73]}},{"type":"Feature","properties":{"id":"2600401","nome":"Água Preta","uf":"PE"},"geometry":{"type":"Point","coordinates":[-39.04,-9.64]}},{"type":"Feature","properties":{"id":"2600500","nome":"Águas Belas","uf":"PE"},"geometry":{"type":"Point","coordinates":[-38.55,-9.55]}},{"type":"Feature","properties":{"id":"2600609","nome":"Alagoinha","uf":"PE"},"geometry":{"type":"Point","coordinates":[-38.06,-9.46]}},{"type":"Feature","properties":{"id":"2600708","nome":"Aliança","uf":"PE"},"geometry":{"type":"Point","coordinates":[-37.57,-9.37]}},{"type":"Feature","properties":{"id":"2600807","nome":"Altinho","uf":"PE"},"geometry":{"type":"Point","coordinates":[-37.08,-9.28]}},{"type":"Feature","properties":{"id":"2600906","nome":"Amaraji","uf":"PE"},"geometry":{"type":"Point","coordinates":[-36.59,-9.19]}},{"type":"Feature","properties":{"id":"2601003","nome":"Angelim","uf":"PE"},"geometry":{"type":"Point","coordinates":[-36.1,-9.1]}},{"type":"Feature","properties":{"id":"2601052","nome":"Araçoiaba","uf":"PE"},"geometry":{"type":"Point","coordinates":[-35.61,-9.01]}},{"type":"Feature","properties":{"id":"2601102","nome":"Araripina","uf":"PE"},"geometry":{"type":"Point","coordinates":[-35.12,-8.92]}},{"type":"Feature","properties":{"id":"2601201","nome":"Arcoverde","uf":"PE"},"geometry":{"type":"Point","coordinates":[-34.629999999999995,-8.83]}},{"type":"Feature","properties":{"id":"2601300","nome":"Barra de Guabiraba","uf":"PE"},"geometry":{"type":"Point","coordinates":[-34.14,-8.74]}},{"type":"Feature","properties":{"id":"2601409","nome":"Barreiros","uf":"PE"},"geometry":{"type":"Point","coordinates":[-40.65,-8.65]}},{"type":"Feature","properties":{"id":"2601508","nome":"Belém de Maria","uf":"PE"},"geometry":{"type":"Point","coordinates":[-40.16,-8.56]}},{"type":"Feature","properties":{"id":"2601607","nome":"Belém do São Francisco","uf":"PE"},"geometry":{"type":"Point","coordinates":[-39.67,-8.47]}},{"type":"Feature","properties":{"id":"2601706","nome":"Belo Jardim","uf":"PE"},"geometry":{"type":"Point","coordinates":[-39.18,-8.38]}},{"type":"Feature","properties":{"id":"2601805","nome":"Betânia","uf":"PE"},"geometry":{"type":"Point","coordinates":[-38.69,-8.29]}},{"type":"Feature","properties":{"id":"2601904","nome":"Bezerros","uf":"PE"},"geometry":{"type":"Point","coordinates":[-38.2,-8.2]}},{"type":"Feature","properties":{"id":"2602001","nome":"Bodocó","uf":"PE"},"geometry":{"type":"Point","coordinates":[-37.71,-8.11]}},{"type":"Feature","properties":{"id":"2602100","nome":"Bom Conselho","uf":"PE"},"geometry":{"type":"Point","coordinates":[-37.22,-8.02]}},{"type":"Feature","properties":{"id":"2602209","nome":"Bom Jardim","uf":"PE"},"geometry":{"type":"Point","coordinates":[-36.73,-7.93]}},{"type":"Feature","properties":{"id":"2602308","nome":"Bonito","uf":"PE"},"geometry":{"type":"Point","coordinates":[-36.24,-7.84]}},{"type":"Feature","properties":{"id":"2602407","nome":"Brejão","uf":"PE"},"geometry":{"type":"Point","coordinates":[-35.75,-7.75]}},{"type":"Feature","properties":{"id":"2602506","nome":"Brejinho","uf":"PE"},"geometry":{"type":"Point","coordinates":[-35.26,-7.66]}},{"type":"Feature","properties":{"id":"2602605","nome":"Brejo da Madre de Deus","uf":"PE"},"geometry":{"type":"Point","coordinates":[-34.769999999999996,-7.57]}},{"type":"Feature","properties":{"id":"2602704","nome":"Buenos Aires","uf":"PE"},"geometry":{"type":"Point","coordinates":[-34.28,-7.48]}},{"type":"Feature","properties":{"id":"2602803","nome":"Buíque","uf":"PE"},"geometry":{"type":"Point","coordinates":[-40.79,-7.390000000000001]}},{"type":"Feature","properties":{"id":"2602902","nome":"Cabo de Santo Agostinho","uf":"PE"},"geometry":{"type":"Point","coordinates":[-40.3,-7.300000000000001]}},{"type":"Feature","properties":{"id":"2603009","nome":"Cabrobó","uf":"PE"},"geometry":{"type":"Point","coordinates":[-39.81,-7.21]}},{"type":"Feature","properties":{"id":"2603108","nome":"Cachoeirinha","uf":"PE"},"geometry":{"type":"Point","coordinates":[-39.32,-7.12]}},{"type":"Feature","properties":{"id":"2603207","nome":"Caetés","uf":"PE"},"geometry":{"type":"Point","coordinates":[-38.83,-7.03]}},{"type":"Feature","properties":{"id":"2603306","nome":"Calçado","uf":"PE"},"geometry":{"type":"Point","coordinates":[-38.34,-9.94]}},{"type":"Feature","properties":{"id":"2603405","nome":"Calumbi","uf":"PE"},"geometry":{"type":"Point","coordinates":[-37.85,-9.85]}},{"type":"Feature","properties":{"id":"2603454","nome":"Camaragibe","uf":"PE"},"geometry":{"type":"Point","coordinates":[-37.36,-9.76]}},{"type":"Feature","properties":{"id":"2603504","nome":"Camocim de São Félix","uf":"PE"},"geometry":{"type":"Point","coordinates":[-36.87,-9.67]}},{"type":"Feature","properties":{"id":"2603603","nome":"Camutanga","uf":"PE"},"geometry":{"type":"Point","coordinates":[-36.38,-9.58]}},{"type":"Feature","properties":{"id":"2603702","nome":"Canhotinho","uf":"PE"},"geometry":{"type":"Point","coordinates":[-35.89,-9.49]}},{"type":"Feature","properties":{"id":"2603801","nome":"Capoeiras","uf":"PE"},"geometry":{"type":"Point","coordinates":[-35.4,-9.4]}},{"type":"Feature","properties":{"id":"2603900","nome":"Carnaíba","uf":"PE"},"geometry":{"type":"Point","coordinates":[-34.91,-9.31]}},{"type":"Feature","properties":{"id":"2603926","nome":"Carnaubeira da Penha","uf":"PE"},"geometry":{"type":"Point","coordinates":[-34.42,-9.22]}},{"type":"Feature","properties":{"id":"2604007","nome":"Carpina","uf":"PE"},"geometry":{"type":"Point","coordinates":[-40.93,-9.13]}},{"type":"Feature","properties":{"id":"2604106","nome":"Caruaru","uf":"PE"},"geometry":{"type":"Point","coordinates":[-40.44,-9.04]}},{"type":"Feature","properties":{"id":"2604155","nome":"Casinhas","uf":"PE"},"geometry":{"type":"Point","coordinates":[-39.95,-8.95]}},{"type":"Feature","properties":{"id":"2604205","nome":"Catende","uf":"PE"},"geometry":{"type":"Point","coordinates":[-39.46,-8.86]}},{"type":"Feature","properties":{"id":"2604304","nome":"Cedro","uf":"PE"},"geometry":{"type":"Point","coordinates":[-38.97,-8.77]}},{"type":"Feature","properties":{"id":"2604403","nome":"Chã de Alegria","uf":"PE"},"geometry":{"type":"Point","coordinates":[-38.48,-8.68]}},{"type":"Feature","properties":{"id":"2604502","nome":"Chã Grande","uf":"PE"},"geometry":{"type":"Point","coordinates":[-37.99,-8.59]}},{"type":"Feature","properties":{"id":"2604601","nome":"Condado","uf":"PE"},"geometry":{"type":"Point","coordinates":[-37.5,-8.5]}},{"type":"Feature","properties":{"id":"2604700","nome":"Correntes","uf":"PE"},"geometry":{"type":"Point","coordinates":[-37.01,-8.41]}},{"type":"Feature","properties":{"id":"2604809","nome":"Cortês","uf":"PE"},"geometry":{"type":"Point","coordinates":[-36.519999999999996,-8.32]}},{"type":"Feature","properties":{"id":"2604908","nome":"Cumaru","uf":"PE"},"geometry":{"type":"Point","coordinates":[-36.03,-8.23]}},{"type":"Feature","properties":{"id":"2605004","nome":"Cupira","uf":"PE"},"geometry":{"type":"Point","coordinates":[-35.54,-8.14]}},{"type":"Feature","properties":{"id":"2605103","nome":"Custódia","uf":"PE"},"geometry":{"type":"Point","coordinates":[-35.05,-8.05]}},{"type":"Feature","properties":{"id":"2605152","nome":"Dormentes","uf":"PE"},"geometry":{"type":"Point","coordinates":[-34.56,-7.96]}},{"type":"Feature","properties":{"id":"2605202","nome":"Escada","uf":"PE"},"geometry":{"type":"Point","coordinates":[-34.07,-7.87]}},{"type":"Feature","properties":{"id":"2605301","nome":"Exu","uf":"PE"},"geometry":{"type":"Point","coordinates":[-40.58,-7.78]}},{"type":"Feature","properties":{"id":"2605400","nome":"Feira Nova","uf":"PE"},"geometry":{"type":"Point","coordinates":[-40.09,-7.6899999999999995]}},{"type":"Feature","properties":{"id":"2605459","nome":"Fernando de Noronha","uf":"PE"},"geometry":{"type":"Point","coordinates":[-39.6,-7.6]}},{"type":"Feature","properties":{"id":"2605509","nome":"Ferreiros","uf":"PE"},"geometry":{"type":"Point","coordinates":[-39.11,-7.51]}},{"type":"Feature","properties":{"id":"2605608","nome":"Flores","uf":"PE"},"geometry":{"type":"Point","coordinates":[-38.62,-7.42]}},{"type":"Feature","properties":{"id":"2605707","nome":"Floresta","uf":"PE"},"geometry":{"type":"Point","coordinates":[-38.13,-7.33]}},{"type":"Feature","properties":{"id":"2605806","nome":"Frei Miguelinho","uf":"PE"},"geometry":{"type":"Point","coordinates":[-37.64,-7.24]}},{"type":"Feature","properties":{"id":"2605905","nome":"Gameleira","uf":"PE"},"geometry":{"type":"Point","coordinates":[-37.15,-7.15]}},{"type":"Feature","properties":{"id":"2606002","nome":"Garanhuns","uf":"PE"},"geometry":{"type":"Point","coordinates":[-36.66,-7.0600000000000005]}},{"type":"Feature","properties":{"id":"2606101","nome":"Glória do Goitá","uf":"PE"},"geometry":{"type":"Point","coordinates":[-36.17,-9.97]}},{"type":"Feature","properties":{"id":"2606200","nome":"Goiana","uf":"PE"},"geometry":{"type":"Point","coordinates":[-35.68,-9.88]}},{"type":"Feature","properties":{"id":"2606309","nome":"Granito","uf":"PE"},"geometry":{"type":"Point","coordinates":[-35.19,-9.79]}},{"type":"Feature","properties":{"id":"2606408","nome":"Gravatá","uf":"PE"},"geometry":{"type":"Point","coordinates":[-34.7,-9.7]}},{"type":"Feature","properties":{"id":"2606507","nome":"Iati","uf":"PE"},"geometry":{"type":"Point","coordinates":[-34.21,-9.61]}},{"type":"Feature","properties":{"id":"2606606","nome":"Ibimirim","uf":"PE"},"geometry":{"type":"Point","coordinates":[-40.72,-9.52]}},{"type":"Feature","properties":{"id":"2606705","nome":"Ibirajuba","uf":"PE"},"geometry":{"type":"Point","coordinates":[-40.23,-9.43]}},{"type":"Feature","properties":{"id":"2606804","nome":"Igarassu","uf":"PE"},"geometry":{"type":"Point","coordinates":[-39.74,-9.34]}},{"type":"Feature","properties":{"id":"2606903","nome":"Iguaracy","uf":"PE"},"geometry":{"type":"Point","coordinates":[-39.25,-9.25]}},{"type":"Feature","properties":{"id":"2607000","nome":"Inajá","uf":"PE"},"geometry":{"type":"Point","coordinates":[-38.76,-9.16]}},{"type":"Feature","properties":{"id":"2607109","nome":"Ingazeira","uf":"PE"},"geometry":{"type":"Point","coordinates":[-38.269999999999996,-9.07]}},{"type":"Feature","properties":{"id":"2607208","nome":"Ipojuca","uf":"PE"},"geometry":{"type":"Point","coordinates":[-37.78,-8.98]}},{"type":"Feature","properties":{"id":"2607307","nome":"Ipubi","uf":"PE"},"geometry":{"type":"Point","coordinates":[-37.29,-8.89]}},{"type":"Feature","properties":{"id":"2607406","nome":"Itacuruba","uf":"PE"},"geometry":{"type":"Point","coordinates":[-36.8,-8.8]}},{"type":"Feature","properties":{"id":"2607505","nome":"Itaíba","uf":"PE"},"geometry":{"type":"Point","coordinates":[-36.31,-8.71]}},{"type":"Feature","properties":{"id":"2607604","nome":"Ilha de Itamaracá","uf":"PE"},"geometry":{"type":"Point","coordinates":[-35.82,-8.620000000000001]}},{"type":"Feature","properties":{"id":"2607653","nome":"Itambé","uf":"PE"},"geometry":{"type":"Point","coordinates":[-35.33,-8.53]}},{"type":"Feature","properties":{"id":"2607703","nome":"Itapetim","uf":"PE"},"geometry":{"type":"Point","coordinates":[-34.84,-8.44]}},{"type":"Feature","properties":{"id":"2607752","nome":"Itapissuma","uf":"PE"},"geometry":{"type":"Point","coordinates":[-34.35,-8.35]}},{"type":"Feature","properties":{"id":"2607802","nome":"Itaquitinga","uf":"PE"},"geometry":{"type":"Point","coordinates":[-40.86,-8.26]}},{"type":"Feature","properties":{"id":"2607901","nome":"Jaboatão dos Guararapes","uf":"PE"},"geometry":{"type":"Point","coordinates":[-40.37,-8.17]}},{"type":"Feature","properties":{"id":"2607950","nome":"Jaqueira","uf":"PE"},"geometry":{"type":"Point","coordinates":[-39.88,-8.08]}},{"type":"Feature","properties":{"id":"2608008","nome":"Jataúba","uf":"PE"},"geometry":{"type":"Point","coordinates":[-39.39,-7.99]}},{"type":"Feature","properties":{"id":"2608057","nome":"Jatobá","uf":"PE"},"geometry":{"type":"Point","coordinates":[-38.9,-7.9]}},{"type":"Feature","properties":{"id":"2608107","nome":"João Alfredo","uf":"PE"},"geometry":{"type":"Point","coordinates":[-38.41,-7.8100000000000005]}},{"type":"Feature","properties":{"id":"2608206","nome":"Joaquim Nabuco","uf":"PE"},"geometry":{"type":"Point","coordinates":[-37.92,-7.720000000000001]}},{"type":"Feature","properties":{"id":"2608255","nome":"Jucati","uf":"PE"},"geometry":{"type":"Point","coordinates":[-37.43,-7.63]}},{"type":"Feature","properties":{"id":"2608305","nome":"Jupi","uf":"PE"},"geometry":{"type":"Point","coordinates":[-36.94,-7.54]}},{"type":"Feature","properties":{"id":"2608404","nome":"Jurema","uf":"PE"},"geometry":{"type":"Point","coordinates":[-36.45,-7.45]}},{"type":"Feature","properties":{"id":"2608453","nome":"Lagoa do Carro","uf":"PE"},"geometry":{"type":"Point","coordinates":[-35.96,-7.36]}},{"type":"Feature","properties":{"id":"2608503","nome":"Lagoa de Itaenga","uf":"PE"},"geometry":{"type":"Point","coordinates":[-35.47,-7.27]}},{"type":"Feature","properties":{"id":"2608602","nome":"Lagoa do Ouro","uf":"PE"},"geometry":{"type":"Point","coordinates":[-34.98,-7.18]}},{"type":"Feature","properties":{"id":"2608701","nome":"Lagoa dos Gatos","uf":"PE"},"geometry":{"type":"Point","coordinates":[-34.49,-7.09]}},{"type":"Feature","properties":{"id":"2608750","nome":"Lagoa Grande","uf":"PE"},"geometry":{"type":"Point","coordinates":[-41,-10]}},{"type":"Feature","properties":{"id":"2608800","nome":"Lajedo","uf":"PE"},"geometry":{"type":"Point","coordinates":[-40.51,-9.91]}},{"type":"Feature","properties":{"id":"2608909","nome":"Limoeiro","uf":"PE"},"geometry":{"type":"Point","coordinates":[-40.02,-9.82]}},{"type":"Feature","properties":{"id":"2609006","nome":"Macaparana","uf":"PE"},"geometry":{"type":"Point","coordinates":[-39.53,-9.73]}},{"type":"Feature","properties":{"id":"2609105","nome":"Machados","uf":"PE"},"geometry":{"type":"Point","coordinates":[-39.04,-9.64]}},{"type":"Feature","properties":{"id":"2609154","nome":"Manari","uf":"PE"},"geometry":{"type":"Point","coordinates":[-38.55,-9.55]}},{"type":"Feature","properties":{"id":"2609204","nome":"Maraial","uf":"PE"},"geometry":{"type":"Point","coordinates":[-38.06,-9.46]}},{"type":"Feature","properties":{"id":"2609303","nome":"Mirandiba","uf":"PE"},"geometry":{"type":"Point","coordinates":[-37.57,-9.37]}},{"type":"Feature","properties":{"id":"2609402","nome":"Moreno","uf":"PE"},"geometry":{"type":"Point","coordinates":[-37.08,-9.28]}},{"type":"Feature","properties":{"id":"2609501","nome":"Nazaré da Mata","uf":"PE"},"geometry":{"type":"Point","coordinates":[-36.59,-9.19]}},{"type":"Feature","properties":{"id":"2609600","nome":"Olinda","uf":"PE"},"geometry":{"type":"Point","coordinates":[-36.1,-9.1]}},{"type":"Feature","properties":{"id":"2609709","nome":"Orobó","uf":"PE"},"geometry":{"type":"Point","coordinates":[-35.61,-9.01]}},{"type":"Feature","properties":{"id":"2609808","nome":"Orocó","uf":"PE"},"geometry":{"type":"Point","coordinates":[-35.12,-8.92]}},{"type":"Feature","properties":{"id":"2609907","nome":"Ouricuri","uf":"PE"},"geometry":{"type":"Point","coordinates":[-34.629999999999995,-8.83]}},{"type":"Feature","properties":{"id":"2610004","nome":"Palmares","uf":"PE"},"geometry":{"type":"Point","coordinates":[-34.14,-8.74]}},{"type":"Feature","properties":{"id":"2610103","nome":"Palmeirina","uf":"PE"},"geometry":{"type":"Point","coordinates":[-40.65,-8.65]}},{"type":"Feature","properties":{"id":"2610202","nome":"Panelas","uf":"PE"},"geometry":{"type":"Point","coordinates":[-40.16,-8.56]}},{"type":"Feature","properties":{"id":"2610301","nome":"Paranatama","uf":"PE"},"geometry":{"type":"Point","coordinates":[-39.67,-8.47]}},{"type":"Feature","properties":{"id":"2610400","nome":"Parnamirim","uf":"PE"},"geometry":{"type":"Point","coordinates":[-39.18,-8.38]}},{"type":"Feature","properties":{"id":"2610509","nome":"Passira","uf":"PE"},"geometry":{"type":"Point","coordinates":[-38.69,-8.29]}},{"type":"Feature","properties":{"id":"2610608","nome":"Paudalho","uf":"PE"},"geometry":{"type":"Point","coordinates":[-38.2,-8.2]}},{"type":"Feature","properties":{"id":"2610707","nome":"Paulista","uf":"PE"},"geometry":{"type":"Point","coordinates":[-37.71,-8.11]}},{"type":"Feature","properties":{"id":"2610806","nome":"Pedra","uf":"PE"},"geometry":{"type":"Point","coordinates":[-37.22,-8.02]}},{"type":"Feature","properties":{"id":"2610905","nome":"Pesqueira","uf":"PE"},"geometry":{"type":"Point","coordinates":[-36.73,-7.93]}},{"type":"Feature","properties":{"id":"2611002","nome":"Petrolândia","uf":"PE"},"geometry":{"type":"Point","coordinates":[-36.24,-7.84]}},{"type":"Feature","properties":{"id":"2611101","nome":"Petrolina","uf":"PE"},"geometry":{"type":"Point","coordinates":[-35.75,-7.75]}},{"type":"Feature","properties":{"id":"2611200","nome":"Poção","uf":"PE"},"geometry":{"type":"Point","coordinates":[-35.26,-7.66]}},{"type":"Feature","properties":{"id":"2611309","nome":"Pombos","uf":"PE"},"geometry":{"type":"Point","coordinates":[-34.769999999999996,-7.57]}},{"type":"Feature","properties":{"id":"2611408","nome":"Primavera","uf":"PE"},"geometry":{"type":"Point","coordinates":[-34.28,-7.48]}},{"type":"Feature","properties":{"id":"2611507","nome":"Quipapá","uf":"PE"},"geometry":{"type":"Point","coordinates":[-40.79,-7.390000000000001]}},{"type":"Feature","properties":{"id":"2611533","nome":"Quixaba","uf":"PE"},"geometry":{"type":"Point","coordinates":[-40.3,-7.300000000000001]}},{"type":"Feature","properties":{"id":"2611606","nome":"Recife","uf":"PE"},"geometry":{"type":"Point","coordinates":[-39.81,-7.21]}},{"type":"Feature","properties":{"id":"2611705","nome":"Riacho das Almas","uf":"PE"},"geometry":{"type":"Point","coordinates":[-39.32,-7.12]}},{"type":"Feature","properties":{"id":"2611804","nome":"Ribeirão","uf":"PE"},"geometry":{"type":"Point","coordinates":[-38.83,-7.03]}},{"type":"Feature","properties":{"id":"2611903","nome":"Rio Formoso","uf":"PE"},"geometry":{"type":"Point","coordinates":[-38.34,-9.94]}},{"type":"Feature","properties":{"id":"2612000","nome":"Sairé","uf":"PE"},"geometry":{"type":"Point","coordinates":[-37.85,-9.85]}},{"type":"Feature","properties":{"id":"2612109","nome":"Salgadinho","uf":"PE"},"geometry":{"type":"Point","coordinates":[-37.36,-9.76]}},{"type":"Feature","properties":{"id":"2612208","nome":"Salgueiro","uf":"PE"},"geometry":{"type":"Point","coordinates":[-36.87,-9.67]}},{"type":"Feature","properties":{"id":"2612307","nome":"Saloá","uf":"PE"},"geometry":{"type":"Point","coordinates":[-36.38,-9.58]}},{"type":"Feature","properties":{"id":"2612406","nome":"Sanharó","uf":"PE"},"geometry":{"type":"Point","coordinates":[-35.89,-9.49]}},{"type":"Feature","properties":{"id":"2612455","nome":"Santa Cruz","uf":"PE"},"geometry":{"type":"Point","coordinates":[-35.4,-9.4]}},{"type":"Feature","properties":{"id":"2612471","nome":"Santa Cruz da Baixa Verde","uf":"PE"},"geometry":{"type":"Point","coordinates":[-34.91,-9.31]}},{"type":"Feature","properties":{"id":"2612505","nome":"Santa Cruz do Capibaribe","uf":"PE"},"geometry":{"type":"Point","coordinates":[-34.42,-9.22]}},{"type":"Feature","properties":{"id":"2612554","nome":"Santa Filomena","uf":"PE"},"geometry":{"type":"Point","coordinates":[-40.93,-9.13]}},{"type":"Feature","properties":{"id":"2612604","nome":"Santa Maria da Boa Vista","uf":"PE"},"geometry":{"type":"Point","coordinates":[-40.44,-9.04]}},{"type":"Feature","properties":{"id":"2612703","nome":"Santa Maria do Cambucá","uf":"PE"},"geometry":{"type":"Point","coordinates":[-39.95,-8.95]}},{"type":"Feature","properties":{"id":"2612802","nome":"Santa Terezinha","uf":"PE"},"geometry":{"type":"Point","coordinates":[-39.46,-8.86]}},{"type":"Feature","properties":{"id":"2612901","nome":"São Benedito do Sul","uf":"PE"},"geometry":{"type":"Point","coordinates":[-38.97,-8.77]}},{"type":"Feature","properties":{"id":"2613008","nome":"São Bento do Una","uf":"PE"},"geometry":{"type":"Point","coordinates":[-38.48,-8.68]}},{"type":"Feature","properties":{"id":"2613107","nome":"São Caitano","uf":"PE"},"geometry":{"type":"Point","coordinates":[-37.99,-8.59]}},{"type":"Feature","properties":{"id":"2613206","nome":"São João","uf":"PE"},"geometry":{"type":"Point","coordinates":[-37.5,-8.5]}},{"type":"Feature","properties":{"id":"2613305","nome":"São Joaquim do Monte","uf":"PE"},"geometry":{"type":"Point","coordinates":[-37.01,-8.41]}},{"type":"Feature","properties":{"id":"2613404","nome":"São José da Coroa Grande","uf":"PE"},"geometry":{"type":"Point","coordinates":[-36.519999999999996,-8.32]}},{"type":"Feature","properties":{"id":"2613503","nome":"São José do Belmonte","uf":"PE"},"geometry":{"type":"Point","coordinates":[-36.03,-8.23]}},{"type":"Feature","properties":{"id":"2613602","nome":"São José do Egito","uf":"PE"},"geometry":{"type":"Point","coordinates":[-35.54,-8.14]}},{"type":"Feature","properties":{"id":"2613701","nome":"São Lourenço da Mata","uf":"PE"},"geometry":{"type":"Point","coordinates":[-35.05,-8.05]}},{"type":"Feature","properties":{"id":"2613800","nome":"São Vicente Férrer","uf":"PE"},"geometry":{"type":"Point","coordinates":[-34.56,-7.96]}},{"type":"Feature","properties":{"id":"2613909","nome":"Serra Talhada","uf":"PE"},"geometry":{"type":"Point","coordinates":[-34.07,-7.87]}},{"type":"Feature","properties":{"id":"2614006","nome":"Serrita","uf":"PE"},"geometry":{"type":"Point","coordinates":[-40.58,-7.78]}},{"type":"Feature","properties":{"id":"2614105","nome":"Sertânia","uf":"PE"},"geometry":{"type":"Point","coordinates":[-40.09,-7.6899999999999995]}},{"type":"Feature","properties":{"id":"2614204","nome":"Sirinhaém","uf":"PE"},"geometry":{"type":"Point","coordinates":[-39.6,-7.6]}},{"type":"Feature","properties":{"id":"2614303","nome":"Moreilândia","uf":"PE"},"geometry":{"type":"Point","coordinates":[-39.11,-7.51]}},{"type":"Feature","properties":{"id":"2614402","nome":"Solidão","uf":"PE"},"geometry":{"type":"Point","coordinates":[-38.62,-7.42]}},{"type":"Feature","properties":{"id":"2614501","nome":"Surubim","uf":"PE"},"geometry":{"type":"Point","coordinates":[-38.13,-7.33]}},{"type":"Feature","properties":{"id":"2614600","nome":"Tabira","uf":"PE"},"geometry":{"type":"Point","coordinates":[-37.64,-7.24]}},{"type":"Feature","properties":{"id":"2614709","nome":"Tacaimbó","uf":"PE"},"geometry":{"type":"Point","coordinates":[-37.15,-7.15]}},{"type":"Feature","properties":{"id":"2614808","nome":"Tacaratu","uf":"PE"},"geometry":{"type":"Point","coordinates":[-36.66,-7.0600000000000005]}},{"type":"Feature","properties":{"id":"2614857","nome":"Tamandaré","uf":"PE"},"geometry":{"type":"Point","coordinates":[-36.17,-9.97]}},{"type":"Feature","properties":{"id":"2615003","nome":"Taquaritinga do Norte","uf":"PE"},"geometry":{"type":"Point","coordinates":[-35.68,-9.88]}},{"type":"Feature","properties":{"id":"2615102","nome":"Terezinha","uf":"PE"},"geometry":{"type":"Point","coordinates":[-35.19,-9.79]}},{"type":"Feature","properties":{"id":"2615201","nome":"Terra Nova","uf":"PE"},"geometry":{"type":"Point","coordinates":[-34.7,-9.7]}},{"type":"Feature","properties":{"id":"2615300","nome":"Timbaúba","uf":"PE"},"geometry":{"type":"Point","coordinates":[-34.21,-9.61]}},{"type":"Feature","properties":{"id":"2615409","nome":"Toritama","uf":"PE"},"geometry":{"type":"Point","coordinates":[-40.72,-9.52]}},{"type":"Feature","properties":{"id":"2615508","nome":"Tracunhaém","uf":"PE"},"geometry":{"type":"Point","coordinates":[-40.23,-9.43]}},{"type":"Feature","properties":{"id":"2615607","nome":"Trindade","uf":"PE"},"geometry":{"type":"Point","coordinates":[-39.74,-9.34]}},{"type":"Feature","properties":{"id":"2615706","nome":"Triunfo","uf":"PE"},"geometry":{"type":"Point","coordinates":[-39.25,-9.25]}},{"type":"Feature","properties":{"id":"2615805","nome":"Tupanatinga","uf":"PE"},"geometry":{"type":"Point","coordinates":[-38.76,-9.16]}},{"type":"Feature","properties":{"id":"2615904","nome":"Tuparetama","uf":"PE"},"geometry":{"type":"Point","coordinates":[-38.269999999999996,-9.07]}},{"type":"Feature","properties":{"id":"2616001","nome":"Venturosa","uf":"PE"},"geometry":{"type":"Point","coordinates":[-37.78,-8.98]}},{"type":"Feature","properties":{"id":"2616100","nome":"Verdejante","uf":"PE"},"geometry":{"type":"Point","coordinates":[-37.29,-8.89]}},{"type":"Feature","properties":{"id":"2616183","nome":"Vertente do Lério","uf":"PE"},"geometry":{"type":"Point","coordinates":[-36.8,-8.8]}},{"type":"Feature","properties":{"id":"2616209","nome":"Vertentes","uf":"PE"},"geometry":{"type":"Point","coordinates":[-36.31,-8.71]}},{"type":"Feature","properties":{"id":"2616308","nome":"Vicência","uf":"PE"},"geometry":{"type":"Point","coordinates":[-35.82,-8.620000000000001]}},{"type":"Feature","properties":{"id":"2616407","nome":"Vitória de Santo Antão","uf":"PE"},"geometry":{"type":"Point","coordinates":[-35.33,-8.53]}},{"type":"Feature","properties":{"id":"2616506","nome":"Xexéu","uf":"PE"},"geometry":{"type":"Point","coordinates":[-34.84,-8.44]}}]}