{"type":"FeatureCollection","features":[{"type":"Feature","properties":{"id":"2700102","nome":"Água Branca","uf":"AL"},"geometry":{"type":"Point","coordinates":[-38,-10]}},{"type":"Feature","properties":{"id":"2700201","nome":"Anadia","uf":"AL"},"geometry":{"type":"Point","coordinates":[-37.79,-9.94]}},{"type":"Feature","properties":{"id":"2700300","nome":"Arapiraca","uf":"AL"},"geometry":{"type":"Point","coordinates":[-37.58,-9.88]}},{"type":"Feature","properties":{"id":"2700409","nome":"Atalaia","uf":"AL"},"geometry":{"type":"Point","coordinates":[-37.37,-9.82]}},{"type":"Feature","properties":{"id":"2700508","nome":"Barra de Santo Antônio","uf":"AL"},"geometry":{"type":"Point","coordinates":[-37.16,-9.76]}},{"type":"Feature","properties":{"id":"2700607","nome":"Barra de São Miguel","uf":"AL"},"geometry":{"type":"Point","coordinates":[-36.95,-9.7]}},{"type":"Feature","properties":{"id":"2700706","nome":"Batalha","uf":"AL"},"geometry":{"type":"Point","coordinates":[-36.74,-9.64]}},{"type":"Feature","properties":{"id":"2700805","nome":"Belém","uf":"AL"},"geometry":{"type":"Point","coordinates":[-36.53,-9.58]}},{"type":"Feature","properties":{"id":"2700904","nome":"Belo Monte","uf":"AL"},"geometry":{"type":"Point","coordinates":[-36.32,-9.52]}},{"type":"Feature","properties":{"id":"2701001","nome":"Boca da Mata","uf":"AL"},"geometry":{"type":"Point","coordinates":[-36.11,-9.46]}},{"type":"Feature","properties":{"id":"2701100","nome":"Branquinha","uf":"AL"},"geometry":{"type":"Point","coordinates":[-35.9,-9.4]}},{"type":"Feature","properties":{"id":"2701209","nome":"Cacimbinhas","uf":"AL"},"geometry":{"type":"Point","coordinates":[-35.69,-9.34]}},{"type":"Feature","properties":{"id":"2701308","nome":"Cajueiro","uf":"AL"},"geometry":{"type":"Point","coordinates":[-35.48,-9.28]}},{"type":"Feature","properties":{"id":"2701357","nome":"Campestre","uf":"AL"},"geometry":{"type":"Point","coordinates":[-35.27,-9.22]}},{"type":"Feature","properties":{"id":"2701407","nome":"Campo Alegre","uf":"AL"},"geometry":{"type":"Point","coordinates":[-35.06,-9.16]}},{"type":"Feature","properties":{"id":"2701506","nome":"Campo Grande","uf":"AL"},"geometry":{"type":"Point","coordinates":[-37.85,-9.1]}},{"type":"Feature","properties":{"id":"2701605","nome":"Canapi","uf":"AL"},"geometry":{"type":"Point","coordinates":[-37.64,-9.04]}},{"type":"Feature","properties":{"id":"2701704","nome":"Capela","uf":"AL"},"geometry":{"type":"Point","coordinates":[-37.43,-8.98]}},{"type":"Feature","properties":{"id":"2701803","nome":"Carneiros","uf":"AL"},"geometry":{"type":"Point","coordinates":[-37.22,-8.92]}},{"type":"Feature","properties":{"id":"2701902","nome":"Chã Preta","uf":"AL"},"geometry":{"type":"Point","coordinates":[-37.01,-8.86]}},{"type":"Feature","properties":{"id":"2702009","nome":"Coité do Nóia","uf":"AL"},"geometry":{"type":"Point","coordinates":[-36.8,-8.8]}},{"type":"Feature","properties":{"id":"2702108","nome":"Colônia Leopoldina","uf":"AL"},"geometry":{"type":"Point","coordinates":[-36.59,-8.74]}},{"type":"Feature","properties":{"id":"2702207","nome":"Coqueiro Seco","uf":"AL"},"geometry":{"type":"Point","coordinates":[-36.38,-8.68]}},{"type":"Feature","properties":{"id":"2702306","nome":"Coruripe","uf":"AL"},"geometry":{"type":"Point","coordinates":[-36.17,-8.62]}},{"type":"Feature","properties":{"id":"2702355","nome":"Craíbas","uf":"AL"},"geometry":{"type":"Point","coordinates":[-35.96,-8.56]}},{"type":"Feature","properties":{"id":"2702405","nome":"Delmiro Gouveia","uf":"AL"},"geometry":{"type":"Point","coordinates":[-35.75,-8.5]}},{"type":"Feature","properties":{"id":"2702504","nome":"Dois Riachos","uf":"AL"},"geometry":{"type":"Point","coordinates":[-35.54,-8.44]}},{"type":"Feature","properties":{"id":"2702553","nome":"Estrela de Alagoas","uf":"AL"},"geometry":{"type":"Point","coordinates":[-35.33,-8.379999999999999]}},{"type":"Feature","properties":{"id":"2702603","nome":"Feira Grande","uf":"AL"},"geometry":{"type":"Point","coordinates":[-35.12,-8.32]}},{"type":"Feature","properties":{"id":"2702702","nome":"Feliz Deserto","uf":"AL"},"geometry":{"type":"Point","coordinates":[-37.91,-8.26]}},{"type":"Feature","properties":{"id":"2702801","nome":"Flexeiras","uf":"AL"},"geometry":{"type":"Point","coordinates":[-37.7,-8.2]}},{"type":"Feature","properties":{"id":"2702900","nome":"Girau do Ponciano","uf":"AL"},"geometry":{"type":"Point","coordinates":[-37.49,-8.14]}},{"type":"Feature","properties":{"id":"2703007","nome":"Ibateguara","uf":"AL"},"geometry":{"type":"Point","coordinates":[-37.28,-8.08]}},{"type":"Feature","properties":{"id":"2703106","nome":"Igaci","uf":"AL"},"geometry":{"type":"Point","coordinates":[-37.07,-8.02]}},{"type":"Feature","properties":{"id":"2703205","nome":"Igreja Nova","uf":"AL"},"geometry":{"type":"Point","coordinates":[-36.86,-9.96]}},{"type":"Feature","properties":{"id":"2703304","nome":"Inhapi","uf":"AL"},"geometry":{"type":"Point","coordinates":[-36.65,-9.9]}},{"type":"Feature","properties":{"id":"2703403","nome":"Jacaré dos Homens","uf":"AL"},"geometry":{"type":"Point","coordinates":[-36.44,-9.84]}},{"type":"Feature","properties":{"id":"2703502","nome":"Jacuípe","uf":"AL"},"geometry":{"type":"Point","coordinates":[-36.23,-9.78]}},{"type":"Feature","properties":{"id":"2703601","nome":"Japaratinga","uf":"AL"},"geometry":{"type":"Point","coordinates":[-36.02,-9.72]}},{"type":"Feature","properties":{"id":"2703700","nome":"Jaramataia","uf":"AL"},"geometry":{"type":"Point","coordinates":[-35.81,-9.66]}},{"type":"Feature","properties":{"id":"2703759","nome":"Jequiá da Praia","uf":"AL"},"geometry":{"type":"Point","coordinates":[-35.6,-9.6]}},{"type":"Feature","properties":{"id":"2703809","nome":"Joaquim Gomes","uf":"AL"},"geometry":{"type":"Point","coordinates":[-35.39,-9.54]}},{"type":"Feature","properties":{"id":"2703908","nome":"Jundiá","uf":"AL"},"geometry":{"type":"Point","coordinates":[-35.18,-9.48]}},{"type":"Feature","properties":{"id":"2704005","nome":"Junqueiro","uf":"AL"},"geometry":{"type":"Point","coordinates":[-37.97,-9.42]}},{"type":"Feature","properties":{"id":"2704104","nome":"Lagoa da Canoa","uf":"AL"},"geometry":{"type":"Point","coordinates":[-37.76,-9.36]}},{"type":"Feature","properties":{"id":"2704203","nome":"Limoeiro de Anadia","uf":"AL"},"geometry":{"type":"Point","coordinates":[-37.55,-9.3]}},{"type":"Feature","properties":{"id":"2704302","nome":"Maceió","uf":"AL"},"geometry":{"type":"Point","coordinates":[-37.34,-9.24]}},{"type":"Feature","properties":{"id":"2704401","nome":"Major Isidoro","uf":"AL"},"geometry":{"type":"Point","coordinates":[-37.13,-9.18]}},{"type":"Feature","properties":{"id":"2704500","nome":"Maragogi","uf":"AL"},"geometry":{"type":"Point","coordinates":[-36.92,-9.12]}},{"type":"Feature","properties":{"id":"2704609","nome":"Maravilha","uf":"AL"},"geometry":{"type":"Point","coordinates":[-36.71,-9.06]}},{"type":"Feature","properties":{"id":"2704708","nome":"Marechal Deodoro","uf":"AL"},"geometry":{"type":"Point","coordinates":[-36.5,-9]}},{"type":"Feature","properties":{"id":"2704807","nome":"Maribondo","uf":"AL"},"geometry":{"type":"Point","coordinates":[-36.29,-8.94]}},{"type":"Feature","properties":{"id":"2704906","nome":"Mar Vermelho","uf":"AL"},"geometry":{"type":"Point","coordinates":[-36.08,-8.879999999999999]}},{"type":"Feature","properties":{"id":"2705002","nome":"Mata Grande","uf":"AL"},"geometry":{"type":"Point","coordinates":[-35.87,-8.82]}},{"type":"Feature","properties":{"id":"2705101","nome":"Matriz de Camaragibe","uf":"AL"},"geometry":{"type":"Point","coordinates":[-35.66,-8.76]}},{"type":"Feature","properties":{"id":"2705200","nome":"Messias","uf":"AL"},"geometry":{"type":"Point","coordinates":[-35.45,-8.7]}},{"type":"Feature","properties":{"id":"2705309","nome":"Minador do Negrão","uf":"AL"},"geometry":{"type":"Point","coordinates":[-35.24,-8.64]}},{"type":"Feature","properties":{"id":"2705408","nome":"Monteirópolis","uf":"AL"},"geometry":{"type":"Point","coordinates":[-35.03,-8.58]}},{"type":"Feature","properties":{"id":"2705507","nome":"Murici","uf":"AL"},"geometry":{"type":"Point","coordinates":[-37.82,-8.52]}},{"type":"Feature","properties":{"id":"2705606","nome":"Novo Lino","uf":"AL"},"geometry":{"type":"Point","coordinates":[-37.61,-8.46]}},{"type":"Feature","properties":{"id":"2705705","nome":"Olho d'Água das Flores","uf":"AL"},"geometry":{"type":"Point","coordinates":[-37.4,-8.4]}},{"type":"Feature","properties":{"id":"2705804","nome":"Olho d'Água do Casado","uf":"AL"},"geometry":{"type":"Point","coordinates":[-37.19,-8.34]}},{"type":"Feature","properties":{"id":"2705903","nome":"Olho d'Água Grande","uf":"AL"},"geometry":{"type":"Point","coordinates":[-36.98,-8.28]}},{"type":"Feature","properties":{"id":"2706000","nome":"Olivença","uf":"AL"},"geometry":{"type":"Point","coordinates":[-36.77,-8.22]}},{"type":"Feature","properties":{"id":"2706109","nome":"Ouro Branco","uf":"AL"},"geometry":{"type":"Point","coordinates":[-36.56,-8.16]}},{"type":"Feature","properties":{"id":"2706208","nome":"Palestina","uf":"AL"},"geometry":{"type":"Point","coordinates":[-36.35,-8.1]}},{"type":"Feature","properties":{"id":"2706307","nome":"Palmeira dos Índios","uf":"AL"},"geometry":{"type":"Point","coordinates":[-36.14,-8.04]}},{"type":"Feature","properties":{"id":"2706406","nome":"Pão de Açúcar","uf":"AL"},"geometry":{"type":"Point","coordinates":[-35.93,-9.98]}},{"type":"Feature","properties":{"id":"2706422","nome":"Pariconha","uf":"AL"},"geometry":{"type":"Point","coordinates":[-35.72,-9.92]}},{"type":"Feature","properties":{"id":"2706448","nome":"Paripueira","uf":"AL"},"geometry":{"type":"Point","coordinates":[-35.51,-9.86]}},{"type":"Feature","properties":{"id":"2706505","nome":"Passo de Camaragibe","uf":"AL"},"geometry":{"type":"Point","coordinates":[-35.3,-9.8]}},{"type":"Feature","properties":{"id":"2706604","nome":"Paulo Jacinto","uf":"AL"},"geometry":{"type":"Point","coordinates":[-35.09,-9.74]}},{"type":"Feature","properties":{"id":"2706703","nome":"Penedo","uf":"AL"},"geometry":{"type":"Point","coordinates":[-37.88,-9.68]}},{"type":"Feature","properties":{"id":"2706802","nome":"Piaçabuçu","uf":"AL"},"geometry":{"type":"Point","coordinates":[-37.67,-9.62]}},{"type":"Feature","properties":{"id":"2706901","nome":"Pilar","uf":"AL"},"geometry":{"type":"Point","coordinates":[-37.46,-9.56]}},{"type":"Feature","properties":{"id":"2707008","nome":"Pindoba","uf":"AL"},"geometry":{"type":"Point","coordinates":[-37.25,-9.5]}},{"type":"Feature","properties":{"id":"2707107","nome":"Piranhas","uf":"AL"},"geometry":{"type":"Point","coordinates":[-37.04,-9.44]}},{"type":"Feature","properties":{"id":"2707206","nome":"Poço das Trincheiras","uf":"AL"},"geometry":{"type":"Point","coordinates":[-36.83,-9.38]}},{"type":"Feature","properties":{"id":"2707305","nome":"Porto Calvo","uf":"AL"},"geometry":{"type":"Point","coordinates":[-36.62,-9.32]}},{"type":"Feature","properties":{"id":"2707404","nome":"Porto de Pedras","uf":"AL"},"geometry":{"type":"Point","coordinates":[-36.41,-9.26]}},{"type":"Feature","properties":{"id":"2707503","nome":"Porto Real do Colégio","uf":"AL"},"geometry":{"type":"Point","coordinates":[-36.2,-9.2]}},{"type":"Feature","properties":{"id":"2707602","nome":"Quebrangulo","uf":"AL"},"geometry":{"type":"Point","coordinates":[-35.99,-9.14]}},{"type":"Feature","properties":{"id":"2707701","nome":"Rio Largo","uf":"AL"},"geometry":{"type":"Point","coordinates":[-35.78,-9.08]}},{"type":"Feature","properties":{"id":"2707800","nome":"Roteiro","uf":"AL"},"geometry":{"type":"Point","coordinates":[-35.57,-9.02]}},{"type":"Feature","properties":{"id":"2707909","nome":"Santa Luzia do Norte","uf":"AL"},"geometry":{"type":"Point","coordinates":[-35.36,-8.96]}},{"type":"Feature","properties":{"id":"2708006","nome":"Santana do Ipanema","uf":"AL"},"geometry":{"type":"Point","coordinates":[-35.15,-8.9]}},{"type":"Feature","properties":{"id":"2708105","nome":"Santana do Mundaú","uf":"AL"},"geometry":{"type":"Point","coordinates":[-37.94,-8.84]}},{"type":"Feature","properties":{"id":"2708204","nome":"São Brás","uf":"AL"},"geometry":{"type":"Point","coordinates":[-37.73,-8.78]}},{"type":"Feature","properties":{"id":"2708303","nome":"São José da Laje","uf":"AL"},"geometry":{"type":"Point","coordinates":[-37.52,-8.72]}},{"type":"Feature","properties":{"id":"2708402","nome":"São José da Tapera","uf":"AL"},"geometry":{"type":"Point","coordinates":[-37.31,-8.66]}},{"type":"Feature","properties":{"id":"2708501","nome":"São Luís do Quitunde","uf":"AL"},"geometry":{"type":"Point","coordinates":[-37.1,-8.6]}},{"type":"Feature","properties":{"id":"2708600","nome":"São Miguel dos Campos","uf":"AL"},"geometry":{"type":"Point","coordinates":[-36.89,-8.54]}},{"type":"Feature","properties":{"id":"2708709","nome":"São Miguel dos Milagres","uf":"AL"},"geometry":{"type":"Point","coordinates":[-36.68,-8.48]}},{"type":"Feature","properties":{"id":"2708808","nome":"São Sebastião","uf":"AL"},"geometry":{"type":"Point","coordinates":[-36.47,-8.42]}},{"type":"Feature","properties":{"id":"2708907","nome":"Satuba","uf":"AL"},"geometry":{"type":"Point","coordinates":[-36.26,-8.36]}},{"type":"Feature","properties":{"id":"2708956","nome":"Senador Rui Palmeira","uf":"AL"},"geometry":{"type":"Point","coordinates":[-36.05,-8.3]}},{"type":"Feature","properties":{"id":"2709004","nome":"Tanque d'Arca","uf":"AL"},"geometry":{"type":"Point","coordinates":[-35.84,-8.24]}},{"type":"Feature","properties":{"id":"2709103","nome":"Taquarana","uf":"AL"},"geometry":{"type":"Point","coordinates":[-35.63,-8.18]}},{"type":"Feature","properties":{"id":"2709152","nome":"Teotônio Vilela","uf":"AL"},"geometry":{"type":"Point","coordinates":[-35.42,-8.12]}},{"type":"Feature","properties":{"id":"2709202","nome":"Traipu","uf":"AL"},"geometry":{"type":"Point","coordinates":[-35.21,-8.06]}},{"type":"Feature","properties":{"id":"2709301","nome":"União dos Palmares","uf":"AL"},"geometry":{"type":"Point","coordinates":[-38,-10]}},{"type":"Feature","properties":{"id":"2709400","nome":"Viçosa","uf":"AL"},"geometry":{"type":"Point","coordinates":[-37.79,-9.94]}}]}