{"type":"FeatureCollection","features":[{"type":"Feature","properties":{"id":"3200102","nome":"Afonso Cláudio","uf":"ES"},"geometry":{"type":"Point","coordinates":[-41,-21]}},{"type":"Feature","properties":{"id":"3200136","nome":"Águia Branca","uf":"ES"},"geometry":{"type":"Point","coordinates":[-40.86,-20.88]}},{"type":"Feature","properties":{"id":"3200169","nome":"Água Doce do Norte","uf":"ES"},"geometry":{"type":"Point","coordinates":[-40.72,-20.76]}},{"type":"Feature","properties":{"id":"3200201","nome":"Alegre","uf":"ES"},"geometry":{"type":"Point","coordinates":[-40.58,-20.64]}},{"type":"Feature","properties":{"id":"3200300","nome":"Alfredo Chaves","uf":"ES"},"geometry":{"type":"Point","coordinates":[-40.44,-20.52]}},{"type":"Feature","properties":{"id":"3200359","nome":"Alto Rio Novo","uf":"ES"},"geometry":{"type":"Point","coordinates":[-40.3,-20.4]}},{"type":"Feature","properties":{"id":"3200409","nome":"Anchieta","uf":"ES"},"geometry":{"type":"Point","coordinates":[-40.16,-20.28]}},{"type":"Feature","properties":{"id":"3200508","nome":"Apiacá","uf":"ES"},"geometry":{"type":"Point","coordinates":[-40.02,-20.16]}},{"type":"Feature","properties":{"id":"3200607","nome":"Aracruz","uf":"ES"},"geometry":{"type":"Point","coordinates":[-39.88,-20.04]}},{"type":"Feature","properties":{"id":"3200706","nome":"Atílio Vivácqua","uf":"ES"},"geometry":{"type":"Point","coordinates":[-39.74,-19.92]}},{"type":"Feature","properties":{"id":"3200805","nome":"Baixo Guandu","uf":"ES"},"geometry":{"type":"Point","coordinates":[-39.6,-19.8]}},{"type":"Feature","properties":{"id":"3200904","nome":"Barra de São Francisco","uf":"ES"},"geometry":{"type":"Point","coordinates":[-39.46,-19.68]}},{"type":"Feature","properties":{"id":"3201001","nome":"Boa Esperança","uf":"ES"},"geometry":{"type":"Point","coordinates":[-39.32,-19.56]}},{"type":"Feature","properties":{"id":"3201100","nome":"Bom Jesus do Norte","uf":"ES"},"geometry":{"type":"Point","coordinates":[-39.18,-19.44]}},{"type":"Feature","properties":{"id":"3201159","nome":"Brejetuba","uf":"ES"},"geometry":{"type":"Point","coordinates":[-39.04,-19.32]}},{"type":"Feature","properties":{"id":"3201209","nome":"Cachoeiro de Itapemirim","uf":"ES"},"geometry":{"type":"Point","coordinates":[-40.9,-19.2]}},{"type":"Feature","properties":{"id":"3201308","nome":"Cariacica","uf":"ES"},"geometry":{"type":"Point","coordinates":[-40.76,-19.08]}},{"type":"Feature","properties":{"id":"3201407","nome":"Castelo","uf":"ES"},"geometry":{"type":"Point","coordinates":[-40.62,-18.96]}},{"type":"Feature","properties":{"id":"3201506","nome":"Colatina","uf":"ES"},"geometry":{"type":"Point","coordinates":[-40.48,-18.84]}},{"type":"Feature","properties":{"id":"3201605","nome":"Conceição da Barra","uf":"ES"},"geometry":{"type":"Point","coordinates":[-40.34,-18.72]}},{"type":"Feature","properties":{"id":"3201704","nome":"Conceição do Castelo","uf":"ES"},"geometry":{"type":"Point","coordinates":[-40.2,-18.6]}},{"type":"Feature","properties":{"id":"3201803","nome":"Divino de São Lourenço","uf":"ES"},"geometry":{"type":"Point","coordinates":[-40.06,-18.48]}},{"type":"Feature","properties":{"id":"3201902","nome":"Domingos Martins","uf":"ES"},"geometry":{"type":"Point","coordinates":[-39.92,-18.36]}},{"type":"Feature","properties":{"id":"3202009","nome":"Dores do Rio Preto","uf":"ES"},"geometry":{"type":"Point","coordinates":[-39.78,-18.24]}},{"type":"Feature","properties":{"id":"3202108","nome":"Ecoporanga","uf":"ES"},"geometry":{"type":"Point","coordinates":[-39.64,-18.12]}},{"type":"Feature","properties":{"id":"3202207","nome":"Fundão","uf":"ES"},"geometry":{"type":"Point","coordinates":[-39.5,-18]}},{"type":"Feature","properties":{"id":"3202256","nome":"Governador Lindenberg","uf":"ES"},"geometry":{"type":"Point","coordinates":[-39.36,-17.88]}},{"type":"Feature","properties":{"id":"3202306","nome":"Guaçuí","uf":"ES"},"geometry":{"type":"Point","coordinates":[-39.22,-17.759999999999998]}},{"type":"Feature","properties":{"id":"3202405","nome":"Guarapari","uf":"ES"},"geometry":{"type":"Point","coordinates":[-39.08,-17.64]}},{"type":"Feature","properties":{"id":"3202454","nome":"Ibatiba","uf":"ES"},"geometry":{"type":"Point","coordinates":[-40.94,-17.52]}},{"type":"Feature","properties":{"id":"3202504","nome":"Ibiraçu","uf":"ES"},"geometry":{"type":"Point","coordinates":[-40.8,-17.4]}},{"type":"Feature","properties":{"id":"3202553","nome":"Ibitirama","uf":"ES"},"geometry":{"type":"Point","coordinates":[-40.66,-17.28]}},{"type":"Feature","properties":{"id":"3202603","nome":"Iconha","uf":"ES"},"geometry":{"type":"Point","coordinates":[-40.52,-17.16]}},{"type":"Feature","properties":{"id":"3202652","nome":"Irupi","uf":"ES"},"geometry":{"type":"Point","coordinates":[-40.38,-17.04]}},{"type":"Feature","properties":{"id":"3202702","nome":"Itaguaçu","uf":"ES"},"geometry":{"type":"Point","coordinates":[-40.24,-20.92]}},{"type":"Feature","properties":{"id":"3202801","nome":"Itapemirim","uf":"ES"},"geometry":{"type":"Point","coordinates":[-40.1,-20.8]}},{"type":"Feature","properties":{"id":"3202900","nome":"Itarana","uf":"ES"},"geometry":{"type":"Point","coordinates":[-39.96,-20.68]}},{"type":"Feature","properties":{"id":"3203007","nome":"Iúna","uf":"ES"},"geometry":{"type":"Point","coordinates":[-39.82,-20.56]}},{"type":"Feature","properties":{"id":"3203056","nome":"Jaguaré","uf":"ES"},"geometry":{"type":"Point","coordinates":[-39.68,-20.44]}},{"type":"Feature","properties":{"id":"3203106","nome":"Jerônimo Monteiro","uf":"ES"},"geometry":{"type":"Point","coordinates":[-39.54,-20.32]}},{"type":"Feature","properties":{"id":"3203130","nome":"João Neiva","uf":"ES"},"geometry":{"type":"Point","coordinates":[-39.4,-20.2]}},{"type":"Feature","properties":{"id":"3203163","nome":"Laranja da Terra","uf":"ES"},"geometry":{"type":"Point","coordinates":[-39.26,-20.08]}},{"type":"Feature","properties":{"id":"3203205","nome":"Linhares","uf":"ES"},"geometry":{"type":"Point","coordinates":[-39.12,-19.96]}},{"type":"Feature","properties":{"id":"3203304","nome":"Mantenópolis","uf":"ES"},"geometry":{"type":"Point","coordinates":[-40.98,-19.84]}},{"type":"Feature","properties":{"id":"3203320","nome":"Marataízes","uf":"ES"},"geometry":{"type":"Point","coordinates":[-40.84,-19.72]}},{"type":"Feature","properties":{"id":"3203346","nome":"Marechal Floriano","uf":"ES"},"geometry":{"type":"Point","coordinates":[-40.7,-19.6]}},{"type":"Feature","properties":{"id":"3203353","nome":"Marilândia","uf":"ES"},"geometry":{"type":"Point","coordinates":[-40.56,-19.48]}},{"type":"Feature","properties":{"id":"3203403","nome":"Mimoso do Sul","uf":"ES"},"geometry":{"type":"Point","coordinates":[-40.42,-19.36]}},{"type":"Feature","properties":{"id":"3203502","nome":"Montanha","uf":"ES"},"geometry":{"type":"Point","coordinates":[-40.28,-19.24]}},{"type":"Feature","properties":{"id":"3203601","nome":"Mucurici","uf":"ES"},"geometry":{"type":"Point","coordinates":[-40.14,-19.12]}},{"type":"Feature","properties":{"id":"3203700","nome":"Muniz Freire","uf":"ES"},"geometry":{"type":"Point","coordinates":[-40,-19]}},{"type":"Feature","properties":{"id":"3203809","nome":"Muqui","uf":"ES"},"geometry":{"type":"Point","coordinates":[-39.86,-18.88]}},{"type":"Feature","properties":{"id":"3203908","nome":"Nova Venécia","uf":"ES"},"geometry":{"type":"Point","coordinates":[-39.72,-18.759999999999998]}},{"type":"Feature","properties":{"id":"3204005","nome":"Pancas","uf":"ES"},"geometry":{"type":"Point","coordinates":[-39.58,-18.64]}},{"type":"Feature","properties":{"id":"3204054","nome":"Pedro Canário","uf":"ES"},"geometry":{"type":"Point","coordinates":[-39.44,-18.52]}},{"type":"Feature","properties":{"id":"3204104","nome":"Pinheiros","uf":"ES"},"geometry":{"type":"Point","coordinates":[-39.3,-18.4]}},{"type":"Feature","properties":{"id":"3204203","nome":"Piúma","uf":"ES"},"geometry":{"type":"Point","coordinates":[-39.16,-18.28]}},{"type":"Feature","properties":{"id":"3204252","nome":"Ponto Belo","uf":"ES"},"geometry":{"type":"Point","coordinates":[-39.02,-18.16]}},{"type":"Feature","properties":{"id":"3204302","nome":"Presidente Kennedy","uf":"ES"},"geometry":{"type":"Point","coordinates":[-40.88,-18.04]}},{"type":"Feature","properties":{"id":"3204351","nome":"Rio Bananal","uf":"ES"},"geometry":{"type":"Point","coordinates":[-40.74,-17.92]}},{"type":"Feature","properties":{"id":"3204401","nome":"Rio Novo do Sul","uf":"ES"},"geometry":{"type":"Point","coordinates":[-40.6,-17.8]}},{"type":"Feature","properties":{"id":"3204500","nome":"Santa Leopoldina","uf":"ES"},"geometry":{"type":"Point","coordinates":[-40.46,-17.68]}},{"type":"Feature","properties":{"id":"3204559","nome":"Santa Maria de Jetibá","uf":"ES"},"geometry":{"type":"Point","coordinates":[-40.32,-17.56]}},{"type":"Feature","properties":{"id":"3204609","nome":"Santa Teresa","uf":"ES"},"geometry":{"type":"Point","coordinates":[-40.18,-17.44]}},{"type":"Feature","properties":{"id":"3204658","nome":"São Domingos do Norte","uf":"ES"},"geometry":{"type":"Point","coordinates":[-40.04,-17.32]}},{"type":"Feature","properties":{"id":"3204708","nome":"São Gabriel da Palha","uf":"ES"},"geometry":{"type":"Point","coordinates":[-39.9,-17.2]}},{"type":"Feature","properties":{"id":"3204807","nome":"São José do Calçado","uf":"ES"},"geometry":{"type":"Point","coordinates":[-39.76,-17.08]}},{"type":"Feature","properties":{"id":"3204906","nome":"São Mateus","uf":"ES"},"geometry":{"type":"Point","coordinates":[-39.62,-20.96]}},{"type":"Feature","properties":{"id":"3204955","nome":"São Roque do Canaã","uf":"ES"},"geometry":{"type":"Point","coordinates":[-39.48,-20.84]}},{"type":"Feature","properties":{"id":"3205002","nome":"Serra","uf":"ES"},"geometry":{"type":"Point","coordinates":[-39.34,-20.72]}},{"type":"Feature","properties":{"id":"3205010","nome":"Sooretama","uf":"ES"},"geometry":{"type":"Point","coordinates":[-39.2,-20.6]}},{"type":"Feature","properties":{"id":"3205036","nome":"Vargem Alta","uf":"ES"},"geometry":{"type":"Point","coordinates":[-39.06,-20.48]}},{"type":"Feature","properties":{"id":"3205069","nome":"Venda Nova do Imigrante","uf":"ES"},"geometry":{"type":"Point","coordinates":[-40.92,-20.36]}},{"type":"Feature","properties":{"id":"3205101","nome":"Viana","uf":"ES"},"geometry":{"type":"Point","coordinates":[-40.78,-20.24]}},{"type":"Feature","properties":{"id":"3205150","nome":"Vila Pavão","uf":"ES"},"geometry":{"type":"Point","coordinates":[-40.64,-20.12]}},{"type":"Feature","properties":{"id":"3205176","nome":"Vila Valério","uf":"ES"},"geometry":{"type":"Point","coordinates":[-40.5,-20]}},{"type":"Feature","properties":{"id":"3205200","nome":"Vila Velha","uf":"ES"},"geometry":{"type":"Point","coordinates":[-40.36,-19.88]}},{"type":"Feature","properties":{"id":"3205309","nome":"Vitória","uf":"ES"},"geometry":{"type":"Point","coordinates":[-40.22,-19.76]}}]}