{"type":"FeatureCollection","features":[{"type":"Feature","properties":{"id":"3300100","nome":"Angra dos Reis","uf":"RJ"},"geometry":{"type":"Point","coordinates":[-45,-23]}},{"type":"Feature","properties":{"id":"3300159","nome":"Aperibé","uf":"RJ"},"geometry":{"type":"Point","coordinates":[-44.65,-22.91]}},{"type":"Feature","properties":{"id":"3300209","nome":"Araruama","uf":"RJ"},"geometry":{"type":"Point","coordinates":[-44.3,-22.82]}},{"type":"Feature","properties":{"id":"3300225","nome":"Areal","uf":"RJ"},"geometry":{"type":"Point","coordinates":[-43.95,-22.73]}},{"type":"Feature","properties":{"id":"3300233","nome":"Armação dos Búzios","uf":"RJ"},"geometry":{"type":"Point","coordinates":[-43.6,-22.64]}},{"type":"Feature","properties":{"id":"3300258","nome":"Arraial do Cabo","uf":"RJ"},"geometry":{"type":"Point","coordinates":[-43.25,-22.55]}},{"type":"Feature","properties":{"id":"3300308","nome":"Barra do Piraí","uf":"RJ"},"geometry":{"type":"Point","coordinates":[-42.9,-22.46]}},{"type":"Feature","properties":{"id":"3300407","nome":"Barra Mansa","uf":"RJ"},"geometry":{"type":"Point","coordinates":[-42.55,-22.37]}},{"type":"Feature","properties":{"id":"3300456","nome":"Belford Roxo","uf":"RJ"},"geometry":{"type":"Point","coordinates":[-42.2,-22.28]}},{"type":"Feature","properties":{"id":"3300506","nome":"Bom Jardim","uf":"RJ"},"geometry":{"type":"Point","coordinates":[-41.85,-22.19]}},{"type":"Feature","properties":{"id":"3300605","nome":"Bom Jesus do Itabapoana","uf":"RJ"},"geometry":{"type":"Point","coordinates":[-41.5,-22.1]}},{"type":"Feature","properties":{"id":"3300704","nome":"Cabo Frio","uf":"RJ"},"geometry":{"type":"Point","coordinates":[-41.15,-22.01]}},{"type":"Feature","properties":{"id":"3300803","nome":"Cachoeiras de Macacu","uf":"RJ"},"geometry":{"type":"Point","coordinates":[-40.8,-21.92]}},{"type":"Feature","properties":{"id":"3300902","nome":"Cambuci","uf":"RJ"},"geometry":{"type":"Point","coordinates":[-40.45,-21.83]}},{"type":"Feature","properties":{"id":"3300936","nome":"Carapebus","uf":"RJ"},"geometry":{"type":"Point","coordinates":[-40.1,-21.74]}},{"type":"Feature","properties":{"id":"3300951","nome":"Comendador Levy Gasparian","uf":"RJ"},"geometry":{"type":"Point","coordinates":[-44.75,-21.65]}},{"type":"Feature","properties":{"id":"3301009","nome":"Campos dos Goytacazes","uf":"RJ"},"geometry":{"type":"Point","coordinates":[-44.4,-21.56]}},{"type":"Feature","properties":{"id":"3301108","nome":"Cantagalo","uf":"RJ"},"geometry":{"type":"Point","coordinates":[-44.05,-21.47]}},{"type":"Feature","properties":{"id":"3301157","nome":"Cardoso Moreira","uf":"RJ"},"geometry":{"type":"Point","coordinates":[-43.7,-21.38]}},{"type":"Feature","properties":{"id":"3301207","nome":"Carmo","uf":"RJ"},"geometry":{"type":"Point","coordinates":[-43.35,-21.29]}},{"type":"Feature","properties":{"id":"3301306","nome":"Casimiro de Abreu","uf":"RJ"},"geometry":{"type":"Point","coordinates":[-43,-21.2]}},{"type":"Feature","properties":{"id":"3301405","nome":"Conceição de Macabu","uf":"RJ"},"geometry":{"type":"Point","coordinates":[-42.65,-21.11]}},{"type":"Feature","properties":{"id":"3301504","nome":"Cordeiro","uf":"RJ"},"geometry":{"type":"Point","coordinates":[-42.3,-21.02]}},{"type":"Feature","properties":{"id":"3301603","nome":"Duas Barras","uf":"RJ"},"geometry":{"type":"Point","coordinates":[-41.95,-20.93]}},{"type":"Feature","properties":{"id":"3301702","nome":"Duque de Caxias","uf":"RJ"},"geometry":{"type":"Point","coordinates":[-41.6,-20.84]}},{"type":"Feature","properties":{"id":"3301801","nome":"Engenheiro Paulo de Frontin","uf":"RJ"},"geometry":{"type":"Point","coordinates":[-41.25,-20.75]}},{"type":"Feature","properties":{"id":"3301850","nome":"Guapimirim","uf":"RJ"},"geometry":{"type":"Point","coordinates":[-40.9,-20.66]}},{"type":"Feature","properties":{"id":"3301876","nome":"Iguaba Grande","uf":"RJ"},"geometry":{"type":"Point","coordinates":[-40.55,-20.57]}},{"type":"Feature","properties":{"id":"3301900","nome":"Itaboraí","uf":"RJ"},"geometry":{"type":"Point","coordinates":[-40.2,-20.48]}},{"type":"Feature","properties":{"id":"3302007","nome":"Itaguaí","uf":"RJ"},"geometry":{"type":"Point","coordinates":[-44.85,-20.39]}},{"type":"Feature","properties":{"id":"3302056","nome":"Italva","uf":"RJ"},"geometry":{"type":"Point","coordinates":[-44.5,-20.3]}},{"type":"Feature","properties":{"id":"3302106","nome":"Itaocara","uf":"RJ"},"geometry":{"type":"Point","coordinates":[-44.15,-20.21]}},{"type":"Feature","properties":{"id":"3302205","nome":"Itaperuna","uf":"RJ"},"geometry":{"type":"Point","coordinates":[-43.8,-20.12]}},{"type":"Feature","properties":{"id":"3302254","nome":"Itatiaia","uf":"RJ"},"geometry":{"type":"Point","coordinates":[-43.45,-20.03]}},{"type":"Feature","properties":{"id":"3302270","nome":"Japeri","uf":"RJ"},"geometry":{"type":"Point","coordinates":[-43.1,-22.94]}},{"type":"Feature","properties":{"id":"3302304","nome":"Laje do Muriaé","uf":"RJ"},"geometry":{"type":"Point","coordinates":[-42.75,-22.85]}},{"type":"Feature","properties":{"id":"3302403","nome":"Macaé","uf":"RJ"},"geometry":{"type":"Point","coordinates":[-42.4,-22.76]}},{"type":"Feature","properties":{"id":"3302452","nome":"Macuco","uf":"RJ"},"geometry":{"type":"Point","coordinates":[-42.05,-22.67]}},{"type":"Feature","properties":{"id":"3302502","nome":"Magé","uf":"RJ"},"geometry":{"type":"Point","coordinates":[-41.7,-22.58]}},{"type":"Feature","properties":{"id":"3302601","nome":"Mangaratiba","uf":"RJ"},"geometry":{"type":"Point","coordinates":[-41.35,-22.49]}},{"type":"Feature","properties":{"id":"3302700","nome":"Maricá","uf":"RJ"},"geometry":{"type":"Point","coordinates":[-41,-22.4]}},{"type":"Feature","properties":{"id":"3302809","nome":"Mendes","uf":"RJ"},"geometry":{"type":"Point","coordinates":[-40.65,-22.31]}},{"type":"Feature","properties":{"id":"3302858","nome":"Mesquita","uf":"RJ"},"geometry":{"type":"Point","coordinates":[-40.3,-22.22]}},{"type":"Feature","properties":{"id":"3302908","nome":"Miguel Pereira","uf":"RJ"},"geometry":{"type":"Point","coordinates":[-44.95,-22.13]}},{"type":"Feature","properties":{"id":"3303005","nome":"Miracema","uf":"RJ"},"geometry":{"type":"Point","coordinates":[-44.6,-22.04]}},{"type":"Feature","properties":{"id":"3303104","nome":"Natividade","uf":"RJ"},"geometry":{"type":"Point","coordinates":[-44.25,-21.95]}},{"type":"Feature","properties":{"id":"3303203","nome":"Nilópolis","uf":"RJ"},"geometry":{"type":"Point","coordinates":[-43.9,-21.86]}},{"type":"Feature","properties":{"id":"3303302","nome":"Niterói","uf":"RJ"},"geometry":{"type":"Point","coordinates":[-43.55,-21.77]}},{"type":"Feature","properties":{"id":"3303401","nome":"Nova Friburgo","uf":"RJ"},"geometry":{"type":"Point","coordinates":[-43.2,-21.68]}},{"type":"Feature","properties":{"id":"3303500","nome":"Nova Iguaçu","uf":"RJ"},"geometry":{"type":"Point","coordinates":[-42.85,-21.59]}},{"type":"Feature","properties":{"id":"3303609","nome":"Paracambi","uf":"RJ"},"geometry":{"type":"Point","coordinates":[-42.5,-21.5]}},{"type":"Feature","properties":{"id":"3303708","nome":"Paraíba do Sul","uf":"RJ"},"geometry":{"type":"Point","coordinates":[-42.15,-21.41]}},{"type":"Feature","properties":{"id":"3303807","nome":"Paraty","uf":"RJ"},"geometry":{"type":"Point","coordinates":[-41.8,-21.32]}},{"type":"Feature","properties":{"id":"3303856","nome":"Paty do Alferes","uf":"RJ"},"geometry":{"type":"Point","coordinates":[-41.45,-21.23]}},{"type":"Feature","properties":{"id":"3303906","nome":"Petrópolis","uf":"RJ"},"geometry":{"type":"Point","coordinates":[-41.1,-21.14]}},{"type":"Feature","properties":{"id":"3303955","nome":"Pinheiral","uf":"RJ"},"geometry":{"type":"Point","coordinates":[-40.75,-21.05]}},{"type":"Feature","properties":{"id":"3304003","nome":"Piraí","uf":"RJ"},"geometry":{"type":"Point","coordinates":[-40.4,-20.96]}},{"type":"Feature","properties":{"id":"3304102","nome":"Porciúncula","uf":"RJ"},"geometry":{"type":"Point","coordinates":[-40.05,-20.87]}},{"type":"Feature","properties":{"id":"3304110","nome":"Porto Real","uf":"RJ"},"geometry":{"type":"Point","coordinates":[-44.7,-20.78]}},{"type":"Feature","properties":{"id":"3304128","nome":"Quatis","uf":"RJ"},"geometry":{"type":"Point","coordinates":[-44.35,-20.69]}},{"type":"Feature","properties":{"id":"3304144","nome":"Queimados","uf":"RJ"},"geometry":{"type":"Point","coordinates":[-44,-20.6]}},{"type":"Feature","properties":{"id":"3304151","nome":"Quissamã","uf":"RJ"},"geometry":{"type":"Point","coordinates":[-43.65,-20.51]}},{"type":"Feature","properties":{"id":"3304201","nome":"Resende","uf":"RJ"},"geometry":{"type":"Point","coordinates":[-43.3,-20.42]}},{"type":"Feature","properties":{"id":"3304300","nome":"Rio Bonito","uf":"RJ"},"geometry":{"type":"Point","coordinates":[-42.95,-20.33]}},{"type":"Feature","properties":{"id":"3304409","nome":"Rio Claro","uf":"RJ"},"geometry":{"type":"Point","coordinates":[-42.6,-20.240000000000002]}},{"type":"Feature","properties":{"id":"3304508","nome":"Rio das Flores","uf":"RJ"},"geometry":{"type":"Point","coordinates":[-42.25,-20.15]}},{"type":"Feature","properties":{"id":"3304524","nome":"Rio das Ostras","uf":"RJ"},"geometry":{"type":"Point","coordinates":[-41.9,-20.06]}},{"type":"Feature","properties":{"id":"3304557","nome":"Rio de Janeiro","uf":"RJ"},"geometry":{"type":"Point","coordinates":[-41.55,-22.97]}},{"type":"Feature","properties":{"id":"3304607","nome":"Santa Maria Madalena","uf":"RJ"},"geometry":{"type":"Point","coordinates":[-41.2,-22.88]}},{"type":"Feature","properties":{"id":"3304706","nome":"Santo Antônio de Pádua","uf":"RJ"},"geometry":{"type":"Point","coordinates":[-40.85,-22.79]}},{"type":"Feature","properties":{"id":"3304755","nome":"São Francisco de Itabapoana","uf":"RJ"},"geometry":{"type":"Point","coordinates":[-40.5,-22.7]}},{"type":"Feature","properties":{"id":"3304805","nome":"São Fidélis","uf":"RJ"},"geometry":{"type":"Point","coordinates":[-40.15,-22.61]}},{"type":"Feature","properties":{"id":"3304904","nome":"São Gonçalo","uf":"RJ"},"geometry":{"type":"Point","coordinates":[-44.8,-22.52]}},{"type":"Feature","properties":{"id":"3305000","nome":"São João da Barra","uf":"RJ"},"geometry":{"type":"Point","coordinates":[-44.45,-22.43]}},{"type":"Feature","properties":{"id":"3305109","nome":"São João de Meriti","uf":"RJ"},"geometry":{"type":"Point","coordinates":[-44.1,-22.34]}},{"type":"Feature","properties":{"id":"3305133","nome":"São José de Ubá","uf":"RJ"},"geometry":{"type":"Point","coordinates":[-43.75,-22.25]}},{"type":"Feature","properties":{"id":"3305158","nome":"São José do Vale do Rio Preto","uf":"RJ"},"geometry":{"type":"Point","coordinates":[-43.4,-22.16]}},{"type":"Feature","properties":{"id":"3305208","nome":"São Pedro da Aldeia","uf":"RJ"},"geometry":{"type":"Point","coordinates":[-43.05,-22.07]}},{"type":"Feature","properties":{"id":"3305307","nome":"São Sebastião do Alto","uf":"RJ"},"geometry":{"type":"Point","coordinates":[-42.7,-21.98]}},{"type":"Feature","properties":{"id":"3305406","nome":"Sapucaia","uf":"RJ"},"geometry":{"type":"Point","coordinates":[-42.35,-21.89]}},{"type":"Feature","properties":{"id":"3305505","nome":"Saquarema","uf":"RJ"},"geometry":{"type":"Point","coordinates":[-42,-21.8]}},{"type":"Feature","properties":{"id":"3305554","nome":"Seropédica","uf":"RJ"},"geometry":{"type":"Point","coordinates":[-41.65,-21.71]}},{"type":"Feature","properties":{"id":"3305604","nome":"Silva Jardim","uf":"RJ"},"geometry":{"type":"Point","coordinates":[-41.3,-21.62]}},{"type":"Feature","properties":{"id":"3305703","nome":"Sumidouro","uf":"RJ"},"geometry":{"type":"Point","coordinates":[-40.95,-21.53]}},{"type":"Feature","properties":{"id":"3305752","nome":"Tanguá","uf":"RJ"},"geometry":{"type":"Point","coordinates":[-40.6,-21.44]}},{"type":"Feature","properties":{"id":"3305802","nome":"Teresópolis","uf":"RJ"},"geometry":{"type":"Point","coordinates":[-40.25,-21.35]}},{"type":"Feature","properties":{"id":"3305901","nome":"Trajano de Moraes","uf":"RJ"},"geometry":{"type":"Point","coordinates":[-44.9,-21.26]}},{"type":"Feature","properties":{"id":"3306008","nome":"Três Rios","uf":"RJ"},"geometry":{"type":"Point","coordinates":[-44.55,-21.17]}},{"type":"Feature","properties":{"id":"3306107","nome":"Valença","uf":"RJ"},"geometry":{"type":"Point","coordinates":[-44.2,-21.08]}},{"type":"Feature","properties":{"id":"3306156","nome":"Varre-Sai","uf":"RJ"},"geometry":{"type":"Point","coordinates":[-43.85,-20.990000000000002]}},{"type":"Feature","properties":{"id":"3306206","nome":"Vassouras","uf":"RJ"},"geometry":{"type":"Point","coordinates":[-43.5,-20.9]}},{"type":"Feature","properties":{"id":"3306305","nome":"Volta Redonda","uf":"RJ"},"geometry":{"type":"Point","coordinates":[-43.15,-20.81]}}]}