{"type":"FeatureCollection","features":[{"type":"Feature","properties":{"id":"3500105","nome":"Adamantina","uf":"SP"},"geometry":{"type":"Point","coordinates":[-53,-25]}},{"type":"Feature","properties":{"id":"3500204","nome":"Adolfo","uf":"SP"},"geometry":{"type":"Point","coordinates":[-52.37,-24.82]}},{"type":"Feature","properties":{"id":"3500303","nome":"Aguaí","uf":"SP"},"geometry":{"type":"Point","coordinates":[-51.74,-24.64]}},{"type":"Feature","properties":{"id":"3500402","nome":"Águas da Prata","uf":"SP"},"geometry":{"type":"Point","coordinates":[-51.11,-24.46]}},{"type":"Feature","properties":{"id":"3500501","nome":"Águas de Lindóia","uf":"SP"},"geometry":{"type":"Point","coordinates":[-50.48,-24.28]}},{"type":"Feature","properties":{"id":"3500550","nome":"Águas de Santa Bárbara","uf":"SP"},"geometry":{"type":"Point","coordinates":[-49.85,-24.1]}},{"type":"Feature","properties":{"id":"3500600","nome":"Águas de São Pedro","uf":"SP"},"geometry":{"type":"Point","coordinates":[-49.22,-23.92]}},{"type":"Feature","properties":{"id":"3500709","nome":"Agudos","uf":"SP"},"geometry":{"type":"Point","coordinates":[-48.59,-23.74]}},{"type":"Feature","properties":{"id":"3500758","nome":"Alambari","uf":"SP"},"geometry":{"type":"Point","coordinates":[-47.96,-23.56]}},{"type":"Feature","properties":{"id":"3500808","nome":"Alfredo Marcondes","uf":"SP"},"geometry":{"type":"Point","coordinates":[-47.33,-23.38]}},{"type":"Feature","properties":{"id":"3500907","nome":"Altair","uf":"SP"},"geometry":{"type":"Point","coordinates":[-46.7,-23.2]}},{"type":"Feature","properties":{"id":"3501004","nome":"Altinópolis","uf":"SP"},"geometry":{"type":"Point","coordinates":[-46.07,-23.02]}},{"type":"Feature","properties":{"id":"3501103","nome":"Alto Alegre","uf":"SP"},"geometry":{"type":"Point","coordinates":[-45.44,-22.84]}},{"type":"Feature","properties":{"id":"3501152","nome":"Alumínio","uf":"SP"},"geometry":{"type":"Point","coordinates":[-44.81,-22.66]}},{"type":"Feature","properties":{"id":"3501202","nome":"Álvares Florence","uf":"SP"},"geometry":{"type":"Point","coordinates":[-44.18,-22.48]}},{"type":"Feature","properties":{"id":"3501301","nome":"Álvares Machado","uf":"SP"},"geometry":{"type":"Point","coordinates":[-52.55,-22.3]}},{"type":"Feature","properties":{"id":"3501400","nome":"Álvaro de Carvalho","uf":"SP"},"geometry":{"type":"Point","coordinates":[-51.92,-22.12]}},{"type":"Feature","properties":{"id":"3501509","nome":"Alvinlândia","uf":"SP"},"geometry":{"type":"Point","coordinates":[-51.29,-21.94]}},{"type":"Feature","properties":{"id":"3501608","nome":"Americana","uf":"SP"},"geometry":{"type":"Point","coordinates":[-50.66,-21.76]}},{"type":"Feature","properties":{"id":"3501707","nome":"Américo Brasiliense","uf":"SP"},"geometry":{"type":"Point","coordinates":[-50.03,-21.58]}},{"type":"Feature","properties":{"id":"3501806","nome":"Américo de Campos","uf":"SP"},"geometry":{"type":"Point","coordinates":[-49.4,-21.4]}},{"type":"Feature","properties":{"id":"3501905","nome":"Amparo","uf":"SP"},"geometry":{"type":"Point","coordinates":[-48.77,-21.22]}},{"type":"Feature","properties":{"id":"3502002","nome":"Analândia","uf":"SP"},"geometry":{"type":"Point","coordinates":[-48.14,-21.04]}},{"type":"Feature","properties":{"id":"3502101","nome":"Andradina","uf":"SP"},"geometry":{"type":"Point","coordinates":[-47.51,-20.86]}},{"type":"Feature","properties":{"id":"3502200","nome":"Angatuba","uf":"SP"},"geometry":{"type":"Point","coordinates":[-46.88,-20.68]}},{"type":"Feature","properties":{"id":"3502309","nome":"Anhembi","uf":"SP"},"geometry":{"type":"Point","coordinates":[-46.25,-20.5]}},{"type":"Feature","properties":{"id":"3502408","nome":"Anhumas","uf":"SP"},"geometry":{"type":"Point","coordinates":[-45.62,-20.32]}},{"type":"Feature","properties":{"id":"3502507","nome":"Aparecida","uf":"SP"},"geometry":{"type":"Point","coordinates":[-44.99,-20.14]}},{"type":"Feature","properties":{"id":"3502606","nome":"Aparecida d'Oeste","uf":"SP"},"geometry":{"type":"Point","coordinates":[-44.36,-19.96]}},{"type":"Feature","properties":{"id":"3502705","nome":"Apiaí","uf":"SP"},"geometry":{"type":"Point","coordinates":[-52.73,-19.78]}},{"type":"Feature","properties":{"id":"3502754","nome":"Araçariguama","uf":"SP"},"geometry":{"type":"Point","coordinates":[-52.1,-19.6]}},{"type":"Feature","properties":{"id":"3502804","nome":"Araçatuba","uf":"SP"},"geometry":{"type":"Point","coordinates":[-51.47,-19.42]}},{"type":"Feature","properties":{"id":"3502903","nome":"Araçoiaba da Serra","uf":"SP"},"geometry":{"type":"Point","coordinates":[-50.84,-19.240000000000002]}},{"type":"Feature","properties":{"id":"3503000","nome":"Aramina","uf":"SP"},"geometry":{"type":"Point","coordinates":[-50.21,-19.060000000000002]}},{"type":"Feature","properties":{"id":"3503109","nome":"Arandu","uf":"SP"},"geometry":{"type":"Point","coordinates":[-49.58,-24.88]}},{"type":"Feature","properties":{"id":"3503158","nome":"Arapeí","uf":"SP"},"geometry":{"type":"Point","coordinates":[-48.95,-24.7]}},{"type":"Feature","properties":{"id":"3503208","nome":"Araraquara","uf":"SP"},"geometry":{"type":"Point","coordinates":[-48.32,-24.52]}},{"type":"Feature","properties":{"id":"3503307","nome":"Araras","uf":"SP"},"geometry":{"type":"Point","coordinates":[-47.69,-24.34]}},{"type":"Feature","properties":{"id":"3503356","nome":"Arco-Íris","uf":"SP"},"geometry":{"type":"Point","coordinates":[-47.06,-24.16]}},{"type":"Feature","properties":{"id":"3503406","nome":"Arealva","uf":"SP"},"geometry":{"type":"Point","coordinates":[-46.43,-23.98]}},{"type":"Feature","properties":{"id":"3503505","nome":"Areias","uf":"SP"},"geometry":{"type":"Point","coordinates":[-45.8,-23.8]}},{"type":"Feature","properties":{"id":"3503604","nome":"Areiópolis","uf":"SP"},"geometry":{"type":"Point","coordinates":[-45.17,-23.62]}},{"type":"Feature","properties":{"id":"3503703","nome":"Ariranha","uf":"SP"},"geometry":{"type":"Point","coordinates":[-44.54,-23.44]}},{"type":"Feature","properties":{"id":"3503802","nome":"Artur Nogueira","uf":"SP"},"geometry":{"type":"Point","coordinates":[-52.91,-23.26]}},{"type":"Feature","properties":{"id":"3503901","nome":"Arujá","uf":"SP"},"geometry":{"type":"Point","coordinates":[-52.28,-23.08]}},{"type":"Feature","properties":{"id":"3503950","nome":"Aspásia","uf":"SP"},"geometry":{"type":"Point","coordinates":[-51.65,-22.9]}},{"type":"Feature","properties":{"id":"3504008","nome":"Assis","uf":"SP"},"geometry":{"type":"Point","coordinates":[-51.02,-22.72]}},{"type":"Feature","properties":{"id":"3504107","nome":"Atibaia","uf":"SP"},"geometry":{"type":"Point","coordinates":[-50.39,-22.54]}},{"type":"Feature","properties":{"id":"3504206","nome":"Auriflama","uf":"SP"},"geometry":{"type":"Point","coordinates":[-49.76,-22.36]}},{"type":"Feature","properties":{"id":"3504305","nome":"Avaí","uf":"SP"},"geometry":{"type":"Point","coordinates":[-49.13,-22.18]}},{"type":"Feature","properties":{"id":"3504404","nome":"Avanhandava","uf":"SP"},"geometry":{"type":"Point","coordinates":[-48.5,-22]}},{"type":"Feature","properties":{"id":"3504503","nome":"Avaré","uf":"SP"},"geometry":{"type":"Point","coordinates":[-47.87,-21.82]}},{"type":"Feature","properties":{"id":"3504602","nome":"Bady Bassitt","uf":"SP"},"geometry":{"type":"Point","coordinates":[-47.24,-21.64]}},{"type":"Feature","properties":{"id":"3504701","nome":"Balbinos","uf":"SP"},"geometry":{"type":"Point","coordinates":[-46.61,-21.46]}},{"type":"Feature","properties":{"id":"3504800","nome":"Bálsamo","uf":"SP"},"geometry":{"type":"Point","coordinates":[-45.980000000000004,-21.28]}},{"type":"Feature","properties":{"id":"3504909","nome":"Bananal","uf":"SP"},"geometry":{"type":"Point","coordinates":[-45.35,-21.1]}},{"type":"Feature","properties":{"id":"3505005","nome":"Barão de Antonina","uf":"SP"},"geometry":{"type":"Point","coordinates":[-44.72,-20.92]}},{"type":"Feature","properties":{"id":"3505104","nome":"Barbosa","uf":"SP"},"geometry":{"type":"Point","coordinates":[-44.09,-20.740000000000002]}},{"type":"Feature","properties":{"id":"3505203","nome":"Bariri","uf":"SP"},"geometry":{"type":"Point","coordinates":[-52.46,-20.560000000000002]}},{"type":"Feature","properties":{"id":"3505302","nome":"Barra Bonita","uf":"SP"},"geometry":{"type":"Point","coordinates":[-51.83,-20.38]}},{"type":"Feature","properties":{"id":"3505351","nome":"Barra do Chapéu","uf":"SP"},"geometry":{"type":"Point","coordinates":[-51.2,-20.2]}},{"type":"Feature","properties":{"id":"3505401","nome":"Barra do Turvo","uf":"SP"},"geometry":{"type":"Point","coordinates":[-50.57,-20.02]}},{"type":"Feature","properties":{"id":"3505500","nome":"Barretos","uf":"SP"},"geometry":{"type":"Point","coordinates":[-49.94,-19.84]}},{"type":"Feature","properties":{"id":"3505609","nome":"Barrinha","uf":"SP"},"geometry":{"type":"Point","coordinates":[-49.31,-19.66]}},{"type":"Feature","properties":{"id":"3505708","nome":"Barueri","uf":"SP"},"geometry":{"type":"Point","coordinates":[-48.68,-19.48]}},{"type":"Feature","properties":{"id":"3505807","nome":"Bastos","uf":"SP"},"geometry":{"type":"Point","coordinates":[-48.05,-19.3]}},{"type":"Feature","properties":{"id":"3505906","nome":"Batatais","uf":"SP"},"geometry":{"type":"Point","coordinates":[-47.42,-19.12]}},{"type":"Feature","properties":{"id":"3506003","nome":"Bauru","uf":"SP"},"geometry":{"type":"Point","coordinates":[-46.79,-24.94]}},{"type":"Feature","properties":{"id":"3506102","nome":"Bebedouro","uf":"SP"},"geometry":{"type":"Point","coordinates":[-46.16,-24.76]}},{"type":"Feature","properties":{"id":"3506201","nome":"Bento de Abreu","uf":"SP"},"geometry":{"type":"Point","coordinates":[-45.53,-24.58]}},{"type":"Feature","properties":{"id":"3506300","nome":"Bernardino de Campos","uf":"SP"},"geometry":{"type":"Point","coordinates":[-44.9,-24.4]}},{"type":"Feature","properties":{"id":"3506359","nome":"Bertioga","uf":"SP"},"geometry":{"type":"Point","coordinates":[-44.269999999999996,-24.22]}},{"type":"Feature","properties":{"id":"3506409","nome":"Bilac","uf":"SP"},"geometry":{"type":"Point","coordinates":[-52.64,-24.04]}},{"type":"Feature","properties":{"id":"3506508","nome":"Birigui","uf":"SP"},"geometry":{"type":"Point","coordinates":[-52.01,-23.86]}},{"type":"Feature","properties":{"id":"3506607","nome":"Biritiba Mirim","uf":"SP"},"geometry":{"type":"Point","coordinates":[-51.38,-23.68]}},{"type":"Feature","properties":{"id":"3506706","nome":"Boa Esperança do Sul","uf":"SP"},"geometry":{"type":"Point","coordinates":[-50.75,-23.5]}},{"type":"Feature","properties":{"id":"3506805","nome":"Bocaina","uf":"SP"},"geometry":{"type":"Point","coordinates":[-50.12,-23.32]}},{"type":"Feature","properties":{"id":"3506904","nome":"Bofete","uf":"SP"},"geometry":{"type":"Point","coordinates":[-49.49,-23.14]}},{"type":"Feature","properties":{"id":"3507001","nome":"Boituva","uf":"SP"},"geometry":{"type":"Point","coordinates":[-48.86,-22.96]}},{"type":"Feature","properties":{"id":"3507100","nome":"Bom Jesus dos Perdões","uf":"SP"},"geometry":{"type":"Point","coordinates":[-48.230000000000004,-22.78]}},{"type":"Feature","properties":{"id":"3507159","nome":"Bom Sucesso de Itararé","uf":"SP"},"geometry":{"type":"Point","coordinates":[-47.6,-22.6]}},{"type":"Feature","properties":{"id":"3507209","nome":"Borá","uf":"SP"},"geometry":{"type":"Point","coordinates":[-46.97,-22.42]}},{"type":"Feature","properties":{"id":"3507308","nome":"Boracéia","uf":"SP"},"geometry":{"type":"Point","coordinates":[-46.34,-22.240000000000002]}},{"type":"Feature","properties":{"id":"3507407","nome":"Borborema","uf":"SP"},"geometry":{"type":"Point","coordinates":[-45.71,-22.06]}},{"type":"Feature","properties":{"id":"3507456","nome":"Borebi","uf":"SP"},"geometry":{"type":"Point","coordinates":[-45.08,-21.88]}},{"type":"Feature","properties":{"id":"3507506","nome":"Botucatu","uf":"SP"},"geometry":{"type":"Point","coordinates":[-44.45,-21.7]}},{"type":"Feature","properties":{"id":"3507605","nome":"Bragança Paulista","uf":"SP"},"geometry":{"type":"Point","coordinates":[-52.82,-21.52]}},{"type":"Feature","properties":{"id":"3507704","nome":"Braúna","uf":"SP"},"geometry":{"type":"Point","coordinates":[-52.19,-21.34]}},{"type":"Feature","properties":{"id":"3507753","nome":"Brejo Alegre","uf":"SP"},"geometry":{"type":"Point","coordinates":[-51.56,-21.16]}},{"type":"Feature","properties":{"id":"3507803","nome":"Brodowski","uf":"SP"},"geometry":{"type":"Point","coordinates":[-50.93,-20.98]}},{"type":"Feature","properties":{"id":"3507902","nome":"Brotas","uf":"SP"},"geometry":{"type":"Point","coordinates":[-50.3,-20.8]}},{"type":"Feature","properties":{"id":"3508009","nome":"Buri","uf":"SP"},"geometry":{"type":"Point","coordinates":[-49.67,-20.62]}},{"type":"Feature","properties":{"id":"3508108","nome":"Buritama","uf":"SP"},"geometry":{"type":"Point","coordinates":[-49.04,-20.44]}},{"type":"Feature","properties":{"id":"3508207","nome":"Buritizal","uf":"SP"},"geometry":{"type":"Point","coordinates":[-48.41,-20.259999999999998]}},{"type":"Feature","properties":{"id":"3508306","nome":"Cabrália Paulista","uf":"SP"},"geometry":{"type":"Point","coordinates":[-47.78,-20.08]}},{"type":"Feature","properties":{"id":"3508405","nome":"Cabreúva","uf":"SP"},"geometry":{"type":"Point","coordinates":[-47.15,-19.9]}},{"type":"Feature","properties":{"id":"3508504","nome":"Caçapava","uf":"SP"},"geometry":{"type":"Point","coordinates":[-46.52,-19.72]}},{"type":"Feature","properties":{"id":"3508603","nome":"Cachoeira Paulista","uf":"SP"},"geometry":{"type":"Point","coordinates":[-45.89,-19.54]}},{"type":"Feature","properties":{"id":"3508702","nome":"Caconde","uf":"SP"},"geometry":{"type":"Point","coordinates":[-45.26,-19.36]}},{"type":"Feature","properties":{"id":"3508801","nome":"Cafelândia","uf":"SP"},"geometry":{"type":"Point","coordinates":[-44.63,-19.18]}},{"type":"Feature","properties":{"id":"3508900","nome":"Caiabu","uf":"SP"},"geometry":{"type":"Point","coordinates":[-53,-25]}},{"type":"Feature","properties":{"id":"3509007","nome":"Caieiras","uf":"SP"},"geometry":{"type":"Point","coordinates":[-52.37,-24.82]}},{"type":"Feature","properties":{"id":"3509106","nome":"Caiuá","uf":"SP"},"geometry":{"type":"Point","coordinates":[-51.74,-24.64]}},{"type":"Feature","properties":{"id":"3509205","nome":"Cajamar","uf":"SP"},"geometry":{"type":"Point","coordinates":[-51.11,-24.46]}},{"type":"Feature","properties":{"id":"3509254","nome":"Cajati","uf":"SP"},"geometry":{"type":"Point","coordinates":[-50.48,-24.28]}},{"type":"Feature","properties":{"id":"3509304","nome":"Cajobi","uf":"SP"},"geometry":{"type":"Point","coordinates":[-49.85,-24.1]}},{"type":"Feature","properties":{"id":"3509403","nome":"Cajuru","uf":"SP"},"geometry":{"type":"Point","coordinates":[-49.22,-23.92]}},{"type":"Feature","properties":{"id":"3509452","nome":"Campina do Monte Alegre","uf":"SP"},"geometry":{"type":"Point","coordinates":[-48.59,-23.74]}},{"type":"Feature","properties":{"id":"3509502","nome":"Campinas","uf":"SP"},"geometry":{"type":"Point","coordinates":[-47.96,-23.56]}},{"type":"Feature","properties":{"id":"3509601","nome":"Campo Limpo Paulista","uf":"SP"},"geometry":{"type":"Point","coordinates":[-47.33,-23.38]}},{"type":"Feature","properties":{"id":"3509700","nome":"Campos do Jordão","uf":"SP"},"geometry":{"type":"Point","coordinates":[-46.7,-23.2]}},{"type":"Feature","properties":{"id":"3509809","nome":"Campos Novos Paulista","uf":"SP"},"geometry":{"type":"Point","coordinates":[-46.07,-23.02]}},{"type":"Feature","properties":{"id":"3509908","nome":"Cananéia","uf":"SP"},"geometry":{"type":"Point","coordinates":[-45.44,-22.84]}},{"type":"Feature","properties":{"id":"3509957","nome":"Canas","uf":"SP"},"geometry":{"type":"Point","coordinates":[-44.81,-22.66]}},{"type":"Feature","properties":{"id":"3510005","nome":"Cândido Mota","uf":"SP"},"geometry":{"type":"Point","coordinates":[-44.18,-22.48]}},{"type":"Feature","properties":{"id":"3510104","nome":"Cândido Rodrigues","uf":"SP"},"geometry":{"type":"Point","coordinates":[-52.55,-22.3]}},{"type":"Feature","properties":{"id":"3510153","nome":"Canitar","uf":"SP"},"geometry":{"type":"Point","coordinates":[-51.92,-22.12]}},{"type":"Feature","properties":{"id":"3510203","nome":"Capão Bonito","uf":"SP"},"geometry":{"type":"Point","coordinates":[-51.29,-21.94]}},{"type":"Feature","properties":{"id":"3510302","nome":"Capela do Alto","uf":"SP"},"geometry":{"type":"Point","coordinates":[-50.66,-21.76]}},{"type":"Feature","properties":{"id":"3510401","nome":"Capivari","uf":"SP"},"geometry":{"type":"Point","coordinates":[-50.03,-21.58]}},{"type":"Feature","properties":{"id":"3510500","nome":"Caraguatatuba","uf":"SP"},"geometry":{"type":"Point","coordinates":[-49.4,-21.4]}},{"type":"Feature","properties":{"id":"3510609","nome":"Carapicuíba","uf":"SP"},"geometry":{"type":"Point","coordinates":[-48.77,-21.22]}},{"type":"Feature","properties":{"id":"3510708","nome":"Cardoso","uf":"SP"},"geometry":{"type":"Point","coordinates":[-48.14,-21.04]}},{"type":"Feature","properties":{"id":"3510807","nome":"Casa Branca","uf":"SP"},"geometry":{"type":"Point","coordinates":[-47.51,-20.86]}},{"type":"Feature","properties":{"id":"3510906","nome":"Cássia dos Coqueiros","uf":"SP"},"geometry":{"type":"Point","coordinates":[-46.88,-20.68]}},{"type":"Feature","properties":{"id":"3511003","nome":"Castilho","uf":"SP"},"geometry":{"type":"Point","coordinates":[-46.25,-20.5]}},{"type":"Feature","properties":{"id":"3511102","nome":"Catanduva","uf":"SP"},"geometry":{"type":"Point","coordinates":[-45.62,-20.32]}},{"type":"Feature","properties":{"id":"3511201","nome":"Catiguá","uf":"SP"},"geometry":{"type":"Point","coordinates":[-44.99,-20.14]}},{"type":"Feature","properties":{"id":"3511300","nome":"Cedral","uf":"SP"},"geometry":{"type":"Point","coordinates":[-44.36,-19.96]}},{"type":"Feature","properties":{"id":"3511409","nome":"Cerqueira César","uf":"SP"},"geometry":{"type":"Point","coordinates":[-52.73,-19.78]}},{"type":"Feature","properties":{"id":"3511508","nome":"Cerquilho","uf":"SP"},"geometry":{"type":"Point","coordinates":[-52.1,-19.6]}},{"type":"Feature","properties":{"id":"3511607","nome":"Cesário Lange","uf":"SP"},"geometry":{"type":"Point","coordinates":[-51.47,-19.42]}},{"type":"Feature","properties":{"id":"3511706","nome":"Charqueada","uf":"SP"},"geometry":{"type":"Point","coordinates":[-50.84,-19.240000000000002]}},{"type":"Feature","properties":{"id":"3511904","nome":"Clementina","uf":"SP"},"geometry":{"type":"Point","coordinates":[-50.21,-19.060000000000002]}},{"type":"Feature","properties":{"id":"3512001","nome":"Colina","uf":"SP"},"geometry":{"type":"Point","coordinates":[-49.58,-24.88]}},{"type":"Feature","properties":{"id":"3512100","nome":"Colômbia","uf":"SP"},"geometry":{"type":"Point","coordinates":[-48.95,-24.7]}},{"type":"Feature","properties":{"id":"3512209","nome":"Conchal","uf":"SP"},"geometry":{"type":"Point","coordinates":[-48.32,-24.52]}},{"type":"Feature","properties":{"id":"3512308","nome":"Conchas","uf":"SP"},"geometry":{"type":"Point","coordinates":[-47.69,-24.34]}},{"type":"Feature","properties":{"id":"3512407","nome":"Cordeirópolis","uf":"SP"},"geometry":{"type":"Point","coordinates":[-47.06,-24.16]}},{"type":"Feature","properties":{"id":"3512506","nome":"Coroados","uf":"SP"},"geometry":{"type":"Point","coordinates":[-46.43,-23.98]}},{"type":"Feature","properties":{"id":"3512605","nome":"Coronel Macedo","uf":"SP"},"geometry":{"type":"Point","coordinates":[-45.8,-23.8]}},{"type":"Feature","properties":{"id":"3512704","nome":"Corumbataí","uf":"SP"},"geometry":{"type":"Point","coordinates":[-45.17,-23.62]}},{"type":"Feature","properties":{"id":"3512803","nome":"Cosmópolis","uf":"SP"},"geometry":{"type":"Point","coordinates":[-44.54,-23.44]}},{"type":"Feature","properties":{"id":"3512902","nome":"Cosmorama","uf":"SP"},"geometry":{"type":"Point","coordinates":[-52.91,-23.26]}},{"type":"Feature","properties":{"id":"3513009","nome":"Cotia","uf":"SP"},"geometry":{"type":"Point","coordinates":[-52.28,-23.08]}},{"type":"Feature","properties":{"id":"3513108","nome":"Cravinhos","uf":"SP"},"geometry":{"type":"Point","coordinates":[-51.65,-22.9]}},{"type":"Feature","properties":{"id":"3513207","nome":"Cristais Paulista","uf":"SP"},"geometry":{"type":"Point","coordinates":[-51.02,-22.72]}},{"type":"Feature","properties":{"id":"3513306","nome":"Cruzália","uf":"SP"},"geometry":{"type":"Point","coordinates":[-50.39,-22.54]}},{"type":"Feature","properties":{"id":"3513405","nome":"Cruzeiro","uf":"SP"},"geometry":{"type":"Point","coordinates":[-49.76,-22.36]}},{"type":"Feature","properties":{"id":"3513504","nome":"Cubatão","uf":"SP"},"geometry":{"type":"Point","coordinates":[-49.13,-22.18]}},{"type":"Feature","properties":{"id":"3513603","nome":"Cunha","uf":"SP"},"geometry":{"type":"Point","coordinates":[-48.5,-22]}},{"type":"Feature","properties":{"id":"3513702","nome":"Descalvado","uf":"SP"},"geometry":{"type":"Point","coordinates":[-47.87,-21.82]}},{"type":"Feature","properties":{"id":"3513801","nome":"Diadema","uf":"SP"},"geometry":{"type":"Point","coordinates":[-47.24,-21.64]}},{"type":"Feature","properties":{"id":"3513850","nome":"Dirce Reis","uf":"SP"},"geometry":{"type":"Point","coordinates":[-46.61,-21.46]}},{"type":"Feature","properties":{"id":"3513900","nome":"Divinolândia","uf":"SP"},"geometry":{"type":"Point","coordinates":[-45.980000000000004,-21.28]}},{"type":"Feature","properties":{"id":"3514007","nome":"Dobrada","uf":"SP"},"geometry":{"type":"Point","coordinates":[-45.35,-21.1]}},{"type":"Feature","properties":{"id":"3514106","nome":"Dois Córregos","uf":"SP"},"geometry":{"type":"Point","coordinates":[-44.72,-20.92]}},{"type":"Feature","properties":{"id":"3514205","nome":"Dolcinópolis","uf":"SP"},"geometry":{"type":"Point","coordinates":[-44.09,-20.740000000000002]}},{"type":"Feature","properties":{"id":"3514304","nome":"Dourado","uf":"SP"},"geometry":{"type":"Point","coordinates":[-52.46,-20.560000000000002]}},{"type":"Feature","properties":{"id":"3514403","nome":"Dracena","uf":"SP"},"geometry":{"type":"Point","coordinates":[-51.83,-20.38]}},{"type":"Feature","properties":{"id":"3514502","nome":"Duartina","uf":"SP"},"geometry":{"type":"Point","coordinates":[-51.2,-20.2]}},{"type":"Feature","properties":{"id":"3514601","nome":"Dumont","uf":"SP"},"geometry":{"type":"Point","coordinates":[-50.57,-20.02]}},{"type":"Feature","properties":{"id":"3514700","nome":"Echaporã","uf":"SP"},"geometry":{"type":"Point","coordinates":[-49.94,-19.84]}},{"type":"Feature","properties":{"id":"3514809","nome":"Eldorado","uf":"SP"},"geometry":{"type":"Point","coordinates":[-49.31,-19.66]}},{"type":"Feature","properties":{"id":"3514908","nome":"Elias Fausto","uf":"SP"},"geometry":{"type":"Point","coordinates":[-48.68,-19.48]}},{"type":"Feature","properties":{"id":"3514924","nome":"Elisiário","uf":"SP"},"geometry":{"type":"Point","coordinates":[-48.05,-19.3]}},{"type":"Feature","properties":{"id":"3514957","nome":"Embaúba","uf":"SP"},"geometry":{"type":"Point","coordinates":[-47.42,-19.12]}},{"type":"Feature","properties":{"id":"3515004","nome":"Embu das Artes","uf":"SP"},"geometry":{"type":"Point","coordinates":[-46.79,-24.94]}},{"type":"Feature","properties":{"id":"3515103","nome":"Embu-Guaçu","uf":"SP"},"geometry":{"type":"Point","coordinates":[-46.16,-24.76]}},{"type":"Feature","properties":{"id":"3515129","nome":"Emilianópolis","uf":"SP"},"geometry":{"type":"Point","coordinates":[-45.53,-24.58]}},{"type":"Feature","properties":{"id":"3515152","nome":"Engenheiro Coelho","uf":"SP"},"geometry":{"type":"Point","coordinates":[-44.9,-24.4]}},{"type":"Feature","properties":{"id":"3515186","nome":"Espírito Santo do Pinhal","uf":"SP"},"geometry":{"type":"Point","coordinates":[-44.269999999999996,-24.22]}},{"type":"Feature","properties":{"id":"3515194","nome":"Espírito Santo do Turvo","uf":"SP"},"geometry":{"type":"Point","coordinates":[-52.64,-24.04]}},{"type":"Feature","properties":{"id":"3515202","nome":"Estrela d'Oeste","uf":"SP"},"geometry":{"type":"Point","coordinates":[-52.01,-23.86]}},{"type":"Feature","properties":{"id":"3515301","nome":"Estrela do Norte","uf":"SP"},"geometry":{"type":"Point","coordinates":[-51.38,-23.68]}},{"type":"Feature","properties":{"id":"3515350","nome":"Euclides da Cunha Paulista","uf":"SP"},"geometry":{"type":"Point","coordinates":[-50.75,-23.5]}},{"type":"Feature","properties":{"id":"3515400","nome":"Fartura","uf":"SP"},"geometry":{"type":"Point","coordinates":[-50.12,-23.32]}},{"type":"Feature","properties":{"id":"3515509","nome":"Fernandópolis","uf":"SP"},"geometry":{"type":"Point","coordinates":[-49.49,-23.14]}},{"type":"Feature","properties":{"id":"3515608","nome":"Fernando Prestes","uf":"SP"},"geometry":{"type":"Point","coordinates":[-48.86,-22.96]}},{"type":"Feature","properties":{"id":"3515657","nome":"Fernão","uf":"SP"},"geometry":{"type":"Point","coordinates":[-48.230000000000004,-22.78]}},{"type":"Feature","properties":{"id":"3515707","nome":"Ferraz de Vasconcelos","uf":"SP"},"geometry":{"type":"Point","coordinates":[-47.6,-22.6]}},{"type":"Feature","properties":{"id":"3515806","nome":"Flora Rica","uf":"SP"},"geometry":{"type":"Point","coordinates":[-46.97,-22.42]}},{"type":"Feature","properties":{"id":"3515905","nome":"Floreal","uf":"SP"},"geometry":{"type":"Point","coordinates":[-46.34,-22.240000000000002]}},{"type":"Feature","properties":{"id":"3516002","nome":"Flórida Paulista","uf":"SP"},"geometry":{"type":"Point","coordinates":[-45.71,-22.06]}},{"type":"Feature","properties":{"id":"3516101","nome":"Florínea","uf":"SP"},"geometry":{"type":"Point","coordinates":[-45.08,-21.88]}},{"type":"Feature","properties":{"id":"3516200","nome":"Franca","uf":"SP"},"geometry":{"type":"Point","coordinates":[-44.45,-21.7]}},{"type":"Feature","properties":{"id":"3516309","nome":"Francisco Morato","uf":"SP"},"geometry":{"type":"Point","coordinates":[-52.82,-21.52]}},{"type":"Feature","properties":{"id":"3516408","nome":"Franco da Rocha","uf":"SP"},"geometry":{"type":"Point","coordinates":[-52.19,-21.34]}},{"type":"Feature","properties":{"id":"3516507","nome":"Gabriel Monteiro","uf":"SP"},"geometry":{"type":"Point","coordinates":[-51.56,-21.16]}},{"type":"Feature","properties":{"id":"3516606","nome":"Gália","uf":"SP"},"geometry":{"type":"Point","coordinates":[-50.93,-20.98]}},{"type":"Feature","properties":{"id":"3516705","nome":"Garça","uf":"SP"},"geometry":{"type":"Point","coordinates":[-50.3,-20.8]}},{"type":"Feature","properties":{"id":"3516804","nome":"Gastão Vidigal","uf":"SP"},"geometry":{"type":"Point","coordinates":[-49.67,-20.62]}},{"type":"Feature","properties":{"id":"3516853","nome":"Gavião Peixoto","uf":"SP"},"geometry":{"type":"Point","coordinates":[-49.04,-20.44]}},{"type":"Feature","properties":{"id":"3516903","nome":"General Salgado","uf":"SP"},"geometry":{"type":"Point","coordinates":[-48.41,-20.259999999999998]}},{"type":"Feature","properties":{"id":"3517000","nome":"Getulina","uf":"SP"},"geometry":{"type":"Point","coordinates":[-47.78,-20.08]}},{"type":"Feature","properties":{"id":"3517109","nome":"Glicério","uf":"SP"},"geometry":{"type":"Point","coordinates":[-47.15,-19.9]}},{"type":"Feature","properties":{"id":"3517208","nome":"Guaiçara","uf":"SP"},"geometry":{"type":"Point","coordinates":[-46.52,-19.72]}},{"type":"Feature","properties":{"id":"3517307","nome":"Guaimbê","uf":"SP"},"geometry":{"type":"Point","coordinates":[-45.89,-19.54]}},{"type":"Feature","properties":{"id":"3517406","nome":"Guaíra","uf":"SP"},"geometry":{"type":"Point","coordinates":[-45.26,-19.36]}},{"type":"Feature","properties":{"id":"3517505","nome":"Guapiaçu","uf":"SP"},"geometry":{"type":"Point","coordinates":[-44.63,-19.18]}},{"type":"Feature","properties":{"id":"3517604","nome":"Guapiara","uf":"SP"},"geometry":{"type":"Point","coordinates":[-53,-25]}},{"type":"Feature","properties":{"id":"3517703","nome":"Guará","uf":"SP"},"geometry":{"type":"Point","coordinates":[-52.37,-24.82]}},{"type":"Feature","properties":{"id":"3517802","nome":"Guaraçaí","uf":"SP"},"geometry":{"type":"Point","coordinates":[-51.74,-24.64]}},{"type":"Feature","properties":{"id":"3517901","nome":"Guaraci","uf":"SP"},"geometry":{"type":"Point","coordinates":[-51.11,-24.46]}},{"type":"Feature","properties":{"id":"3518008","nome":"Guarani d'Oeste","uf":"SP"},"geometry":{"type":"Point","coordinates":[-50.48,-24.28]}},{"type":"Feature","properties":{"id":"3518107","nome":"Guarantã","uf":"SP"},"geometry":{"type":"Point","coordinates":[-49.85,-24.1]}},{"type":"Feature","properties":{"id":"3518206","nome":"Guararapes","uf":"SP"},"geometry":{"type":"Point","coordinates":[-49.22,-23.92]}},{"type":"Feature","properties":{"id":"3518305","nome":"Guararema","uf":"SP"},"geometry":{"type":"Point","coordinates":[-48.59,-23.74]}},{"type":"Feature","properties":{"id":"3518404","nome":"Guaratinguetá","uf":"SP"},"geometry":{"type":"Point","coordinates":[-47.96,-23.56]}},{"type":"Feature","properties":{"id":"3518503","nome":"Guareí","uf":"SP"},"geometry":{"type":"Point","coordinates":[-47.33,-23.38]}},{"type":"Feature","properties":{"id":"3518602","nome":"Guariba","uf":"SP"},"geometry":{"type":"Point","coordinates":[-46.7,-23.2]}},{"type":"Feature","properties":{"id":"3518701","nome":"Guarujá","uf":"SP"},"geometry":{"type":"Point","coordinates":[-46.07,-23.02]}},{"type":"Feature","properties":{"id":"3518800","nome":"Guarulhos","uf":"SP"},"geometry":{"type":"Point","coordinates":[-45.44,-22.84]}},{"type":"Feature","properties":{"id":"3518859","nome":"Guatapará","uf":"SP"},"geometry":{"type":"Point","coordinates":[-44.81,-22.66]}},{"type":"Feature","properties":{"id":"3518909","nome":"Guzolândia","uf":"SP"},"geometry":{"type":"Point","coordinates":[-44.18,-22.48]}},{"type":"Feature","properties":{"id":"3519006","nome":"Herculândia","uf":"SP"},"geometry":{"type":"Point","coordinates":[-52.55,-22.3]}},{"type":"Feature","properties":{"id":"3519055","nome":"Holambra","uf":"SP"},"geometry":{"type":"Point","coordinates":[-51.92,-22.12]}},{"type":"Feature","properties":{"id":"3519071","nome":"Hortolândia","uf":"SP"},"geometry":{"type":"Point","coordinates":[-51.29,-21.94]}},{"type":"Feature","properties":{"id":"3519105","nome":"Iacanga","uf":"SP"},"geometry":{"type":"Point","coordinates":[-50.66,-21.76]}},{"type":"Feature","properties":{"id":"3519204","nome":"Iacri","uf":"SP"},"geometry":{"type":"Point","coordinates":[-50.03,-21.58]}},{"type":"Feature","properties":{"id":"3519253","nome":"Iaras","uf":"SP"},"geometry":{"type":"Point","coordinates":[-49.4,-21.4]}},{"type":"Feature","properties":{"id":"3519303","nome":"Ibaté","uf":"SP"},"geometry":{"type":"Point","coordinates":[-48.77,-21.22]}},{"type":"Feature","properties":{"id":"3519402","nome":"Ibirá","uf":"SP"},"geometry":{"type":"Point","coordinates":[-48.14,-21.04]}},{"type":"Feature","properties":{"id":"3519501","nome":"Ibirarema","uf":"SP"},"geometry":{"type":"Point","coordinates":[-47.51,-20.86]}},{"type":"Feature","properties":{"id":"3519600","nome":"Ibitinga","uf":"SP"},"geometry":{"type":"Point","coordinates":[-46.88,-20.68]}},{"type":"Feature","properties":{"id":"3519709","nome":"Ibiúna","uf":"SP"},"geometry":{"type":"Point","coordinates":[-46.25,-20.5]}},{"type":"Feature","properties":{"id":"3519808","nome":"Icém","uf":"SP"},"geometry":{"type":"Point","coordinates":[-45.62,-20.32]}},{"type":"Feature","properties":{"id":"3519907","nome":"Iepê","uf":"SP"},"geometry":{"type":"Point","coordinates":[-44.99,-20.14]}},{"type":"Feature","properties":{"id":"3520004","nome":"Igaraçu do Tietê","uf":"SP"},"geometry":{"type":"Point","coordinates":[-44.36,-19.96]}},{"type":"Feature","properties":{"id":"3520103","nome":"Igarapava","uf":"SP"},"geometry":{"type":"Point","coordinates":[-52.73,-19.78]}},{"type":"Feature","properties":{"id":"3520202","nome":"Igaratá","uf":"SP"},"geometry":{"type":"Point","coordinates":[-52.1,-19.6]}},{"type":"Feature","properties":{"id":"3520301","nome":"Iguape","uf":"SP"},"geometry":{"type":"Point","coordinates":[-51.47,-19.42]}},{"type":"Feature","properties":{"id":"3520400","nome":"Ilhabela","uf":"SP"},"geometry":{"type":"Point","coordinates":[-50.84,-19.240000000000002]}},{"type":"Feature","properties":{"id":"3520426","nome":"Ilha Comprida","uf":"SP"},"geometry":{"type":"Point","coordinates":[-50.21,-19.060000000000002]}},{"type":"Feature","properties":{"id":"3520442","nome":"Ilha Solteira","uf":"SP"},"geometry":{"type":"Point","coordinates":[-49.58,-24.88]}},{"type":"Feature","properties":{"id":"3520509","nome":"Indaiatuba","uf":"SP"},"geometry":{"type":"Point","coordinates":[-48.95,-24.7]}},{"type":"Feature","properties":{"id":"3520608","nome":"Indiana","uf":"SP"},"geometry":{"type":"Point","coordinates":[-48.32,-24.52]}},{"type":"Feature","properties":{"id":"3520707","nome":"Indiaporã","uf":"SP"},"geometry":{"type":"Point","coordinates":[-47.69,-24.34]}},{"type":"Feature","properties":{"id":"3520806","nome":"Inúbia Paulista","uf":"SP"},"geometry":{"type":"Point","coordinates":[-47.06,-24.16]}},{"type":"Feature","properties":{"id":"3520905","nome":"Ipaussu","uf":"SP"},"geometry":{"type":"Point","coordinates":[-46.43,-23.98]}},{"type":"Feature","properties":{"id":"3521002","nome":"Iperó","uf":"SP"},"geometry":{"type":"Point","coordinates":[-45.8,-23.8]}},{"type":"Feature","properties":{"id":"3521101","nome":"Ipeúna","uf":"SP"},"geometry":{"type":"Point","coordinates":[-45.17,-23.62]}},{"type":"Feature","properties":{"id":"3521150","nome":"Ipiguá","uf":"SP"},"geometry":{"type":"Point","coordinates":[-44.54,-23.44]}},{"type":"Feature","properties":{"id":"3521200","nome":"Iporanga","uf":"SP"},"geometry":{"type":"Point","coordinates":[-52.91,-23.26]}},{"type":"Feature","properties":{"id":"3521309","nome":"Ipuã","uf":"SP"},"geometry":{"type":"Point","coordinates":[-52.28,-23.08]}},{"type":"Feature","properties":{"id":"3521408","nome":"Iracemápolis","uf":"SP"},"geometry":{"type":"Point","coordinates":[-51.65,-22.9]}},{"type":"Feature","properties":{"id":"3521507","nome":"Irapuã","uf":"SP"},"geometry":{"type":"Point","coordinates":[-51.02,-22.72]}},{"type":"Feature","properties":{"id":"3521606","nome":"Irapuru","uf":"SP"},"geometry":{"type":"Point","coordinates":[-50.39,-22.54]}},{"type":"Feature","properties":{"id":"3521705","nome":"Itaberá","uf":"SP"},"geometry":{"type":"Point","coordinates":[-49.76,-22.36]}},{"type":"Feature","properties":{"id":"3521804","nome":"Itaí","uf":"SP"},"geometry":{"type":"Point","coordinates":[-49.13,-22.18]}},{"type":"Feature","properties":{"id":"3521903","nome":"Itajobi","uf":"SP"},"geometry":{"type":"Point","coordinates":[-48.5,-22]}},{"type":"Feature","properties":{"id":"3522000","nome":"Itaju","uf":"SP"},"geometry":{"type":"Point","coordinates":[-47.87,-21.82]}},{"type":"Feature","properties":{"id":"3522109","nome":"Itanhaém","uf":"SP"},"geometry":{"type":"Point","coordinates":[-47.24,-21.64]}},{"type":"Feature","properties":{"id":"3522158","nome":"Itaoca","uf":"SP"},"geometry":{"type":"Point","coordinates":[-46.61,-21.46]}},{"type":"Feature","properties":{"id":"3522208","nome":"Itapecerica da Serra","uf":"SP"},"geometry":{"type":"Point","coordinates":[-45.980000000000004,-21.28]}},{"type":"Feature","properties":{"id":"3522307","nome":"Itapetininga","uf":"SP"},"geometry":{"type":"Point","coordinates":[-45.35,-21.1]}},{"type":"Feature","properties":{"id":"3522406","nome":"Itapeva","uf":"SP"},"geometry":{"type":"Point","coordinates":[-44.72,-20.92]}},{"type":"Feature","properties":{"id":"3522505","nome":"Itapevi","uf":"SP"},"geometry":{"type":"Point","coordinates":[-44.09,-20.740000000000002]}},{"type":"Feature","properties":{"id":"3522604","nome":"Itapira","uf":"SP"},"geometry":{"type":"Point","coordinates":[-52.46,-20.560000000000002]}},{"type":"Feature","properties":{"id":"3522653","nome":"Itapirapuã Paulista","uf":"SP"},"geometry":{"type":"Point","coordinates":[-51.83,-20.38]}},{"type":"Feature","properties":{"id":"3522703","nome":"Itápolis","uf":"SP"},"geometry":{"type":"Point","coordinates":[-51.2,-20.2]}},{"type":"Feature","properties":{"id":"3522802","nome":"Itaporanga","uf":"SP"},"geometry":{"type":"Point","coordinates":[-50.57,-20.02]}},{"type":"Feature","properties":{"id":"3522901","nome":"Itapuí","uf":"SP"},"geometry":{"type":"Point","coordinates":[-49.94,-19.84]}},{"type":"Feature","properties":{"id":"3523008","nome":"Itapura","uf":"SP"},"geometry":{"type":"Point","coordinates":[-49.31,-19.66]}},{"type":"Feature","properties":{"id":"3523107","nome":"Itaquaquecetuba","uf":"SP"},"geometry":{"type":"Point","coordinates":[-48.68,-19.48]}},{"type":"Feature","properties":{"id":"3523206","nome":"Itararé","uf":"SP"},"geometry":{"type":"Point","coordinates":[-48.05,-19.3]}},{"type":"Feature","properties":{"id":"3523305","nome":"Itariri","uf":"SP"},"geometry":{"type":"Point","coordinates":[-47.42,-19.12]}},{"type":"Feature","properties":{"id":"3523404","nome":"Itatiba","uf":"SP"},"geometry":{"type":"Point","coordinates":[-46.79,-24.94]}},{"type":"Feature","properties":{"id":"3523503","nome":"Itatinga","uf":"SP"},"geometry":{"type":"Point","coordinates":[-46.16,-24.76]}},{"type":"Feature","properties":{"id":"3523602","nome":"Itirapina","uf":"SP"},"geometry":{"type":"Point","coordinates":[-45.53,-24.58]}},{"type":"Feature","properties":{"id":"3523701","nome":"Itirapuã","uf":"SP"},"geometry":{"type":"Point","coordinates":[-44.9,-24.4]}},{"type":"Feature","properties":{"id":"3523800","nome":"Itobi","uf":"SP"},"geometry":{"type":"Point","coordinates":[-44.269999999999996,-24.22]}},{"type":"Feature","properties":{"id":"3523909","nome":"Itu","uf":"SP"},"geometry":{"type":"Point","coordinates":[-52.64,-24.04]}},{"type":"Feature","properties":{"id":"3524006","nome":"Itupeva","uf":"SP"},"geometry":{"type":"Point","coordinates":[-52.01,-23.86]}},{"type":"Feature","properties":{"id":"3524105","nome":"Ituverava","uf":"SP"},"geometry":{"type":"Point","coordinates":[-51.38,-23.68]}},{"type":"Feature","properties":{"id":"3524204","nome":"Jaborandi","uf":"SP"},"geometry":{"type":"Point","coordinates":[-50.75,-23.5]}},{"type":"Feature","properties":{"id":"3524303","nome":"Jaboticabal","uf":"SP"},"geometry":{"type":"Point","coordinates":[-50.12,-23.32]}},{"type":"Feature","properties":{"id":"3524402","nome":"Jacareí","uf":"SP"},"geometry":{"type":"Point","coordinates":[-49.49,-23.14]}},{"type":"Feature","properties":{"id":"3524501","nome":"Jaci","uf":"SP"},"geometry":{"type":"Point","coordinates":[-48.86,-22.96]}},{"type":"Feature","properties":{"id":"3524600","nome":"Jacupiranga","uf":"SP"},"geometry":{"type":"Point","coordinates":[-48.230000000000004,-22.78]}},{"type":"Feature","properties":{"id":"3524709","nome":"Jaguariúna","uf":"SP"},"geometry":{"type":"Point","coordinates":[-47.6,-22.6]}},{"type":"Feature","properties":{"id":"3524808","nome":"Jales","uf":"SP"},"geometry":{"type":"Point","coordinates":[-46.97,-22.42]}},{"type":"Feature","properties":{"id":"3524907","nome":"Jambeiro","uf":"SP"},"geometry":{"type":"Point","coordinates":[-46.34,-22.240000000000002]}},{"type":"Feature","properties":{"id":"3525003","nome":"Jandira","uf":"SP"},"geometry":{"type":"Point","coordinates":[-45.71,-22.06]}},{"type":"Feature","properties":{"id":"3525102","nome":"Jardinópolis","uf":"SP"},"geometry":{"type":"Point","coordinates":[-45.08,-21.88]}},{"type":"Feature","properties":{"id":"3525201","nome":"Jarinu","uf":"SP"},"geometry":{"type":"Point","coordinates":[-44.45,-21.7]}},{"type":"Feature","properties":{"id":"3525300","nome":"Jaú","uf":"SP"},"geometry":{"type":"Point","coordinates":[-52.82,-21.52]}},{"type":"Feature","properties":{"id":"3525409","nome":"Jeriquara","uf":"SP"},"geometry":{"type":"Point","coordinates":[-52.19,-21.34]}},{"type":"Feature","properties":{"id":"3525508","nome":"Joanópolis","uf":"SP"},"geometry":{"type":"Point","coordinates":[-51.56,-21.16]}},{"type":"Feature","properties":{"id":"3525607","nome":"João Ramalho","uf":"SP"},"geometry":{"type":"Point","coordinates":[-50.93,-20.98]}},{"type":"Feature","properties":{"id":"3525706","nome":"José Bonifácio","uf":"SP"},"geometry":{"type":"Point","coordinates":[-50.3,-20.8]}},{"type":"Feature","properties":{"id":"3525805","nome":"Júlio Mesquita","uf":"SP"},"geometry":{"type":"Point","coordinates":[-49.67,-20.62]}},{"type":"Feature","properties":{"id":"3525854","nome":"Jumirim","uf":"SP"},"geometry":{"type":"Point","coordinates":[-49.04,-20.44]}},{"type":"Feature","properties":{"id":"3525904","nome":"Jundiaí","uf":"SP"},"geometry":{"type":"Point","coordinates":[-48.41,-20.259999999999998]}},{"type":"Feature","properties":{"id":"3526001","nome":"Junqueirópolis","uf":"SP"},"geometry":{"type":"Point","coordinates":[-47.78,-20.08]}},{"type":"Feature","properties":{"id":"3526100","nome":"Juquiá","uf":"SP"},"geometry":{"type":"Point","coordinates":[-47.15,-19.9]}},{"type":"Feature","properties":{"id":"3526209","nome":"Juquitiba","uf":"SP"},"geometry":{"type":"Point","coordinates":[-46.52,-19.72]}},{"type":"Feature","properties":{"id":"3526308","nome":"Lagoinha","uf":"SP"},"geometry":{"type":"Point","coordinates":[-45.89,-19.54]}},{"type":"Feature","properties":{"id":"3526407","nome":"Laranjal Paulista","uf":"SP"},"geometry":{"type":"Point","coordinates":[-45.26,-19.36]}},{"type":"Feature","properties":{"id":"3526506","nome":"Lavínia","uf":"SP"},"geometry":{"type":"Point","coordinates":[-44.63,-19.18]}},{"type":"Feature","properties":{"id":"3526605","nome":"Lavrinhas","uf":"SP"},"geometry":{"type":"Point","coordinates":[-53,-25]}},{"type":"Feature","properties":{"id":"3526704","nome":"Leme","uf":"SP"},"geometry":{"type":"Point","coordinates":[-52.37,-24.82]}},{"type":"Feature","properties":{"id":"3526803","nome":"Lençóis Paulista","uf":"SP"},"geometry":{"type":"Point","coordinates":[-51.74,-24.64]}},{"type":"Feature","properties":{"id":"3526902","nome":"Limeira","uf":"SP"},"geometry":{"type":"Point","coordinates":[-51.11,-24.46]}},{"type":"Feature","properties":{"id":"3527009","nome":"Lindóia","uf":"SP"},"geometry":{"type":"Point","coordinates":[-50.48,-24.28]}},{"type":"Feature","properties":{"id":"3527108","nome":"Lins","uf":"SP"},"geometry":{"type":"Point","coordinates":[-49.85,-24.1]}},{"type":"Feature","properties":{"id":"3527207","nome":"Lorena","uf":"SP"},"geometry":{"type":"Point","coordinates":[-49.22,-23.92]}},{"type":"Feature","properties":{"id":"3527256","nome":"Lourdes","uf":"SP"},"geometry":{"type":"Point","coordinates":[-48.59,-23.74]}},{"type":"Feature","properties":{"id":"3527306","nome":"Louveira","uf":"SP"},"geometry":{"type":"Point","coordinates":[-47.96,-23.56]}},{"type":"Feature","properties":{"id":"3527405","nome":"Lucélia","uf":"SP"},"geometry":{"type":"Point","coordinates":[-47.33,-23.38]}},{"type":"Feature","properties":{"id":"3527504","nome":"Lucianópolis","uf":"SP"},"geometry":{"type":"Point","coordinates":[-46.7,-23.2]}},{"type":"Feature","properties":{"id":"3527603","nome":"Luís Antônio","uf":"SP"},"geometry":{"type":"Point","coordinates":[-46.07,-23.02]}},{"type":"Feature","properties":{"id":"3527702","nome":"Luiziânia","uf":"SP"},"geometry":{"type":"Point","coordinates":[-45.44,-22.84]}},{"type":"Feature","properties":{"id":"3527801","nome":"Lupércio","uf":"SP"},"geometry":{"type":"Point","coordinates":[-44.81,-22.66]}},{"type":"Feature","properties":{"id":"3527900","nome":"Lutécia","uf":"SP"},"geometry":{"type":"Point","coordinates":[-44.18,-22.48]}},{"type":"Feature","properties":{"id":"3528007","nome":"Macatuba","uf":"SP"},"geometry":{"type":"Point","coordinates":[-52.55,-22.3]}},{"type":"Feature","properties":{"id":"3528106","nome":"Macaubal","uf":"SP"},"geometry":{"type":"Point","coordinates":[-51.92,-22.12]}},{"type":"Feature","properties":{"id":"3528205","nome":"Macedônia","uf":"SP"},"geometry":{"type":"Point","coordinates":[-51.29,-21.94]}},{"type":"Feature","properties":{"id":"3528304","nome":"Magda","uf":"SP"},"geometry":{"type":"Point","coordinates":[-50.66,-21.76]}},{"type":"Feature","properties":{"id":"3528403","nome":"Mairinque","uf":"SP"},"geometry":{"type":"Point","coordinates":[-50.03,-21.58]}},{"type":"Feature","properties":{"id":"3528502","nome":"Mairiporã","uf":"SP"},"geometry":{"type":"Point","coordinates":[-49.4,-21.4]}},{"type":"Feature","properties":{"id":"3528601","nome":"Manduri","uf":"SP"},"geometry":{"type":"Point","coordinates":[-48.77,-21.22]}},{"type":"Feature","properties":{"id":"3528700","nome":"Marabá Paulista","uf":"SP"},"geometry":{"type":"Point","coordinates":[-48.14,-21.04]}},{"type":"Feature","properties":{"id":"3528809","nome":"Maracaí","uf":"SP"},"geometry":{"type":"Point","coordinates":[-47.51,-20.86]}},{"type":"Feature","properties":{"id":"3528858","nome":"Marapoama","uf":"SP"},"geometry":{"type":"Point","coordinates":[-46.88,-20.68]}},{"type":"Feature","properties":{"id":"3528908","nome":"Mariápolis","uf":"SP"},"geometry":{"type":"Point","coordinates":[-46.25,-20.5]}},{"type":"Feature","properties":{"id":"3529005","nome":"Marília","uf":"SP"},"geometry":{"type":"Point","coordinates":[-45.62,-20.32]}},{"type":"Feature","properties":{"id":"3529104","nome":"Marinópolis","uf":"SP"},"geometry":{"type":"Point","coordinates":[-44.99,-20.14]}},{"type":"Feature","properties":{"id":"3529203","nome":"Martinópolis","uf":"SP"},"geometry":{"type":"Point","coordinates":[-44.36,-19.96]}},{"type":"Feature","properties":{"id":"3529302","nome":"Matão","uf":"SP"},"geometry":{"type":"Point","coordinates":[-52.73,-19.78]}},{"type":"Feature","properties":{"id":"3529401","nome":"Mauá","uf":"SP"},"geometry":{"type":"Point","coordinates":[-52.1,-19.6]}},{"type":"Feature","properties":{"id":"3529500","nome":"Mendonça","uf":"SP"},"geometry":{"type":"Point","coordinates":[-51.47,-19.42]}},{"type":"Feature","properties":{"id":"3529609","nome":"Meridiano","uf":"SP"},"geometry":{"type":"Point","coordinates":[-50.84,-19.240000000000002]}},{"type":"Feature","properties":{"id":"3529658","nome":"Mesópolis","uf":"SP"},"geometry":{"type":"Point","coordinates":[-50.21,-19.060000000000002]}},{"type":"Feature","properties":{"id":"3529708","nome":"Miguelópolis","uf":"SP"},"geometry":{"type":"Point","coordinates":[-49.58,-24.88]}},{"type":"Feature","properties":{"id":"3529807","nome":"Mineiros do Tietê","uf":"SP"},"geometry":{"type":"Point","coordinates":[-48.95,-24.7]}},{"type":"Feature","properties":{"id":"3529906","nome":"Miracatu","uf":"SP"},"geometry":{"type":"Point","coordinates":[-48.32,-24.52]}},{"type":"Feature","properties":{"id":"3530003","nome":"Mira Estrela","uf":"SP"},"geometry":{"type":"Point","coordinates":[-47.69,-24.34]}},{"type":"Feature","properties":{"id":"3530102","nome":"Mirandópolis","uf":"SP"},"geometry":{"type":"Point","coordinates":[-47.06,-24.16]}},{"type":"Feature","properties":{"id":"3530201","nome":"Mirante do Paranapanema","uf":"SP"},"geometry":{"type":"Point","coordinates":[-46.43,-23.98]}},{"type":"Feature","properties":{"id":"3530300","nome":"Mirassol","uf":"SP"},"geometry":{"type":"Point","coordinates":[-45.8,-23.8]}},{"type":"Feature","properties":{"id":"3530409","nome":"Mirassolândia","uf":"SP"},"geometry":{"type":"Point","coordinates":[-45.17,-23.62]}},{"type":"Feature","properties":{"id":"3530508","nome":"Mococa","uf":"SP"},"geometry":{"type":"Point","coordinates":[-44.54,-23.44]}},{"type":"Feature","properties":{"id":"3530607","nome":"Mogi das Cruzes","uf":"SP"},"geometry":{"type":"Point","coordinates":[-52.91,-23.26]}},{"type":"Feature","properties":{"id":"3530706","nome":"Mogi Guaçu","uf":"SP"},"geometry":{"type":"Point","coordinates":[-52.28,-23.08]}},{"type":"Feature","properties":{"id":"3530805","nome":"Mogi Mirim","uf":"SP"},"geometry":{"type":"Point","coordinates":[-51.65,-22.9]}},{"type":"Feature","properties":{"id":"3530904","nome":"Mombuca","uf":"SP"},"geometry":{"type":"Point","coordinates":[-51.02,-22.72]}},{"type":"Feature","properties":{"id":"3531001","nome":"Monções","uf":"SP"},"geometry":{"type":"Point","coordinates":[-50.39,-22.54]}},{"type":"Feature","properties":{"id":"3531100","nome":"Mongaguá","uf":"SP"},"geometry":{"type":"Point","coordinates":[-49.76,-22.36]}},{"type":"Feature","properties":{"id":"3531209","nome":"Monte Alegre do Sul","uf":"SP"},"geometry":{"type":"Point","coordinates":[-49.13,-22.18]}},{"type":"Feature","properties":{"id":"3531308","nome":"Monte Alto","uf":"SP"},"geometry":{"type":"Point","coordinates":[-48.5,-22]}},{"type":"Feature","properties":{"id":"3531407","nome":"Monte Aprazível","uf":"SP"},"geometry":{"type":"Point","coordinates":[-47.87,-21.82]}},{"type":"Feature","properties":{"id":"3531506","nome":"Monte Azul Paulista","uf":"SP"},"geometry":{"type":"Point","coordinates":[-47.24,-21.64]}},{"type":"Feature","properties":{"id":"3531605","nome":"Monte Castelo","uf":"SP"},"geometry":{"type":"Point","coordinates":[-46.61,-21.46]}},{"type":"Feature","properties":{"id":"3531704","nome":"Monteiro Lobato","uf":"SP"},"geometry":{"type":"Point","coordinates":[-45.980000000000004,-21.28]}},{"type":"Feature","properties":{"id":"3531803","nome":"Monte Mor","uf":"SP"},"geometry":{"type":"Point","coordinates":[-45.35,-21.1]}},{"type":"Feature","properties":{"id":"3531902","nome":"Morro Agudo","uf":"SP"},"geometry":{"type":"Point","coordinates":[-44.72,-20.92]}},{"type":"Feature","properties":{"id":"3532009","nome":"Morungaba","uf":"SP"},"geometry":{"type":"Point","coordinates":[-44.09,-20.740000000000002]}},{"type":"Feature","properties":{"id":"3532058","nome":"Motuca","uf":"SP"},"geometry":{"type":"Point","coordinates":[-52.46,-20.560000000000002]}},{"type":"Feature","properties":{"id":"3532108","nome":"Murutinga do Sul","uf":"SP"},"geometry":{"type":"Point","coordinates":[-51.83,-20.38]}},{"type":"Feature","properties":{"id":"3532157","nome":"Nantes","uf":"SP"},"geometry":{"type":"Point","coordinates":[-51.2,-20.2]}},{"type":"Feature","properties":{"id":"3532207","nome":"Narandiba","uf":"SP"},"geometry":{"type":"Point","coordinates":[-50.57,-20.02]}},{"type":"Feature","properties":{"id":"3532306","nome":"Natividade da Serra","uf":"SP"},"geometry":{"type":"Point","coordinates":[-49.94,-19.84]}},{"type":"Feature","properties":{"id":"3532405","nome":"Nazaré Paulista","uf":"SP"},"geometry":{"type":"Point","coordinates":[-49.31,-19.66]}},{"type":"Feature","properties":{"id":"3532504","nome":"Neves Paulista","uf":"SP"},"geometry":{"type":"Point","coordinates":[-48.68,-19.48]}},{"type":"Feature","properties":{"id":"3532603","nome":"Nhandeara","uf":"SP"},"geometry":{"type":"Point","coordinates":[-48.05,-19.3]}},{"type":"Feature","properties":{"id":"3532702","nome":"Nipoã","uf":"SP"},"geometry":{"type":"Point","coordinates":[-47.42,-19.12]}},{"type":"Feature","properties":{"id":"3532801","nome":"Nova Aliança","uf":"SP"},"geometry":{"type":"Point","coordinates":[-46.79,-24.94]}},{"type":"Feature","properties":{"id":"3532827","nome":"Nova Campina","uf":"SP"},"geometry":{"type":"Point","coordinates":[-46.16,-24.76]}},{"type":"Feature","properties":{"id":"3532843","nome":"Nova Canaã Paulista","uf":"SP"},"geometry":{"type":"Point","coordinates":[-45.53,-24.58]}},{"type":"Feature","properties":{"id":"3532868","nome":"Nova Castilho","uf":"SP"},"geometry":{"type":"Point","coordinates":[-44.9,-24.4]}},{"type":"Feature","properties":{"id":"3532900","nome":"Nova Europa","uf":"SP"},"geometry":{"type":"Point","coordinates":[-44.269999999999996,-24.22]}},{"type":"Feature","properties":{"id":"3533007","nome":"Nova Granada","uf":"SP"},"geometry":{"type":"Point","coordinates":[-52.64,-24.04]}},{"type":"Feature","properties":{"id":"3533106","nome":"Nova Guataporanga","uf":"SP"},"geometry":{"type":"Point","coordinates":[-52.01,-23.86]}},{"type":"Feature","properties":{"id":"3533205","nome":"Nova Independência","uf":"SP"},"geometry":{"type":"Point","coordinates":[-51.38,-23.68]}},{"type":"Feature","properties":{"id":"3533254","nome":"Novais","uf":"SP"},"geometry":{"type":"Point","coordinates":[-50.75,-23.5]}},{"type":"Feature","properties":{"id":"3533304","nome":"Nova Luzitânia","uf":"SP"},"geometry":{"type":"Point","coordinates":[-50.12,-23.32]}},{"type":"Feature","properties":{"id":"3533403","nome":"Nova Odessa","uf":"SP"},"geometry":{"type":"Point","coordinates":[-49.49,-23.14]}},{"type":"Feature","properties":{"id":"3533502","nome":"Novo Horizonte","uf":"SP"},"geometry":{"type":"Point","coordinates":[-48.86,-22.96]}},{"type":"Feature","properties":{"id":"3533601","nome":"Nuporanga","uf":"SP"},"geometry":{"type":"Point","coordinates":[-48.230000000000004,-22.78]}},{"type":"Feature","properties":{"id":"3533700","nome":"Ocauçu","uf":"SP"},"geometry":{"type":"Point","coordinates":[-47.6,-22.6]}},{"type":"Feature","properties":{"id":"3533809","nome":"Óleo","uf":"SP"},"geometry":{"type":"Point","coordinates":[-46.97,-22.42]}},{"type":"Feature","properties":{"id":"3533908","nome":"Olímpia","uf":"SP"},"geometry":{"type":"Point","coordinates":[-46.34,-22.240000000000002]}},{"type":"Feature","properties":{"id":"3534005","nome":"Onda Verde","uf":"SP"},"geometry":{"type":"Point","coordinates":[-45.71,-22.06]}},{"type":"Feature","properties":{"id":"3534104","nome":"Oriente","uf":"SP"},"geometry":{"type":"Point","coordinates":[-45.08,-21.88]}},{"type":"Feature","properties":{"id":"3534203","nome":"Orindiúva","uf":"SP"},"geometry":{"type":"Point","coordinates":[-44.45,-21.7]}},{"type":"Feature","properties":{"id":"3534302","nome":"Orlândia","uf":"SP"},"geometry":{"type":"Point","coordinates":[-52.82,-21.52]}},{"type":"Feature","properties":{"id":"3534401","nome":"Osasco","uf":"SP"},"geometry":{"type":"Point","coordinates":[-52.19,-21.34]}},{"type":"Feature","properties":{"id":"3534500","nome":"Oscar Bressane","uf":"SP"},"geometry":{"type":"Point","coordinates":[-51.56,-21.16]}},{"type":"Feature","properties":{"id":"3534609","nome":"Osvaldo Cruz","uf":"SP"},"geometry":{"type":"Point","coordinates":[-50.93,-20.98]}},{"type":"Feature","properties":{"id":"3534708","nome":"Ourinhos","uf":"SP"},"geometry":{"type":"Point","coordinates":[-50.3,-20.8]}},{"type":"Feature","properties":{"id":"3534757","nome":"Ouroeste","uf":"SP"},"geometry":{"type":"Point","coordinates":[-49.67,-20.62]}},{"type":"Feature","properties":{"id":"3534807","nome":"Ouro Verde","uf":"SP"},"geometry":{"type":"Point","coordinates":[-49.04,-20.44]}},{"type":"Feature","properties":{"id":"3534906","nome":"Pacaembu","uf":"SP"},"geometry":{"type":"Point","coordinates":[-48.41,-20.259999999999998]}},{"type":"Feature","properties":{"id":"3535002","nome":"Palestina","uf":"SP"},"geometry":{"type":"Point","coordinates":[-47.78,-20.08]}},{"type":"Feature","properties":{"id":"3535101","nome":"Palmares Paulista","uf":"SP"},"geometry":{"type":"Point","coordinates":[-47.15,-19.9]}},{"type":"Feature","properties":{"id":"3535200","nome":"Palmeira d'Oeste","uf":"SP"},"geometry":{"type":"Point","coordinates":[-46.52,-19.72]}},{"type":"Feature","properties":{"id":"3535309","nome":"Palmital","uf":"SP"},"geometry":{"type":"Point","coordinates":[-45.89,-19.54]}},{"type":"Feature","properties":{"id":"3535408","nome":"Panorama","uf":"SP"},"geometry":{"type":"Point","coordinates":[-45.26,-19.36]}},{"type":"Feature","properties":{"id":"3535507","nome":"Paraguaçu Paulista","uf":"SP"},"geometry":{"type":"Point","coordinates":[-44.63,-19.18]}},{"type":"Feature","properties":{"id":"3535606","nome":"Paraibuna","uf":"SP"},"geometry":{"type":"Point","coordinates":[-53,-25]}},{"type":"Feature","properties":{"id":"3535705","nome":"Paraíso","uf":"SP"},"geometry":{"type":"Point","coordinates":[-52.37,-24.82]}},{"type":"Feature","properties":{"id":"3535804","nome":"Paranapanema","uf":"SP"},"geometry":{"type":"Point","coordinates":[-51.74,-24.64]}},{"type":"Feature","properties":{"id":"3535903","nome":"Paranapuã","uf":"SP"},"geometry":{"type":"Point","coordinates":[-51.11,-24.46]}},{"type":"Feature","properties":{"id":"3536000","nome":"Parapuã","uf":"SP"},"geometry":{"type":"Point","coordinates":[-50.48,-24.28]}},{"type":"Feature","properties":{"id":"3536109","nome":"Pardinho","uf":"SP"},"geometry":{"type":"Point","coordinates":[-49.85,-24.1]}},{"type":"Feature","properties":{"id":"3536208","nome":"Pariquera-Açu","uf":"SP"},"geometry":{"type":"Point","coordinates":[-49.22,-23.92]}},{"type":"Feature","properties":{"id":"3536257","nome":"Parisi","uf":"SP"},"geometry":{"type":"Point","coordinates":[-48.59,-23.74]}},{"type":"Feature","properties":{"id":"3536307","nome":"Patrocínio Paulista","uf":"SP"},"geometry":{"type":"Point","coordinates":[-47.96,-23.56]}},{"type":"Feature","properties":{"id":"3536406","nome":"Paulicéia","uf":"SP"},"geometry":{"type":"Point","coordinates":[-47.33,-23.38]}},{"type":"Feature","properties":{"id":"3536505","nome":"Paulínia","uf":"SP"},"geometry":{"type":"Point","coordinates":[-46.7,-23.2]}},{"type":"Feature","properties":{"id":"3536570","nome":"Paulistânia","uf":"SP"},"geometry":{"type":"Point","coordinates":[-46.07,-23.02]}},{"type":"Feature","properties":{"id":"3536604","nome":"Paulo de Faria","uf":"SP"},"geometry":{"type":"Point","coordinates":[-45.44,-22.84]}},{"type":"Feature","properties":{"id":"3536703","nome":"Pederneiras","uf":"SP"},"geometry":{"type":"Point","coordinates":[-44.81,-22.66]}},{"type":"Feature","properties":{"id":"3536802","nome":"Pedra Bela","uf":"SP"},"geometry":{"type":"Point","coordinates":[-44.18,-22.48]}},{"type":"Feature","properties":{"id":"3536901","nome":"Pedranópolis","uf":"SP"},"geometry":{"type":"Point","coordinates":[-52.55,-22.3]}},{"type":"Feature","properties":{"id":"3537008","nome":"Pedregulho","uf":"SP"},"geometry":{"type":"Point","coordinates":[-51.92,-22.12]}},{"type":"Feature","properties":{"id":"3537107","nome":"Pedreira","uf":"SP"},"geometry":{"type":"Point","coordinates":[-51.29,-21.94]}},{"type":"Feature","properties":{"id":"3537156","nome":"Pedrinhas Paulista","uf":"SP"},"geometry":{"type":"Point","coordinates":[-50.66,-21.76]}},{"type":"Feature","properties":{"id":"3537206","nome":"Pedro de Toledo","uf":"SP"},"geometry":{"type":"Point","coordinates":[-50.03,-21.58]}},{"type":"Feature","properties":{"id":"3537305","nome":"Penápolis","uf":"SP"},"geometry":{"type":"Point","coordinates":[-49.4,-21.4]}},{"type":"Feature","properties":{"id":"3537404","nome":"Pereira Barreto","uf":"SP"},"geometry":{"type":"Point","coordinates":[-48.77,-21.22]}},{"type":"Feature","properties":{"id":"3537503","nome":"Pereiras","uf":"SP"},"geometry":{"type":"Point","coordinates":[-48.14,-21.04]}},{"type":"Feature","properties":{"id":"3537602","nome":"Peruíbe","uf":"SP"},"geometry":{"type":"Point","coordinates":[-47.51,-20.86]}},{"type":"Feature","properties":{"id":"3537701","nome":"Piacatu","uf":"SP"},"geometry":{"type":"Point","coordinates":[-46.88,-20.68]}},{"type":"Feature","properties":{"id":"3537800","nome":"Piedade","uf":"SP"},"geometry":{"type":"Point","coordinates":[-46.25,-20.5]}},{"type":"Feature","properties":{"id":"3537909","nome":"Pilar do Sul","uf":"SP"},"geometry":{"type":"Point","coordinates":[-45.62,-20.32]}},{"type":"Feature","properties":{"id":"3538006","nome":"Pindamonhangaba","uf":"SP"},"geometry":{"type":"Point","coordinates":[-44.99,-20.14]}},{"type":"Feature","properties":{"id":"3538105","nome":"Pindorama","uf":"SP"},"geometry":{"type":"Point","coordinates":[-44.36,-19.96]}},{"type":"Feature","properties":{"id":"3538204","nome":"Pinhalzinho","uf":"SP"},"geometry":{"type":"Point","coordinates":[-52.73,-19.78]}},{"type":"Feature","properties":{"id":"3538303","nome":"Piquerobi","uf":"SP"},"geometry":{"type":"Point","coordinates":[-52.1,-19.6]}},{"type":"Feature","properties":{"id":"3538501","nome":"Piquete","uf":"SP"},"geometry":{"type":"Point","coordinates":[-51.47,-19.42]}},{"type":"Feature","properties":{"id":"3538600","nome":"Piracaia","uf":"SP"},"geometry":{"type":"Point","coordinates":[-50.84,-19.240000000000002]}},{"type":"Feature","properties":{"id":"3538709","nome":"Piracicaba","uf":"SP"},"geometry":{"type":"Point","coordinates":[-50.21,-19.060000000000002]}},{"type":"Feature","properties":{"id":"3538808","nome":"Piraju","uf":"SP"},"geometry":{"type":"Point","coordinates":[-49.58,-24.88]}},{"type":"Feature","properties":{"id":"3538907","nome":"Pirajuí","uf":"SP"},"geometry":{"type":"Point","coordinates":[-48.95,-24.7]}},{"type":"Feature","properties":{"id":"3539004","nome":"Pirangi","uf":"SP"},"geometry":{"type":"Point","coordinates":[-48.32,-24.52]}},{"type":"Feature","properties":{"id":"3539103","nome":"Pirapora do Bom Jesus","uf":"SP"},"geometry":{"type":"Point","coordinates":[-47.69,-24.34]}},{"type":"Feature","properties":{"id":"3539202","nome":"Pirapozinho","uf":"SP"},"geometry":{"type":"Point","coordinates":[-47.06,-24.16]}},{"type":"Feature","properties":{"id":"3539301","nome":"Pirassununga","uf":"SP"},"geometry":{"type":"Point","coordinates":[-46.43,-23.98]}},{"type":"Feature","properties":{"id":"3539400","nome":"Piratininga","uf":"SP"},"geometry":{"type":"Point","coordinates":[-45.8,-23.8]}},{"type":"Feature","properties":{"id":"3539509","nome":"Pitangueiras","uf":"SP"},"geometry":{"type":"Point","coordinates":[-45.17,-23.62]}},{"type":"Feature","properties":{"id":"3539608","nome":"Planalto","uf":"SP"},"geometry":{"type":"Point","coordinates":[-44.54,-23.44]}},{"type":"Feature","properties":{"id":"3539707","nome":"Platina","uf":"SP"},"geometry":{"type":"Point","coordinates":[-52.91,-23.26]}},{"type":"Feature","properties":{"id":"3539806","nome":"Poá","uf":"SP"},"geometry":{"type":"Point","coordinates":[-52.28,-23.08]}},{"type":"Feature","properties":{"id":"3539905","nome":"Poloni","uf":"SP"},"geometry":{"type":"Point","coordinates":[-51.65,-22.9]}},{"type":"Feature","properties":{"id":"3540002","nome":"Pompéia","uf":"SP"},"geometry":{"type":"Point","coordinates":[-51.02,-22.72]}},{"type":"Feature","properties":{"id":"3540101","nome":"Pongaí","uf":"SP"},"geometry":{"type":"Point","coordinates":[-50.39,-22.54]}},{"type":"Feature","properties":{"id":"3540200","nome":"Pontal","uf":"SP"},"geometry":{"type":"Point","coordinates":[-49.76,-22.36]}},{"type":"Feature","properties":{"id":"3540259","nome":"Pontalinda","uf":"SP"},"geometry":{"type":"Point","coordinates":[-49.13,-22.18]}},{"type":"Feature","properties":{"id":"3540309","nome":"Pontes Gestal","uf":"SP"},"geometry":{"type":"Point","coordinates":[-48.5,-22]}},{"type":"Feature","properties":{"id":"3540408","nome":"Populina","uf":"SP"},"geometry":{"type":"Point","coordinates":[-47.87,-21.82]}},{"type":"Feature","properties":{"id":"3540507","nome":"Porangaba","uf":"SP"},"geometry":{"type":"Point","coordinates":[-47.24,-21.64]}},{"type":"Feature","properties":{"id":"3540606","nome":"Porto Feliz","uf":"SP"},"geometry":{"type":"Point","coordinates":[-46.61,-21.46]}},{"type":"Feature","properties":{"id":"3540705","nome":"Porto Ferreira","uf":"SP"},"geometry":{"type":"Point","coordinates":[-45.980000000000004,-21.28]}},{"type":"Feature","properties":{"id":"3540754","nome":"Potim","uf":"SP"},"geometry":{"type":"Point","coordinates":[-45.35,-21.1]}},{"type":"Feature","properties":{"id":"3540804","nome":"Potirendaba","uf":"SP"},"geometry":{"type":"Point","coordinates":[-44.72,-20.92]}},{"type":"Feature","properties":{"id":"3540853","nome":"Pracinha","uf":"SP"},"geometry":{"type":"Point","coordinates":[-44.09,-20.740000000000002]}},{"type":"Feature","properties":{"id":"3540903","nome":"Pradópolis","uf":"SP"},"geometry":{"type":"Point","coordinates":[-52.46,-20.560000000000002]}},{"type":"Feature","properties":{"id":"3541000","nome":"Praia Grande","uf":"SP"},"geometry":{"type":"Point","coordinates":[-51.83,-20.38]}},{"type":"Feature","properties":{"id":"3541059","nome":"Pratânia","uf":"SP"},"geometry":{"type":"Point","coordinates":[-51.2,-20.2]}},{"type":"Feature","properties":{"id":"3541109","nome":"Presidente Alves","uf":"SP"},"geometry":{"type":"Point","coordinates":[-50.57,-20.02]}},{"type":"Feature","properties":{"id":"3541208","nome":"Presidente Bernardes","uf":"SP"},"geometry":{"type":"Point","coordinates":[-49.94,-19.84]}},{"type":"Feature","properties":{"id":"3541307","nome":"Presidente Epitácio","uf":"SP"},"geometry":{"type":"Point","coordinates":[-49.31,-19.66]}},{"type":"Feature","properties":{"id":"3541406","nome":"Presidente Prudente","uf":"SP"},"geometry":{"type":"Point","coordinates":[-48.68,-19.48]}},{"type":"Feature","properties":{"id":"3541505","nome":"Presidente Venceslau","uf":"SP"},"geometry":{"type":"Point","coordinates":[-48.05,-19.3]}},{"type":"Feature","properties":{"id":"3541604","nome":"Promissão","uf":"SP"},"geometry":{"type":"Point","coordinates":[-47.42,-19.12]}},{"type":"Feature","properties":{"id":"3541653","nome":"Quadra","uf":"SP"},"geometry":{"type":"Point","coordinates":[-46.79,-24.94]}},{"type":"Feature","properties":{"id":"3541703","nome":"Quatá","uf":"SP"},"geometry":{"type":"Point","coordinates":[-46.16,-24.76]}},{"type":"Feature","properties":{"id":"3541802","nome":"Queiroz","uf":"SP"},"geometry":{"type":"Point","coordinates":[-45.53,-24.58]}},{"type":"Feature","properties":{"id":"3541901","nome":"Queluz","uf":"SP"},"geometry":{"type":"Point","coordinates":[-44.9,-24.4]}},{"type":"Feature","properties":{"id":"3542008","nome":"Quintana","uf":"SP"},"geometry":{"type":"Point","coordinates":[-44.269999999999996,-24.22]}},{"type":"Feature","properties":{"id":"3542107","nome":"Rafard","uf":"SP"},"geometry":{"type":"Point","coordinates":[-52.64,-24.04]}},{"type":"Feature","properties":{"id":"3542206","nome":"Rancharia","uf":"SP"},"geometry":{"type":"Point","coordinates":[-52.01,-23.86]}},{"type":"Feature","properties":{"id":"3542305","nome":"Redenção da Serra","uf":"SP"},"geometry":{"type":"Point","coordinates":[-51.38,-23.68]}},{"type":"Feature","properties":{"id":"3542404","nome":"Regente Feijó","uf":"SP"},"geometry":{"type":"Point","coordinates":[-50.75,-23.5]}},{"type":"Feature","properties":{"id":"3542503","nome":"Reginópolis","uf":"SP"},"geometry":{"type":"Point","coordinates":[-50.12,-23.32]}},{"type":"Feature","properties":{"id":"3542602","nome":"Registro","uf":"SP"},"geometry":{"type":"Point","coordinates":[-49.49,-23.14]}},{"type":"Feature","properties":{"id":"3542701","nome":"Restinga","uf":"SP"},"geometry":{"type":"Point","coordinates":[-48.86,-22.96]}},{"type":"Feature","properties":{"id":"3542800","nome":"Ribeira","uf":"SP"},"geometry":{"type":"Point","coordinates":[-48.230000000000004,-22.78]}},{"type":"Feature","properties":{"id":"3542909","nome":"Ribeirão Bonito","uf":"SP"},"geometry":{"type":"Point","coordinates":[-47.6,-22.6]}},{"type":"Feature","properties":{"id":"3543006","nome":"Ribeirão Branco","uf":"SP"},"geometry":{"type":"Point","coordinates":[-46.97,-22.42]}},{"type":"Feature","properties":{"id":"3543105","nome":"Ribeirão Corrente","uf":"SP"},"geometry":{"type":"Point","coordinates":[-46.34,-22.240000000000002]}},{"type":"Feature","properties":{"id":"3543204","nome":"Ribeirão do Sul","uf":"SP"},"geometry":{"type":"Point","coordinates":[-45.71,-22.06]}},{"type":"Feature","properties":{"id":"3543238","nome":"Ribeirão dos Índios","uf":"SP"},"geometry":{"type":"Point","coordinates":[-45.08,-21.88]}},{"type":"Feature","properties":{"id":"3543253","nome":"Ribeirão Grande","uf":"SP"},"geometry":{"type":"Point","coordinates":[-44.45,-21.7]}},{"type":"Feature","properties":{"id":"3543303","nome":"Ribeirão Pires","uf":"SP"},"geometry":{"type":"Point","coordinates":[-52.82,-21.52]}},{"type":"Feature","properties":{"id":"3543402","nome":"Ribeirão Preto","uf":"SP"},"geometry":{"type":"Point","coordinates":[-52.19,-21.34]}},{"type":"Feature","properties":{"id":"3543501","nome":"Riversul","uf":"SP"},"geometry":{"type":"Point","coordinates":[-51.56,-21.16]}},{"type":"Feature","properties":{"id":"3543600","nome":"Rifaina","uf":"SP"},"geometry":{"type":"Point","coordinates":[-50.93,-20.98]}},{"type":"Feature","properties":{"id":"3543709","nome":"Rincão","uf":"SP"},"geometry":{"type":"Point","coordinates":[-50.3,-20.8]}},{"type":"Feature","properties":{"id":"3543808","nome":"Rinópolis","uf":"SP"},"geometry":{"type":"Point","coordinates":[-49.67,-20.62]}},{"type":"Feature","properties":{"id":"3543907","nome":"Rio Claro","uf":"SP"},"geometry":{"type":"Point","coordinates":[-49.04,-20.44]}},{"type":"Feature","properties":{"id":"3544004","nome":"Rio das Pedras","uf":"SP"},"geometry":{"type":"Point","coordinates":[-48.41,-20.259999999999998]}},{"type":"Feature","properties":{"id":"3544103","nome":"Rio Grande da Serra","uf":"SP"},"geometry":{"type":"Point","coordinates":[-47.78,-20.08]}},{"type":"Feature","properties":{"id":"3544202","nome":"Riolândia","uf":"SP"},"geometry":{"type":"Point","coordinates":[-47.15,-19.9]}},{"type":"Feature","properties":{"id":"3544251","nome":"Rosana","uf":"SP"},"geometry":{"type":"Point","coordinates":[-46.52,-19.72]}},{"type":"Feature","properties":{"id":"3544301","nome":"Roseira","uf":"SP"},"geometry":{"type":"Point","coordinates":[-45.89,-19.54]}},{"type":"Feature","properties":{"id":"3544400","nome":"Rubiácea","uf":"SP"},"geometry":{"type":"Point","coordinates":[-45.26,-19.36]}},{"type":"Feature","properties":{"id":"3544509","nome":"Rubinéia","uf":"SP"},"geometry":{"type":"Point","coordinates":[-44.63,-19.18]}},{"type":"Feature","properties":{"id":"3544608","nome":"Sabino","uf":"SP"},"geometry":{"type":"Point","coordinates":[-53,-25]}},{"type":"Feature","properties":{"id":"3544707","nome":"Sagres","uf":"SP"},"geometry":{"type":"Point","coordinates":[-52.37,-24.82]}},{"type":"Feature","properties":{"id":"3544806","nome":"Sales","uf":"SP"},"geometry":{"type":"Point","coordinates":[-51.74,-24.64]}},{"type":"Feature","properties":{"id":"3544905","nome":"Sales Oliveira","uf":"SP"},"geometry":{"type":"Point","coordinates":[-51.11,-24.46]}},{"type":"Feature","properties":{"id":"3545001","nome":"Salesópolis","uf":"SP"},"geometry":{"type":"Point","coordinates":[-50.48,-24.28]}},{"type":"Feature","properties":{"id":"3545100","nome":"Salmourão","uf":"SP"},"geometry":{"type":"Point","coordinates":[-49.85,-24.1]}},{"type":"Feature","properties":{"id":"3545159","nome":"Saltinho","uf":"SP"},"geometry":{"type":"Point","coordinates":[-49.22,-23.92]}},{"type":"Feature","properties":{"id":"3545209","nome":"Salto","uf":"SP"},"geometry":{"type":"Point","coordinates":[-48.59,-23.74]}},{"type":"Feature","properties":{"id":"3545308","nome":"Salto de Pirapora","uf":"SP"},"geometry":{"type":"Point","coordinates":[-47.96,-23.56]}},{"type":"Feature","properties":{"id":"3545407","nome":"Salto Grande","uf":"SP"},"geometry":{"type":"Point","coordinates":[-47.33,-23.38]}},{"type":"Feature","properties":{"id":"3545506","nome":"Sandovalina","uf":"SP"},"geometry":{"type":"Point","coordinates":[-46.7,-23.2]}},{"type":"Feature","properties":{"id":"3545605","nome":"Santa Adélia","uf":"SP"},"geometry":{"type":"Point","coordinates":[-46.07,-23.02]}},{"type":"Feature","properties":{"id":"3545704","nome":"Santa Albertina","uf":"SP"},"geometry":{"type":"Point","coordinates":[-45.44,-22.84]}},{"type":"Feature","properties":{"id":"3545803","nome":"Santa Bárbara d'Oeste","uf":"SP"},"geometry":{"type":"Point","coordinates":[-44.81,-22.66]}},{"type":"Feature","properties":{"id":"3546009","nome":"Santa Branca","uf":"SP"},"geometry":{"type":"Point","coordinates":[-44.18,-22.48]}},{"type":"Feature","properties":{"id":"3546108","nome":"Santa Clara d'Oeste","uf":"SP"},"geometry":{"type":"Point","coordinates":[-52.55,-22.3]}},{"type":"Feature","properties":{"id":"3546207","nome":"Santa Cruz da Conceição","uf":"SP"},"geometry":{"type":"Point","coordinates":[-51.92,-22.12]}},{"type":"Feature","properties":{"id":"3546256","nome":"Santa Cruz da Esperança","uf":"SP"},"geometry":{"type":"Point","coordinates":[-51.29,-21.94]}},{"type":"Feature","properties":{"id":"3546306","nome":"Santa Cruz das Palmeiras","uf":"SP"},"geometry":{"type":"Point","coordinates":[-50.66,-21.76]}},{"type":"Feature","properties":{"id":"3546405","nome":"Santa Cruz do Rio Pardo","uf":"SP"},"geometry":{"type":"Point","coordinates":[-50.03,-21.58]}},{"type":"Feature","properties":{"id":"3546504","nome":"Santa Ernestina","uf":"SP"},"geometry":{"type":"Point","coordinates":[-49.4,-21.4]}},{"type":"Feature","properties":{"id":"3546603","nome":"Santa Fé do Sul","uf":"SP"},"geometry":{"type":"Point","coordinates":[-48.77,-21.22]}},{"type":"Feature","properties":{"id":"3546702","nome":"Santa Gertrudes","uf":"SP"},"geometry":{"type":"Point","coordinates":[-48.14,-21.04]}},{"type":"Feature","properties":{"id":"3546801","nome":"Santa Isabel","uf":"SP"},"geometry":{"type":"Point","coordinates":[-47.51,-20.86]}},{"type":"Feature","properties":{"id":"3546900","nome":"Santa Lúcia","uf":"SP"},"geometry":{"type":"Point","coordinates":[-46.88,-20.68]}},{"type":"Feature","properties":{"id":"3547007","nome":"Santa Maria da Serra","uf":"SP"},"geometry":{"type":"Point","coordinates":[-46.25,-20.5]}},{"type":"Feature","properties":{"id":"3547106","nome":"Santa Mercedes","uf":"SP"},"geometry":{"type":"Point","coordinates":[-45.62,-20.32]}},{"type":"Feature","properties":{"id":"3547205","nome":"Santana da Ponte Pensa","uf":"SP"},"geometry":{"type":"Point","coordinates":[-44.99,-20.14]}},{"type":"Feature","properties":{"id":"3547304","nome":"Santana de Parnaíba","uf":"SP"},"geometry":{"type":"Point","coordinates":[-44.36,-19.96]}},{"type":"Feature","properties":{"id":"3547403","nome":"Santa Rita d'Oeste","uf":"SP"},"geometry":{"type":"Point","coordinates":[-52.73,-19.78]}},{"type":"Feature","properties":{"id":"3547502","nome":"Santa Rita do Passa Quatro","uf":"SP"},"geometry":{"type":"Point","coordinates":[-52.1,-19.6]}},{"type":"Feature","properties":{"id":"3547601","nome":"Santa Rosa de Viterbo","uf":"SP"},"geometry":{"type":"Point","coordinates":[-51.47,-19.42]}},{"type":"Feature","properties":{"id":"3547650","nome":"Santa Salete","uf":"SP"},"geometry":{"type":"Point","coordinates":[-50.84,-19.240000000000002]}},{"type":"Feature","properties":{"id":"3547700","nome":"Santo Anastácio","uf":"SP"},"geometry":{"type":"Point","coordinates":[-50.21,-19.060000000000002]}},{"type":"Feature","properties":{"id":"3547809","nome":"Santo André","uf":"SP"},"geometry":{"type":"Point","coordinates":[-49.58,-24.88]}},{"type":"Feature","properties":{"id":"3547908","nome":"Santo Antônio da Alegria","uf":"SP"},"geometry":{"type":"Point","coordinates":[-48.95,-24.7]}},{"type":"Feature","properties":{"id":"3548005","nome":"Santo Antônio de Posse","uf":"SP"},"geometry":{"type":"Point","coordinates":[-48.32,-24.52]}},{"type":"Feature","properties":{"id":"3548054","nome":"Santo Antônio do Aracanguá","uf":"SP"},"geometry":{"type":"Point","coordinates":[-47.69,-24.34]}},{"type":"Feature","properties":{"id":"3548104","nome":"Santo Antônio do Jardim","uf":"SP"},"geometry":{"type":"Point","coordinates":[-47.06,-24.16]}},{"type":"Feature","properties":{"id":"3548203","nome":"Santo Antônio do Pinhal","uf":"SP"},"geometry":{"type":"Point","coordinates":[-46.43,-23.98]}},{"type":"Feature","properties":{"id":"3548302","nome":"Santo Expedito","uf":"SP"},"geometry":{"type":"Point","coordinates":[-45.8,-23.8]}},{"type":"Feature","properties":{"id":"3548401","nome":"Santópolis do Aguapeí","uf":"SP"},"geometry":{"type":"Point","coordinates":[-45.17,-23.62]}},{"type":"Feature","properties":{"id":"3548500","nome":"Santos","uf":"SP"},"geometry":{"type":"Point","coordinates":[-44.54,-23.44]}},{"type":"Feature","properties":{"id":"3548609","nome":"São Bento do Sapucaí","uf":"SP"},"geometry":{"type":"Point","coordinates":[-52.91,-23.26]}},{"type":"Feature","properties":{"id":"3548708","nome":"São Bernardo do Campo","uf":"SP"},"geometry":{"type":"Point","coordinates":[-52.28,-23.08]}},{"type":"Feature","properties":{"id":"3548807","nome":"São Caetano do Sul","uf":"SP"},"geometry":{"type":"Point","coordinates":[-51.65,-22.9]}},{"type":"Feature","properties":{"id":"3548906","nome":"São Carlos","uf":"SP"},"geometry":{"type":"Point","coordinates":[-51.02,-22.72]}},{"type":"Feature","properties":{"id":"3549003","nome":"São Francisco","uf":"SP"},"geometry":{"type":"Point","coordinates":[-50.39,-22.54]}},{"type":"Feature","properties":{"id":"3549102","nome":"São João da Boa Vista","uf":"SP"},"geometry":{"type":"Point","coordinates":[-49.76,-22.36]}},{"type":"Feature","properties":{"id":"3549201","nome":"São João das Duas Pontes","uf":"SP"},"geometry":{"type":"Point","coordinates":[-49.13,-22.18]}},{"type":"Feature","properties":{"id":"3549250","nome":"São João de Iracema","uf":"SP"},"geometry":{"type":"Point","coordinates":[-48.5,-22]}},{"type":"Feature","properties":{"id":"3549300","nome":"São João do Pau d'Alho","uf":"SP"},"geometry":{"type":"Point","coordinates":[-47.87,-21.82]}},{"type":"Feature","properties":{"id":"3549409","nome":"São Joaquim da Barra","uf":"SP"},"geometry":{"type":"Point","coordinates":[-47.24,-21.64]}},{"type":"Feature","properties":{"id":"3549508","nome":"São José da Bela Vista","uf":"SP"},"geometry":{"type":"Point","coordinates":[-46.61,-21.46]}},{"type":"Feature","properties":{"id":"3549607","nome":"São José do Barreiro","uf":"SP"},"geometry":{"type":"Point","coordinates":[-45.980000000000004,-21.28]}},{"type":"Feature","properties":{"id":"3549706","nome":"São José do Rio Pardo","uf":"SP"},"geometry":{"type":"Point","coordinates":[-45.35,-21.1]}},{"type":"Feature","properties":{"id":"3549805","nome":"São José do Rio Preto","uf":"SP"},"geometry":{"type":"Point","coordinates":[-44.72,-20.92]}},{"type":"Feature","properties":{"id":"3549904","nome":"São José dos Campos","uf":"SP"},"geometry":{"type":"Point","coordinates":[-44.09,-20.740000000000002]}},{"type":"Feature","properties":{"id":"3549953","nome":"São Lourenço da Serra","uf":"SP"},"geometry":{"type":"Point","coordinates":[-52.46,-20.560000000000002]}},{"type":"Feature","properties":{"id":"3550001","nome":"São Luiz do Paraitinga","uf":"SP"},"geometry":{"type":"Point","coordinates":[-51.83,-20.38]}},{"type":"Feature","properties":{"id":"3550100","nome":"São Manuel","uf":"SP"},"geometry":{"type":"Point","coordinates":[-51.2,-20.2]}},{"type":"Feature","properties":{"id":"3550209","nome":"São Miguel Arcanjo","uf":"SP"},"geometry":{"type":"Point","coordinates":[-50.57,-20.02]}},{"type":"Feature","properties":{"id":"3550308","nome":"São Paulo","uf":"SP"},"geometry":{"type":"Point","coordinates":[-49.94,-19.84]}},{"type":"Feature","properties":{"id":"3550407","nome":"São Pedro","uf":"SP"},"geometry":{"type":"Point","coordinates":[-49.31,-19.66]}},{"type":"Feature","properties":{"id":"3550506","nome":"São Pedro do Turvo","uf":"SP"},"geometry":{"type":"Point","coordinates":[-48.68,-19.48]}},{"type":"Feature","properties":{"id":"3550605","nome":"São Roque","uf":"SP"},"geometry":{"type":"Point","coordinates":[-48.05,-19.3]}},{"type":"Feature","properties":{"id":"3550704","nome":"São Sebastião","uf":"SP"},"geometry":{"type":"Point","coordinates":[-47.42,-19.12]}},{"type":"Feature","properties":{"id":"3550803","nome":"São Sebastião da Grama","uf":"SP"},"geometry":{"type":"Point","coordinates":[-46.79,-24.94]}},{"type":"Feature","properties":{"id":"3550902","nome":"São Simão","uf":"SP"},"geometry":{"type":"Point","coordinates":[-46.16,-24.76]}},{"type":"Feature","properties":{"id":"3551009","nome":"São Vicente","uf":"SP"},"geometry":{"type":"Point","coordinates":[-45.53,-24.58]}},{"type":"Feature","properties":{"id":"3551108","nome":"Sarapuí","uf":"SP"},"geometry":{"type":"Point","coordinates":[-44.9,-24.4]}},{"type":"Feature","properties":{"id":"3551207","nome":"Sarutaiá","uf":"SP"},"geometry":{"type":"Point","coordinates":[-44.269999999999996,-24.22]}},{"type":"Feature","properties":{"id":"3551306","nome":"Sebastianópolis do Sul","uf":"SP"},"geometry":{"type":"Point","coordinates":[-52.64,-24.04]}},{"type":"Feature","properties":{"id":"3551405","nome":"Serra Azul","uf":"SP"},"geometry":{"type":"Point","coordinates":[-52.01,-23.86]}},{"type":"Feature","properties":{"id":"3551504","nome":"Serrana","uf":"SP"},"geometry":{"type":"Point","coordinates":[-51.38,-23.68]}},{"type":"Feature","properties":{"id":"3551603","nome":"Serra Negra","uf":"SP"},"geometry":{"type":"Point","coordinates":[-50.75,-23.5]}},{"type":"Feature","properties":{"id":"3551702","nome":"Sertãozinho","uf":"SP"},"geometry":{"type":"Point","coordinates":[-50.12,-23.32]}},{"type":"Feature","properties":{"id":"3551801","nome":"Sete Barras","uf":"SP"},"geometry":{"type":"Point","coordinates":[-49.49,-23.14]}},{"type":"Feature","properties":{"id":"3551900","nome":"Severínia","uf":"SP"},"geometry":{"type":"Point","coordinates":[-48.86,-22.96]}},{"type":"Feature","properties":{"id":"3552007","nome":"Silveiras","uf":"SP"},"geometry":{"type":"Point","coordinates":[-48.230000000000004,-22.78]}},{"type":"Feature","properties":{"id":"3552106","nome":"Socorro","uf":"SP"},"geometry":{"type":"Point","coordinates":[-47.6,-22.6]}},{"type":"Feature","properties":{"id":"3552205","nome":"Sorocaba","uf":"SP"},"geometry":{"type":"Point","coordinates":[-46.97,-22.42]}},{"type":"Feature","properties":{"id":"3552304","nome":"Sud Mennucci","uf":"SP"},"geometry":{"type":"Point","coordinates":[-46.34,-22.240000000000002]}},{"type":"Feature","properties":{"id":"3552403","nome":"Sumaré","uf":"SP"},"geometry":{"type":"Point","coordinates":[-45.71,-22.06]}},{"type":"Feature","properties":{"id":"3552502","nome":"Suzano","uf":"SP"},"geometry":{"type":"Point","coordinates":[-45.08,-21.88]}},{"type":"Feature","properties":{"id":"3552551","nome":"Suzanápolis","uf":"SP"},"geometry":{"type":"Point","coordinates":[-44.45,-21.7]}},{"type":"Feature","properties":{"id":"3552601","nome":"Tabapuã","uf":"SP"},"geometry":{"type":"Point","coordinates":[-52.82,-21.52]}},{"type":"Feature","properties":{"id":"3552700","nome":"Tabatinga","uf":"SP"},"geometry":{"type":"Point","coordinates":[-52.19,-21.34]}},{"type":"Feature","properties":{"id":"3552809","nome":"Taboão da Serra","uf":"SP"},"geometry":{"type":"Point","coordinates":[-51.56,-21.16]}},{"type":"Feature","properties":{"id":"3552908","nome":"Taciba","uf":"SP"},"geometry":{"type":"Point","coordinates":[-50.93,-20.98]}},{"type":"Feature","properties":{"id":"3553005","nome":"Taguaí","uf":"SP"},"geometry":{"type":"Point","coordinates":[-50.3,-20.8]}},{"type":"Feature","properties":{"id":"3553104","nome":"Taiaçu","uf":"SP"},"geometry":{"type":"Point","coordinates":[-49.67,-20.62]}},{"type":"Feature","properties":{"id":"3553203","nome":"Taiúva","uf":"SP"},"geometry":{"type":"Point","coordinates":[-49.04,-20.44]}},{"type":"Feature","properties":{"id":"3553302","nome":"Tambaú","uf":"SP"},"geometry":{"type":"Point","coordinates":[-48.41,-20.259999999999998]}},{"type":"Feature","properties":{"id":"3553401","nome":"Tanabi","uf":"SP"},"geometry":{"type":"Point","coordinates":[-47.78,-20.08]}},{"type":"Feature","properties":{"id":"3553500","nome":"Tapiraí","uf":"SP"},"geometry":{"type":"Point","coordinates":[-47.15,-19.9]}},{"type":"Feature","properties":{"id":"3553609","nome":"Tapiratiba","uf":"SP"},"geometry":{"type":"Point","coordinates":[-46.52,-19.72]}},{"type":"Feature","properties":{"id":"3553658","nome":"Taquaral","uf":"SP"},"geometry":{"type":"Point","coordinates":[-45.89,-19.54]}},{"type":"Feature","properties":{"id":"3553708","nome":"Taquaritinga","uf":"SP"},"geometry":{"type":"Point","coordinates":[-45.26,-19.36]}},{"type":"Feature","properties":{"id":"3553807","nome":"Taquarituba","uf":"SP"},"geometry":{"type":"Point","coordinates":[-44.63,-19.18]}},{"type":"Feature","properties":{"id":"3553856","nome":"Taquarivaí","uf":"SP"},"geometry":{"type":"Point","coordinates":[-53,-25]}},{"type":"Feature","properties":{"id":"3553906","nome":"Tarabai","uf":"SP"},"geometry":{"type":"Point","coordinates":[-52.37,-24.82]}},{"type":"Feature","properties":{"id":"3553955","nome":"Tarumã","uf":"SP"},"geometry":{"type":"Point","coordinates":[-51.74,-24.64]}},{"type":"Feature","properties":{"id":"3554003","nome":"Tatuí","uf":"SP"},"geometry":{"type":"Point","coordinates":[-51.11,-24.46]}},{"type":"Feature","properties":{"id":"3554102","nome":"Taubaté","uf":"SP"},"geometry":{"type":"Point","coordinates":[-50.48,-24.28]}},{"type":"Feature","properties":{"id":"3554201","nome":"Tejupá","uf":"SP"},"geometry":{"type":"Point","coordinates":[-49.85,-24.1]}},{"type":"Feature","properties":{"id":"3554300","nome":"Teodoro Sampaio","uf":"SP"},"geometry":{"type":"Point","coordinates":[-49.22,-23.92]}},{"type":"Feature","properties":{"id":"3554409","nome":"Terra Roxa","uf":"SP"},"geometry":{"type":"Point","coordinates":[-48.59,-23.74]}},{"type":"Feature","properties":{"id":"3554508","nome":"Tietê","uf":"SP"},"geometry":{"type":"Point","coordinates":[-47.96,-23.56]}},{"type":"Feature","properties":{"id":"3554607","nome":"Timburi","uf":"SP"},"geometry":{"type":"Point","coordinates":[-47.33,-23.38]}},{"type":"Feature","properties":{"id":"3554656","nome":"Torre de Pedra","uf":"SP"},"geometry":{"type":"Point","coordinates":[-46.7,-23.2]}},{"type":"Feature","properties":{"id":"3554706","nome":"Torrinha","uf":"SP"},"geometry":{"type":"Point","coordinates":[-46.07,-23.02]}},{"type":"Feature","properties":{"id":"3554755","nome":"Trabiju","uf":"SP"},"geometry":{"type":"Point","coordinates":[-45.44,-22.84]}},{"type":"Feature","properties":{"id":"3554805","nome":"Tremembé","uf":"SP"},"geometry":{"type":"Point","coordinates":[-44.81,-22.66]}},{"type":"Feature","properties":{"id":"3554904","nome":"Três Fronteiras","uf":"SP"},"geometry":{"type":"Point","coordinates":[-44.18,-22.48]}},{"type":"Feature","properties":{"id":"3554953","nome":"Tuiuti","uf":"SP"},"geometry":{"type":"Point","coordinates":[-52.55,-22.3]}},{"type":"Feature","properties":{"id":"3555000","nome":"Tupã","uf":"SP"},"geometry":{"type":"Point","coordinates":[-51.92,-22.12]}},{"type":"Feature","properties":{"id":"3555109","nome":"Tupi Paulista","uf":"SP"},"geometry":{"type":"Point","coordinates":[-51.29,-21.94]}},{"type":"Feature","properties":{"id":"3555208","nome":"Turiúba","uf":"SP"},"geometry":{"type":"Point","coordinates":[-50.66,-21.76]}},{"type":"Feature","properties":{"id":"3555307","nome":"Turmalina","uf":"SP"},"geometry":{"type":"Point","coordinates":[-50.03,-21.58]}},{"type":"Feature","properties":{"id":"3555356","nome":"Ubarana","uf":"SP"},"geometry":{"type":"Point","coordinates":[-49.4,-21.4]}},{"type":"Feature","properties":{"id":"3555406","nome":"Ubatuba","uf":"SP"},"geometry":{"type":"Point","coordinates":[-48.77,-21.22]}},{"type":"Feature","properties":{"id":"3555505","nome":"Ubirajara","uf":"SP"},"geometry":{"type":"Point","coordinates":[-48.14,-21.04]}},{"type":"Feature","properties":{"id":"3555604","nome":"Uchoa","uf":"SP"},"geometry":{"type":"Point","coordinates":[-47.51,-20.86]}},{"type":"Feature","properties":{"id":"3555703","nome":"União Paulista","uf":"SP"},"geometry":{"type":"Point","coordinates":[-46.88,-20.68]}},{"type":"Feature","properties":{"id":"3555802","nome":"Urânia","uf":"SP"},"geometry":{"type":"Point","coordinates":[-46.25,-20.5]}},{"type":"Feature","properties":{"id":"3555901","nome":"Uru","uf":"SP"},"geometry":{"type":"Point","coordinates":[-45.62,-20.32]}},{"type":"Feature","properties":{"id":"3556008","nome":"Urupês","uf":"SP"},"geometry":{"type":"Point","coordinates":[-44.99,-20.14]}},{"type":"Feature","properties":{"id":"3556107","nome":"Valentim Gentil","uf":"SP"},"geometry":{"type":"Point","coordinates":[-44.36,-19.96]}},{"type":"Feature","properties":{"id":"3556206","nome":"Valinhos","uf":"SP"},"geometry":{"type":"Point","coordinates":[-52.73,-19.78]}},{"type":"Feature","properties":{"id":"3556305","nome":"Valparaíso","uf":"SP"},"geometry":{"type":"Point","coordinates":[-52.1,-19.6]}},{"type":"Feature","properties":{"id":"3556354","nome":"Vargem","uf":"SP"},"geometry":{"type":"Point","coordinates":[-51.47,-19.42]}},{"type":"Feature","properties":{"id":"3556404","nome":"Vargem Grande do Sul","uf":"SP"},"geometry":{"type":"Point","coordinates":[-50.84,-19.240000000000002]}},{"type":"Feature","properties":{"id":"3556453","nome":"Vargem Grande Paulista","uf":"SP"},"geometry":{"type":"Point","coordinates":[-50.21,-19.060000000000002]}},{"type":"Feature","properties":{"id":"3556503","nome":"Várzea Paulista","uf":"SP"},"geometry":{"type":"Point","coordinates":[-49.58,-24.88]}},{"type":"Feature","properties":{"id":"3556602","nome":"Vera Cruz","uf":"SP"},"geometry":{"type":"Point","coordinates":[-48.95,-24.7]}},{"type":"Feature","properties":{"id":"3556701","nome":"Vinhedo","uf":"SP"},"geometry":{"type":"Point","coordinates":[-48.32,-24.52]}},{"type":"Feature","properties":{"id":"3556800","nome":"Viradouro","uf":"SP"},"geometry":{"type":"Point","coordinates":[-47.69,-24.34]}},{"type":"Feature","properties":{"id":"3556909","nome":"Vista Alegre do Alto","uf":"SP"},"geometry":{"type":"Point","coordinates":[-47.06,-24.16]}},{"type":"Feature","properties":{"id":"3556958","nome":"Vitória Brasil","uf":"SP"},"geometry":{"type":"Point","coordinates":[-46.43,-23.98]}},{"type":"Feature","properties":{"id":"3557006","nome":"Votorantim","uf":"SP"},"geometry":{"type":"Point","coordinates":[-45.8,-23.8]}},{"type":"Feature","properties":{"id":"3557105","nome":"Votuporanga","uf":"SP"},"geometry":{"type":"Point","coordinates":[-45.17,-23.62]}},{"type":"Feature","properties":{"id":"3557154","nome":"Zacarias","uf":"SP"},"geometry":{"type":"Point","coordinates":[-44.54,-23.44]}},{"type":"Feature","properties":{"id":"3557204","nome":"Chavantes","uf":"SP"},"geometry":{"type":"Point","coordinates":[-52.91,-23.26]}},{"type":"Feature","properties":{"id":"3557303","nome":"Estiva Gerbi","uf":"SP"},"geometry":{"type":"Point","coordinates":[-52.28,-23.08]}}]}