{"type":"FeatureCollection","features":[{"type":"Feature","properties":{"id":"4200051","nome":"Abdon Batista","uf":"SC"},"geometry":{"type":"Point","coordinates":[-54,-29]}},{"type":"Feature","properties":{"id":"4200101","nome":"Abelardo Luz","uf":"SC"},"geometry":{"type":"Point","coordinates":[-53.58,-28.88]}},{"type":"Feature","properties":{"id":"4200200","nome":"Agrolândia","uf":"SC"},"geometry":{"type":"Point","coordinates":[-53.16,-28.76]}},{"type":"Feature","properties":{"id":"4200309","nome":"Agronômica","uf":"SC"},"geometry":{"type":"Point","coordinates":[-52.74,-28.64]}},{"type":"Feature","properties":{"id":"4200408","nome":"Água Doce","uf":"SC"},"geometry":{"type":"Point","coordinates":[-52.32,-28.52]}},{"type":"Feature","properties":{"id":"4200507","nome":"Águas de Chapecó","uf":"SC"},"geometry":{"type":"Point","coordinates":[-51.9,-28.4]}},{"type":"Feature","properties":{"id":"4200556","nome":"Águas Frias","uf":"SC"},"geometry":{"type":"Point","coordinates":[-51.48,-28.28]}},{"type":"Feature","properties":{"id":"4200606","nome":"Águas Mornas","uf":"SC"},"geometry":{"type":"Point","coordinates":[-51.06,-28.16]}},{"type":"Feature","properties":{"id":"4200705","nome":"Alfredo Wagner","uf":"SC"},"geometry":{"type":"Point","coordinates":[-50.64,-28.04]}},{"type":"Feature","properties":{"id":"4200754","nome":"Alto Bela Vista","uf":"SC"},"geometry":{"type":"Point","coordinates":[-50.22,-27.92]}},{"type":"Feature","properties":{"id":"4200804","nome":"Anchieta","uf":"SC"},"geometry":{"type":"Point","coordinates":[-49.8,-27.8]}},{"type":"Feature","properties":{"id":"4200903","nome":"Angelina","uf":"SC"},"geometry":{"type":"Point","coordinates":[-49.38,-27.68]}},{"type":"Feature","properties":{"id":"4201000","nome":"Anita Garibaldi","uf":"SC"},"geometry":{"type":"Point","coordinates":[-48.96,-27.56]}},{"type":"Feature","properties":{"id":"4201109","nome":"Anitápolis","uf":"SC"},"geometry":{"type":"Point","coordinates":[-48.54,-27.44]}},{"type":"Feature","properties":{"id":"4201208","nome":"Antônio Carlos","uf":"SC"},"geometry":{"type":"Point","coordinates":[-48.12,-27.32]}},{"type":"Feature","properties":{"id":"4201257","nome":"Apiúna","uf":"SC"},"geometry":{"type":"Point","coordinates":[-53.7,-27.2]}},{"type":"Feature","properties":{"id":"4201273","nome":"Arabutã","uf":"SC"},"geometry":{"type":"Point","coordinates":[-53.28,-27.08]}},{"type":"Feature","properties":{"id":"4201307","nome":"Araquari","uf":"SC"},"geometry":{"type":"Point","coordinates":[-52.86,-26.96]}},{"type":"Feature","properties":{"id":"4201406","nome":"Araranguá","uf":"SC"},"geometry":{"type":"Point","coordinates":[-52.44,-26.84]}},{"type":"Feature","properties":{"id":"4201505","nome":"Armazém","uf":"SC"},"geometry":{"type":"Point","coordinates":[-52.02,-26.72]}},{"type":"Feature","properties":{"id":"4201604","nome":"Arroio Trinta","uf":"SC"},"geometry":{"type":"Point","coordinates":[-51.6,-26.6]}},{"type":"Feature","properties":{"id":"4201653","nome":"Arvoredo","uf":"SC"},"geometry":{"type":"Point","coordinates":[-51.18,-26.48]}},{"type":"Feature","properties":{"id":"4201703","nome":"Ascurra","uf":"SC"},"geometry":{"type":"Point","coordinates":[-50.76,-26.36]}},{"type":"Feature","properties":{"id":"4201802","nome":"Atalanta","uf":"SC"},"geometry":{"type":"Point","coordinates":[-50.34,-26.24]}},{"type":"Feature","properties":{"id":"4201901","nome":"Aurora","uf":"SC"},"geometry":{"type":"Point","coordinates":[-49.92,-26.12]}},{"type":"Feature","properties":{"id":"4201950","nome":"Balneário Arroio do Silva","uf":"SC"},"geometry":{"type":"Point","coordinates":[-49.5,-26]}},{"type":"Feature","properties":{"id":"4202008","nome":"Balneário Camboriú","uf":"SC"},"geometry":{"type":"Point","coordinates":[-49.08,-25.88]}},{"type":"Feature","properties":{"id":"4202057","nome":"Balneário Barra do Sul","uf":"SC"},"geometry":{"type":"Point","coordinates":[-48.66,-25.759999999999998]}},{"type":"Feature","properties":{"id":"4202073","nome":"Balneário Gaivota","uf":"SC"},"geometry":{"type":"Point","coordinates":[-48.24,-25.64]}},{"type":"Feature","properties":{"id":"4202081","nome":"Bandeirante","uf":"SC"},"geometry":{"type":"Point","coordinates":[-53.82,-25.52]}},{"type":"Feature","properties":{"id":"4202099","nome":"Barra Bonita","uf":"SC"},"geometry":{"type":"Point","coordinates":[-53.4,-25.4]}},{"type":"Feature","properties":{"id":"4202107","nome":"Barra Velha","uf":"SC"},"geometry":{"type":"Point","coordinates":[-52.98,-25.28]}},{"type":"Feature","properties":{"id":"4202131","nome":"Bela Vista do Toldo","uf":"SC"},"geometry":{"type":"Point","coordinates":[-52.56,-25.16]}},{"type":"Feature","properties":{"id":"4202156","nome":"Belmonte","uf":"SC"},"geometry":{"type":"Point","coordinates":[-52.14,-25.04]}},{"type":"Feature","properties":{"id":"4202206","nome":"Benedito Novo","uf":"SC"},"geometry":{"type":"Point","coordinates":[-51.72,-28.92]}},{"type":"Feature","properties":{"id":"4202305","nome":"Biguaçu","uf":"SC"},"geometry":{"type":"Point","coordinates":[-51.3,-28.8]}},{"type":"Feature","properties":{"id":"4202404","nome":"Blumenau","uf":"SC"},"geometry":{"type":"Point","coordinates":[-50.88,-28.68]}},{"type":"Feature","properties":{"id":"4202438","nome":"Bocaina do Sul","uf":"SC"},"geometry":{"type":"Point","coordinates":[-50.46,-28.56]}},{"type":"Feature","properties":{"id":"4202453","nome":"Bombinhas","uf":"SC"},"geometry":{"type":"Point","coordinates":[-50.04,-28.44]}},{"type":"Feature","properties":{"id":"4202503","nome":"Bom Jardim da Serra","uf":"SC"},"geometry":{"type":"Point","coordinates":[-49.62,-28.32]}},{"type":"Feature","properties":{"id":"4202537","nome":"Bom Jesus","uf":"SC"},"geometry":{"type":"Point","coordinates":[-49.2,-28.2]}},{"type":"Feature","properties":{"id":"4202578","nome":"Bom Jesus do Oeste","uf":"SC"},"geometry":{"type":"Point","coordinates":[-48.78,-28.08]}},{"type":"Feature","properties":{"id":"4202602","nome":"Bom Retiro","uf":"SC"},"geometry":{"type":"Point","coordinates":[-48.36,-27.96]}},{"type":"Feature","properties":{"id":"4202701","nome":"Botuverá","uf":"SC"},"geometry":{"type":"Point","coordinates":[-53.94,-27.84]}},{"type":"Feature","properties":{"id":"4202800","nome":"Braço do Norte","uf":"SC"},"geometry":{"type":"Point","coordinates":[-53.52,-27.72]}},{"type":"Feature","properties":{"id":"4202859","nome":"Braço do Trombudo","uf":"SC"},"geometry":{"type":"Point","coordinates":[-53.1,-27.6]}},{"type":"Feature","properties":{"id":"4202875","nome":"Brunópolis","uf":"SC"},"geometry":{"type":"Point","coordinates":[-52.68,-27.48]}},{"type":"Feature","properties":{"id":"4202909","nome":"Brusque","uf":"SC"},"geometry":{"type":"Point","coordinates":[-52.26,-27.36]}},{"type":"Feature","properties":{"id":"4203006","nome":"Caçador","uf":"SC"},"geometry":{"type":"Point","coordinates":[-51.84,-27.24]}},{"type":"Feature","properties":{"id":"4203105","nome":"Caibi","uf":"SC"},"geometry":{"type":"Point","coordinates":[-51.42,-27.12]}},{"type":"Feature","properties":{"id":"4203154","nome":"Calmon","uf":"SC"},"geometry":{"type":"Point","coordinates":[-51,-27]}},{"type":"Feature","properties":{"id":"4203204","nome":"Camboriú","uf":"SC"},"geometry":{"type":"Point","coordinates":[-50.58,-26.88]}},{"type":"Feature","properties":{"id":"4203253","nome":"Capão Alto","uf":"SC"},"geometry":{"type":"Point","coordinates":[-50.16,-26.759999999999998]}},{"type":"Feature","properties":{"id":"4203303","nome":"Campo Alegre","uf":"SC"},"geometry":{"type":"Point","coordinates":[-49.74,-26.64]}},{"type":"Feature","properties":{"id":"4203402","nome":"Campo Belo do Sul","uf":"SC"},"geometry":{"type":"Point","coordinates":[-49.32,-26.52]}},{"type":"Feature","properties":{"id":"4203501","nome":"Campo Erê","uf":"SC"},"geometry":{"type":"Point","coordinates":[-48.9,-26.4]}},{"type":"Feature","properties":{"id":"4203600","nome":"Campos Novos","uf":"SC"},"geometry":{"type":"Point","coordinates":[-48.480000000000004,-26.28]}},{"type":"Feature","properties":{"id":"4203709","nome":"Canelinha","uf":"SC"},"geometry":{"type":"Point","coordinates":[-48.06,-26.16]}},{"type":"Feature","properties":{"id":"4203808","nome":"Canoinhas","uf":"SC"},"geometry":{"type":"Point","coordinates":[-53.64,-26.04]}},{"type":"Feature","properties":{"id":"4203907","nome":"Capinzal","uf":"SC"},"geometry":{"type":"Point","coordinates":[-53.22,-25.92]}},{"type":"Feature","properties":{"id":"4203956","nome":"Capivari de Baixo","uf":"SC"},"geometry":{"type":"Point","coordinates":[-52.8,-25.8]}},{"type":"Feature","properties":{"id":"4204004","nome":"Catanduvas","uf":"SC"},"geometry":{"type":"Point","coordinates":[-52.38,-25.68]}},{"type":"Feature","properties":{"id":"4204103","nome":"Caxambu do Sul","uf":"SC"},"geometry":{"type":"Point","coordinates":[-51.96,-25.56]}},{"type":"Feature","properties":{"id":"4204152","nome":"Celso Ramos","uf":"SC"},"geometry":{"type":"Point","coordinates":[-51.54,-25.44]}},{"type":"Feature","properties":{"id":"4204178","nome":"Cerro Negro","uf":"SC"},"geometry":{"type":"Point","coordinates":[-51.12,-25.32]}},{"type":"Feature","properties":{"id":"4204194","nome":"Chapadão do Lageado","uf":"SC"},"geometry":{"type":"Point","coordinates":[-50.7,-25.2]}},{"type":"Feature","properties":{"id":"4204202","nome":"Chapecó","uf":"SC"},"geometry":{"type":"Point","coordinates":[-50.28,-25.08]}},{"type":"Feature","properties":{"id":"4204251","nome":"Cocal do Sul","uf":"SC"},"geometry":{"type":"Point","coordinates":[-49.86,-28.96]}},{"type":"Feature","properties":{"id":"4204301","nome":"Concórdia","uf":"SC"},"geometry":{"type":"Point","coordinates":[-49.44,-28.84]}},{"type":"Feature","properties":{"id":"4204350","nome":"Cordilheira Alta","uf":"SC"},"geometry":{"type":"Point","coordinates":[-49.02,-28.72]}},{"type":"Feature","properties":{"id":"4204400","nome":"Coronel Freitas","uf":"SC"},"geometry":{"type":"Point","coordinates":[-48.6,-28.6]}},{"type":"Feature","properties":{"id":"4204459","nome":"Coronel Martins","uf":"SC"},"geometry":{"type":"Point","coordinates":[-48.18,-28.48]}},{"type":"Feature","properties":{"id":"4204509","nome":"Corupá","uf":"SC"},"geometry":{"type":"Point","coordinates":[-53.76,-28.36]}},{"type":"Feature","properties":{"id":"4204558","nome":"Correia Pinto","uf":"SC"},"geometry":{"type":"Point","coordinates":[-53.34,-28.24]}},{"type":"Feature","properties":{"id":"4204608","nome":"Criciúma","uf":"SC"},"geometry":{"type":"Point","coordinates":[-52.92,-28.12]}},{"type":"Feature","properties":{"id":"4204707","nome":"Cunha Porã","uf":"SC"},"geometry":{"type":"Point","coordinates":[-52.5,-28]}},{"type":"Feature","properties":{"id":"4204756","nome":"Cunhataí","uf":"SC"},"geometry":{"type":"Point","coordinates":[-52.08,-27.88]}},{"type":"Feature","properties":{"id":"4204806","nome":"Curitibanos","uf":"SC"},"geometry":{"type":"Point","coordinates":[-51.66,-27.76]}},{"type":"Feature","properties":{"id":"4204905","nome":"Descanso","uf":"SC"},"geometry":{"type":"Point","coordinates":[-51.24,-27.64]}},{"type":"Feature","properties":{"id":"4205001","nome":"Dionísio Cerqueira","uf":"SC"},"geometry":{"type":"Point","coordinates":[-50.82,-27.52]}},{"type":"Feature","properties":{"id":"4205100","nome":"Dona Emma","uf":"SC"},"geometry":{"type":"Point","coordinates":[-50.4,-27.4]}},{"type":"Feature","properties":{"id":"4205159","nome":"Doutor Pedrinho","uf":"SC"},"geometry":{"type":"Point","coordinates":[-49.980000000000004,-27.28]}},{"type":"Feature","properties":{"id":"4205175","nome":"Entre Rios","uf":"SC"},"geometry":{"type":"Point","coordinates":[-49.56,-27.16]}},{"type":"Feature","properties":{"id":"4205191","nome":"Ermo","uf":"SC"},"geometry":{"type":"Point","coordinates":[-49.14,-27.04]}},{"type":"Feature","properties":{"id":"4205209","nome":"Erval Velho","uf":"SC"},"geometry":{"type":"Point","coordinates":[-48.72,-26.92]}},{"type":"Feature","properties":{"id":"4205308","nome":"Faxinal dos Guedes","uf":"SC"},"geometry":{"type":"Point","coordinates":[-48.3,-26.8]}},{"type":"Feature","properties":{"id":"4205357","nome":"Flor do Sertão","uf":"SC"},"geometry":{"type":"Point","coordinates":[-53.88,-26.68]}},{"type":"Feature","properties":{"id":"4205407","nome":"Florianópolis","uf":"SC"},"geometry":{"type":"Point","coordinates":[-53.46,-26.56]}},{"type":"Feature","properties":{"id":"4205431","nome":"Formosa do Sul","uf":"SC"},"geometry":{"type":"Point","coordinates":[-53.04,-26.44]}},{"type":"Feature","properties":{"id":"4205456","nome":"Forquilhinha","uf":"SC"},"geometry":{"type":"Point","coordinates":[-52.62,-26.32]}},{"type":"Feature","properties":{"id":"4205506","nome":"Fraiburgo","uf":"SC"},"geometry":{"type":"Point","coordinates":[-52.2,-26.2]}},{"type":"Feature","properties":{"id":"4205555","nome":"Frei Rogério","uf":"SC"},"geometry":{"type":"Point","coordinates":[-51.78,-26.08]}},{"type":"Feature","properties":{"id":"4205605","nome":"Galvão","uf":"SC"},"geometry":{"type":"Point","coordinates":[-51.36,-25.96]}},{"type":"Feature","properties":{"id":"4205704","nome":"Garopaba","uf":"SC"},"geometry":{"type":"Point","coordinates":[-50.94,-25.84]}},{"type":"Feature","properties":{"id":"4205803","nome":"Garuva","uf":"SC"},"geometry":{"type":"Point","coordinates":[-50.52,-25.72]}},{"type":"Feature","properties":{"id":"4205902","nome":"Gaspar","uf":"SC"},"geometry":{"type":"Point","coordinates":[-50.1,-25.6]}},{"type":"Feature","properties":{"id":"4206009","nome":"Governador Celso Ramos","uf":"SC"},"geometry":{"type":"Point","coordinates":[-49.68,-25.48]}},{"type":"Feature","properties":{"id":"4206108","nome":"Grão-Pará","uf":"SC"},"geometry":{"type":"Point","coordinates":[-49.26,-25.36]}},{"type":"Feature","properties":{"id":"4206207","nome":"Gravatal","uf":"SC"},"geometry":{"type":"Point","coordinates":[-48.84,-25.24]}},{"type":"Feature","properties":{"id":"4206306","nome":"Guabiruba","uf":"SC"},"geometry":{"type":"Point","coordinates":[-48.42,-25.12]}},{"type":"Feature","properties":{"id":"4206405","nome":"Guaraciaba","uf":"SC"},"geometry":{"type":"Point","coordinates":[-54,-29]}},{"type":"Feature","properties":{"id":"4206504","nome":"Guaramirim","uf":"SC"},"geometry":{"type":"Point","coordinates":[-53.58,-28.88]}},{"type":"Feature","properties":{"id":"4206603","nome":"Guarujá do Sul","uf":"SC"},"geometry":{"type":"Point","coordinates":[-53.16,-28.76]}},{"type":"Feature","properties":{"id":"4206652","nome":"Guatambú","uf":"SC"},"geometry":{"type":"Point","coordinates":[-52.74,-28.64]}},{"type":"Feature","properties":{"id":"4206702","nome":"Herval d'Oeste","uf":"SC"},"geometry":{"type":"Point","coordinates":[-52.32,-28.52]}},{"type":"Feature","properties":{"id":"4206751","nome":"Ibiam","uf":"SC"},"geometry":{"type":"Point","coordinates":[-51.9,-28.4]}},{"type":"Feature","properties":{"id":"4206801","nome":"Ibicaré","uf":"SC"},"geometry":{"type":"Point","coordinates":[-51.48,-28.28]}},{"type":"Feature","properties":{"id":"4206900","nome":"Ibirama","uf":"SC"},"geometry":{"type":"Point","coordinates":[-51.06,-28.16]}},{"type":"Feature","properties":{"id":"4207007","nome":"Içara","uf":"SC"},"geometry":{"type":"Point","coordinates":[-50.64,-28.04]}},{"type":"Feature","properties":{"id":"4207106","nome":"Ilhota","uf":"SC"},"geometry":{"type":"Point","coordinates":[-50.22,-27.92]}},{"type":"Feature","properties":{"id":"4207205","nome":"Imaruí","uf":"SC"},"geometry":{"type":"Point","coordinates":[-49.8,-27.8]}},{"type":"Feature","properties":{"id":"4207304","nome":"Imbituba","uf":"SC"},"geometry":{"type":"Point","coordinates":[-49.38,-27.68]}},{"type":"Feature","properties":{"id":"4207403","nome":"Imbuia","uf":"SC"},"geometry":{"type":"Point","coordinates":[-48.96,-27.56]}},{"type":"Feature","properties":{"id":"4207502","nome":"Indaial","uf":"SC"},"geometry":{"type":"Point","coordinates":[-48.54,-27.44]}},{"type":"Feature","properties":{"id":"4207577","nome":"Iomerê","uf":"SC"},"geometry":{"type":"Point","coordinates":[-48.12,-27.32]}},{"type":"Feature","properties":{"id":"4207601","nome":"Ipira","uf":"SC"},"geometry":{"type":"Point","coordinates":[-53.7,-27.2]}},{"type":"Feature","properties":{"id":"4207650","nome":"Iporã do Oeste","uf":"SC"},"geometry":{"type":"Point","coordinates":[-53.28,-27.08]}},{"type":"Feature","properties":{"id":"4207684","nome":"Ipuaçu","uf":"SC"},"geometry":{"type":"Point","coordinates":[-52.86,-26.96]}},{"type":"Feature","properties":{"id":"4207700","nome":"Ipumirim","uf":"SC"},"geometry":{"type":"Point","coordinates":[-52.44,-26.84]}},{"type":"Feature","properties":{"id":"4207759","nome":"Iraceminha","uf":"SC"},"geometry":{"type":"Point","coordinates":[-52.02,-26.72]}},{"type":"Feature","properties":{"id":"4207809","nome":"Irani","uf":"SC"},"geometry":{"type":"Point","coordinates":[-51.6,-26.6]}},{"type":"Feature","properties":{"id":"4207858","nome":"Irati","uf":"SC"},"geometry":{"type":"Point","coordinates":[-51.18,-26.48]}},{"type":"Feature","properties":{"id":"4207908","nome":"Irineópolis","uf":"SC"},"geometry":{"type":"Point","coordinates":[-50.76,-26.36]}},{"type":"Feature","properties":{"id":"4208005","nome":"Itá","uf":"SC"},"geometry":{"type":"Point","coordinates":[-50.34,-26.24]}},{"type":"Feature","properties":{"id":"4208104","nome":"Itaiópolis","uf":"SC"},"geometry":{"type":"Point","coordinates":[-49.92,-26.12]}},{"type":"Feature","properties":{"id":"4208203","nome":"Itajaí","uf":"SC"},"geometry":{"type":"Point","coordinates":[-49.5,-26]}},{"type":"Feature","properties":{"id":"4208302","nome":"Itapema","uf":"SC"},"geometry":{"type":"Point","coordinates":[-49.08,-25.88]}},{"type":"Feature","properties":{"id":"4208401","nome":"Itapiranga","uf":"SC"},"geometry":{"type":"Point","coordinates":[-48.66,-25.759999999999998]}},{"type":"Feature","properties":{"id":"4208450","nome":"Itapoá","uf":"SC"},"geometry":{"type":"Point","coordinates":[-48.24,-25.64]}},{"type":"Feature","properties":{"id":"4208500","nome":"Ituporanga","uf":"SC"},"geometry":{"type":"Point","coordinates":[-53.82,-25.52]}},{"type":"Feature","properties":{"id":"4208609","nome":"Jaborá","uf":"SC"},"geometry":{"type":"Point","coordinates":[-53.4,-25.4]}},{"type":"Feature","properties":{"id":"4208708","nome":"Jacinto Machado","uf":"SC"},"geometry":{"type":"Point","coordinates":[-52.98,-25.28]}},{"type":"Feature","properties":{"id":"4208807","nome":"Jaguaruna","uf":"SC"},"geometry":{"type":"Point","coordinates":[-52.56,-25.16]}},{"type":"Feature","properties":{"id":"4208906","nome":"Jaraguá do Sul","uf":"SC"},"geometry":{"type":"Point","coordinates":[-52.14,-25.04]}},{"type":"Feature","properties":{"id":"4208955","nome":"Jardinópolis","uf":"SC"},"geometry":{"type":"Point","coordinates":[-51.72,-28.92]}},{"type":"Feature","properties":{"id":"4209003","nome":"Joaçaba","uf":"SC"},"geometry":{"type":"Point","coordinates":[-51.3,-28.8]}},{"type":"Feature","properties":{"id":"4209102","nome":"Joinville","uf":"SC"},"geometry":{"type":"Point","coordinates":[-50.88,-28.68]}},{"type":"Feature","properties":{"id":"4209151","nome":"José Boiteux","uf":"SC"},"geometry":{"type":"Point","coordinates":[-50.46,-28.56]}},{"type":"Feature","properties":{"id":"4209177","nome":"Jupiá","uf":"SC"},"geometry":{"type":"Point","coordinates":[-50.04,-28.44]}},{"type":"Feature","properties":{"id":"4209201","nome":"Lacerdópolis","uf":"SC"},"geometry":{"type":"Point","coordinates":[-49.62,-28.32]}},{"type":"Feature","properties":{"id":"4209300","nome":"Lages","uf":"SC"},"geometry":{"type":"Point","coordinates":[-49.2,-28.2]}},{"type":"Feature","properties":{"id":"4209409","nome":"Laguna","uf":"SC"},"geometry":{"type":"Point","coordinates":[-48.78,-28.08]}},{"type":"Feature","properties":{"id":"4209458","nome":"Lajeado Grande","uf":"SC"},"geometry":{"type":"Point","coordinates":[-48.36,-27.96]}},{"type":"Feature","properties":{"id":"4209508","nome":"Laurentino","uf":"SC"},"geometry":{"type":"Point","coordinates":[-53.94,-27.84]}},{"type":"Feature","properties":{"id":"4209607","nome":"Lauro Müller","uf":"SC"},"geometry":{"type":"Point","coordinates":[-53.52,-27.72]}},{"type":"Feature","properties":{"id":"4209706","nome":"Lebon Régis","uf":"SC"},"geometry":{"type":"Point","coordinates":[-53.1,-27.6]}},{"type":"Feature","properties":{"id":"4209805","nome":"Leoberto Leal","uf":"SC"},"geometry":{"type":"Point","coordinates":[-52.68,-27.48]}},{"type":"Feature","properties":{"id":"4209854","nome":"Lindóia do Sul","uf":"SC"},"geometry":{"type":"Point","coordinates":[-52.26,-27.36]}},{"type":"Feature","properties":{"id":"4209904","nome":"Lontras","uf":"SC"},"geometry":{"type":"Point","coordinates":[-51.84,-27.24]}},{"type":"Feature","properties":{"id":"4210001","nome":"Luiz Alves","uf":"SC"},"geometry":{"type":"Point","coordinates":[-51.42,-27.12]}},{"type":"Feature","properties":{"id":"4210035","nome":"Luzerna","uf":"SC"},"geometry":{"type":"Point","coordinates":[-51,-27]}},{"type":"Feature","properties":{"id":"4210050","nome":"Macieira","uf":"SC"},"geometry":{"type":"Point","coordinates":[-50.58,-26.88]}},{"type":"Feature","properties":{"id":"4210100","nome":"Mafra","uf":"SC"},"geometry":{"type":"Point","coordinates":[-50.16,-26.759999999999998]}},{"type":"Feature","properties":{"id":"4210209","nome":"Major Gercino","uf":"SC"},"geometry":{"type":"Point","coordinates":[-49.74,-26.64]}},{"type":"Feature","properties":{"id":"4210308","nome":"Major Vieira","uf":"SC"},"geometry":{"type":"Point","coordinates":[-49.32,-26.52]}},{"type":"Feature","properties":{"id":"4210407","nome":"Maracajá","uf":"SC"},"geometry":{"type":"Point","coordinates":[-48.9,-26.4]}},{"type":"Feature","properties":{"id":"4210506","nome":"Maravilha","uf":"SC"},"geometry":{"type":"Point","coordinates":[-48.480000000000004,-26.28]}},{"type":"Feature","properties":{"id":"4210555","nome":"Marema","uf":"SC"},"geometry":{"type":"Point","coordinates":[-48.06,-26.16]}},{"type":"Feature","properties":{"id":"4210605","nome":"Massaranduba","uf":"SC"},"geometry":{"type":"Point","coordinates":[-53.64,-26.04]}},{"type":"Feature","properties":{"id":"4210704","nome":"Matos Costa","uf":"SC"},"geometry":{"type":"Point","coordinates":[-53.22,-25.92]}},{"type":"Feature","properties":{"id":"4210803","nome":"Meleiro","uf":"SC"},"geometry":{"type":"Point","coordinates":[-52.8,-25.8]}},{"type":"Feature","properties":{"id":"4210852","nome":"Mirim Doce","uf":"SC"},"geometry":{"type":"Point","coordinates":[-52.38,-25.68]}},{"type":"Feature","properties":{"id":"4210902","nome":"Modelo","uf":"SC"},"geometry":{"type":"Point","coordinates":[-51.96,-25.56]}},{"type":"Feature","properties":{"id":"4211009","nome":"Mondaí","uf":"SC"},"geometry":{"type":"Point","coordinates":[-51.54,-25.44]}},{"type":"Feature","properties":{"id":"4211058","nome":"Monte Carlo","uf":"SC"},"geometry":{"type":"Point","coordinates":[-51.12,-25.32]}},{"type":"Feature","properties":{"id":"4211108","nome":"Monte Castelo","uf":"SC"},"geometry":{"type":"Point","coordinates":[-50.7,-25.2]}},{"type":"Feature","properties":{"id":"4211207","nome":"Morro da Fumaça","uf":"SC"},"geometry":{"type":"Point","coordinates":[-50.28,-25.08]}},{"type":"Feature","properties":{"id":"4211256","nome":"Morro Grande","uf":"SC"},"geometry":{"type":"Point","coordinates":[-49.86,-28.96]}},{"type":"Feature","properties":{"id":"4211306","nome":"Navegantes","uf":"SC"},"geometry":{"type":"Point","coordinates":[-49.44,-28.84]}},{"type":"Feature","properties":{"id":"4211405","nome":"Nova Erechim","uf":"SC"},"geometry":{"type":"Point","coordinates":[-49.02,-28.72]}},{"type":"Feature","properties":{"id":"4211454","nome":"Nova Itaberaba","uf":"SC"},"geometry":{"type":"Point","coordinates":[-48.6,-28.6]}},{"type":"Feature","properties":{"id":"4211504","nome":"Nova Trento","uf":"SC"},"geometry":{"type":"Point","coordinates":[-48.18,-28.48]}},{"type":"Feature","properties":{"id":"4211603","nome":"Nova Veneza","uf":"SC"},"geometry":{"type":"Point","coordinates":[-53.76,-28.36]}},{"type":"Feature","properties":{"id":"4211652","nome":"Novo Horizonte","uf":"SC"},"geometry":{"type":"Point","coordinates":[-53.34,-28.24]}},{"type":"Feature","properties":{"id":"4211702","nome":"Orleans","uf":"SC"},"geometry":{"type":"Point","coordinates":[-52.92,-28.12]}},{"type":"Feature","properties":{"id":"4211751","nome":"Otacílio Costa","uf":"SC"},"geometry":{"type":"Point","coordinates":[-52.5,-28]}},{"type":"Feature","properties":{"id":"4211801","nome":"Ouro","uf":"SC"},"geometry":{"type":"Point","coordinates":[-52.08,-27.88]}},{"type":"Feature","properties":{"id":"4211850","nome":"Ouro Verde","uf":"SC"},"geometry":{"type":"Point","coordinates":[-51.66,-27.76]}},{"type":"Feature","properties":{"id":"4211876","nome":"Paial","uf":"SC"},"geometry":{"type":"Point","coordinates":[-51.24,-27.64]}},{"type":"Feature","properties":{"id":"4211892","nome":"Painel","uf":"SC"},"geometry":{"type":"Point","coordinates":[-50.82,-27.52]}},{"type":"Feature","properties":{"id":"4211900","nome":"Palhoça","uf":"SC"},"geometry":{"type":"Point","coordinates":[-50.4,-27.4]}},{"type":"Feature","properties":{"id":"4212007","nome":"Palma Sola","uf":"SC"},"geometry":{"type":"Point","coordinates":[-49.980000000000004,-27.28]}},{"type":"Feature","properties":{"id":"4212056","nome":"Palmeira","uf":"SC"},"geometry":{"type":"Point","coordinates":[-49.56,-27.16]}},{"type":"Feature","properties":{"id":"4212106","nome":"Palmitos","uf":"SC"},"geometry":{"type":"Point","coordinates":[-49.14,-27.04]}},{"type":"Feature","properties":{"id":"4212205","nome":"Papanduva","uf":"SC"},"geometry":{"type":"Point","coordinates":[-48.72,-26.92]}},{"type":"Feature","properties":{"id":"4212239","nome":"Paraíso","uf":"SC"},"geometry":{"type":"Point","coordinates":[-48.3,-26.8]}},{"type":"Feature","properties":{"id":"4212254","nome":"Passo de Torres","uf":"SC"},"geometry":{"type":"Point","coordinates":[-53.88,-26.68]}},{"type":"Feature","properties":{"id":"4212270","nome":"Passos Maia","uf":"SC"},"geometry":{"type":"Point","coordinates":[-53.46,-26.56]}},{"type":"Feature","properties":{"id":"4212304","nome":"Paulo Lopes","uf":"SC"},"geometry":{"type":"Point","coordinates":[-53.04,-26.44]}},{"type":"Feature","properties":{"id":"4212403","nome":"Pedras Grandes","uf":"SC"},"geometry":{"type":"Point","coordinates":[-52.62,-26.32]}},{"type":"Feature","properties":{"id":"4212502","nome":"Penha","uf":"SC"},"geometry":{"type":"Point","coordinates":[-52.2,-26.2]}},{"type":"Feature","properties":{"id":"4212601","nome":"Peritiba","uf":"SC"},"geometry":{"type":"Point","coordinates":[-51.78,-26.08]}},{"type":"Feature","properties":{"id":"4212650","nome":"Pescaria Brava","uf":"SC"},"geometry":{"type":"Point","coordinates":[-51.36,-25.96]}},{"type":"Feature","properties":{"id":"4212700","nome":"Petrolândia","uf":"SC"},"geometry":{"type":"Point","coordinates":[-50.94,-25.84]}},{"type":"Feature","properties":{"id":"4212809","nome":"Balneário Piçarras","uf":"SC"},"geometry":{"type":"Point","coordinates":[-50.52,-25.72]}},{"type":"Feature","properties":{"id":"4212908","nome":"Pinhalzinho","uf":"SC"},"geometry":{"type":"Point","coordinates":[-50.1,-25.6]}},{"type":"Feature","properties":{"id":"4213005","nome":"Pinheiro Preto","uf":"SC"},"geometry":{"type":"Point","coordinates":[-49.68,-25.48]}},{"type":"Feature","properties":{"id":"4213104","nome":"Piratuba","uf":"SC"},"geometry":{"type":"Point","coordinates":[-49.26,-25.36]}},{"type":"Feature","properties":{"id":"4213153","nome":"Planalto Alegre","uf":"SC"},"geometry":{"type":"Point","coordinates":[-48.84,-25.24]}},{"type":"Feature","properties":{"id":"4213203","nome":"Pomerode","uf":"SC"},"geometry":{"type":"Point","coordinates":[-48.42,-25.12]}},{"type":"Feature","properties":{"id":"4213302","nome":"Ponte Alta","uf":"SC"},"geometry":{"type":"Point","coordinates":[-54,-29]}},{"type":"Feature","properties":{"id":"4213351","nome":"Ponte Alta do Norte","uf":"SC"},"geometry":{"type":"Point","coordinates":[-53.58,-28.88]}},{"type":"Feature","properties":{"id":"4213401","nome":"Ponte Serrada","uf":"SC"},"geometry":{"type":"Point","coordinates":[-53.16,-28.76]}},{"type":"Feature","properties":{"id":"4213500","nome":"Porto Belo","uf":"SC"},"geometry":{"type":"Point","coordinates":[-52.74,-28.64]}},{"type":"Feature","properties":{"id":"4213609","nome":"Porto União","uf":"SC"},"geometry":{"type":"Point","coordinates":[-52.32,-28.52]}},{"type":"Feature","properties":{"id":"4213708","nome":"Pouso Redondo","uf":"SC"},"geometry":{"type":"Point","coordinates":[-51.9,-28.4]}},{"type":"Feature","properties":{"id":"4213807","nome":"Praia Grande","uf":"SC"},"geometry":{"type":"Point","coordinates":[-51.48,-28.28]}},{"type":"Feature","properties":{"id":"4213906","nome":"Presidente Castello Branco","uf":"SC"},"geometry":{"type":"Point","coordinates":[-51.06,-28.16]}},{"type":"Feature","properties":{"id":"4214003","nome":"Presidente Getúlio","uf":"SC"},"geometry":{"type":"Point","coordinates":[-50.64,-28.04]}},{"type":"Feature","properties":{"id":"4214102","nome":"Presidente Nereu","uf":"SC"},"geometry":{"type":"Point","coordinates":[-50.22,-27.92]}},{"type":"Feature","properties":{"id":"4214151","nome":"Princesa","uf":"SC"},"geometry":{"type":"Point","coordinates":[-49.8,-27.8]}},{"type":"Feature","properties":{"id":"4214201","nome":"Quilombo","uf":"SC"},"geometry":{"type":"Point","coordinates":[-49.38,-27.68]}},{"type":"Feature","properties":{"id":"4214300","nome":"Rancho Queimado","uf":"SC"},"geometry":{"type":"Point","coordinates":[-48.96,-27.56]}},{"type":"Feature","properties":{"id":"4214409","nome":"Rio das Antas","uf":"SC"},"geometry":{"type":"Point","coordinates":[-48.54,-27.44]}},{"type":"Feature","properties":{"id":"4214508","nome":"Rio do Campo","uf":"SC"},"geometry":{"type":"Point","coordinates":[-48.12,-27.32]}},{"type":"Feature","properties":{"id":"4214607","nome":"Rio do Oeste","uf":"SC"},"geometry":{"type":"Point","coordinates":[-53.7,-27.2]}},{"type":"Feature","properties":{"id":"4214706","nome":"Rio dos Cedros","uf":"SC"},"geometry":{"type":"Point","coordinates":[-53.28,-27.08]}},{"type":"Feature","properties":{"id":"4214805","nome":"Rio do Sul","uf":"SC"},"geometry":{"type":"Point","coordinates":[-52.86,-26.96]}},{"type":"Feature","properties":{"id":"4214904","nome":"Rio Fortuna","uf":"SC"},"geometry":{"type":"Point","coordinates":[-52.44,-26.84]}},{"type":"Feature","properties":{"id":"4215000","nome":"Rio Negrinho","uf":"SC"},"geometry":{"type":"Point","coordinates":[-52.02,-26.72]}},{"type":"Feature","properties":{"id":"4215059","nome":"Rio Rufino","uf":"SC"},"geometry":{"type":"Point","coordinates":[-51.6,-26.6]}},{"type":"Feature","properties":{"id":"4215075","nome":"Riqueza","uf":"SC"},"geometry":{"type":"Point","coordinates":[-51.18,-26.48]}},{"type":"Feature","properties":{"id":"4215109","nome":"Rodeio","uf":"SC"},"geometry":{"type":"Point","coordinates":[-50.76,-26.36]}},{"type":"Feature","properties":{"id":"4215208","nome":"Romelândia","uf":"SC"},"geometry":{"type":"Point","coordinates":[-50.34,-26.24]}},{"type":"Feature","properties":{"id":"4215307","nome":"Salete","uf":"SC"},"geometry":{"type":"Point","coordinates":[-49.92,-26.12]}},{"type":"Feature","properties":{"id":"4215356","nome":"Saltinho","uf":"SC"},"geometry":{"type":"Point","coordinates":[-49.5,-26]}},{"type":"Feature","properties":{"id":"4215406","nome":"Salto Veloso","uf":"SC"},"geometry":{"type":"Point","coordinates":[-49.08,-25.88]}},{"type":"Feature","properties":{"id":"4215455","nome":"Sangão","uf":"SC"},"geometry":{"type":"Point","coordinates":[-48.66,-25.759999999999998]}},{"type":"Feature","properties":{"id":"4215505","nome":"Santa Cecília","uf":"SC"},"geometry":{"type":"Point","coordinates":[-48.24,-25.64]}},{"type":"Feature","properties":{"id":"4215554","nome":"Santa Helena","uf":"SC"},"geometry":{"type":"Point","coordinates":[-53.82,-25.52]}},{"type":"Feature","properties":{"id":"4215604","nome":"Santa Rosa de Lima","uf":"SC"},"geometry":{"type":"Point","coordinates":[-53.4,-25.4]}},{"type":"Feature","properties":{"id":"4215653","nome":"Santa Rosa do Sul","uf":"SC"},"geometry":{"type":"Point","coordinates":[-52.98,-25.28]}},{"type":"Feature","properties":{"id":"4215679","nome":"Santa Terezinha","uf":"SC"},"geometry":{"type":"Point","coordinates":[-52.56,-25.16]}},{"type":"Feature","properties":{"id":"4215687","nome":"Santa Terezinha do Progresso","uf":"SC"},"geometry":{"type":"Point","coordinates":[-52.14,-25.04]}},{"type":"Feature","properties":{"id":"4215695","nome":"Santiago do Sul","uf":"SC"},"geometry":{"type":"Point","coordinates":[-51.72,-28.92]}},{"type":"Feature","properties":{"id":"4215703","nome":"Santo Amaro da Imperatriz","uf":"SC"},"geometry":{"type":"Point","coordinates":[-51.3,-28.8]}},{"type":"Feature","properties":{"id":"4215752","nome":"São Bernardino","uf":"SC"},"geometry":{"type":"Point","coordinates":[-50.88,-28.68]}},{"type":"Feature","properties":{"id":"4215802","nome":"São Bento do Sul","uf":"SC"},"geometry":{"type":"Point","coordinates":[-50.46,-28.56]}},{"type":"Feature","properties":{"id":"4215901","nome":"São Bonifácio","uf":"SC"},"geometry":{"type":"Point","coordinates":[-50.04,-28.44]}},{"type":"Feature","properties":{"id":"4216008","nome":"São Carlos","uf":"SC"},"geometry":{"type":"Point","coordinates":[-49.62,-28.32]}},{"type":"Feature","properties":{"id":"4216057","nome":"São Cristóvão do Sul","uf":"SC"},"geometry":{"type":"Point","coordinates":[-49.2,-28.2]}},{"type":"Feature","properties":{"id":"4216107","nome":"São Domingos","uf":"SC"},"geometry":{"type":"Point","coordinates":[-48.78,-28.08]}},{"type":"Feature","properties":{"id":"4216206","nome":"São Francisco do Sul","uf":"SC"},"geometry":{"type":"Point","coordinates":[-48.36,-27.96]}},{"type":"Feature","properties":{"id":"4216255","nome":"São João do Oeste","uf":"SC"},"geometry":{"type":"Point","coordinates":[-53.94,-27.84]}},{"type":"Feature","properties":{"id":"4216305","nome":"São João Batista","uf":"SC"},"geometry":{"type":"Point","coordinates":[-53.52,-27.72]}},{"type":"Feature","properties":{"id":"4216354","nome":"São João do Itaperiú","uf":"SC"},"geometry":{"type":"Point","coordinates":[-53.1,-27.6]}},{"type":"Feature","properties":{"id":"4216404","nome":"São João do Sul","uf":"SC"},"geometry":{"type":"Point","coordinates":[-52.68,-27.48]}},{"type":"Feature","properties":{"id":"4216503","nome":"São Joaquim","uf":"SC"},"geometry":{"type":"Point","coordinates":[-52.26,-27.36]}},{"type":"Feature","properties":{"id":"4216602","nome":"São José","uf":"SC"},"geometry":{"type":"Point","coordinates":[-51.84,-27.24]}},{"type":"Feature","properties":{"id":"4216701","nome":"São José do Cedro","uf":"SC"},"geometry":{"type":"Point","coordinates":[-51.42,-27.12]}},{"type":"Feature","properties":{"id":"4216800","nome":"São José do Cerrito","uf":"SC"},"geometry":{"type":"Point","coordinates":[-51,-27]}},{"type":"Feature","properties":{"id":"4216909","nome":"São Lourenço do Oeste","uf":"SC"},"geometry":{"type":"Point","coordinates":[-50.58,-26.88]}},{"type":"Feature","properties":{"id":"4217006","nome":"São Ludgero","uf":"SC"},"geometry":{"type":"Point","coordinates":[-50.16,-26.759999999999998]}},{"type":"Feature","properties":{"id":"4217105","nome":"São Martinho","uf":"SC"},"geometry":{"type":"Point","coordinates":[-49.74,-26.64]}},{"type":"Feature","properties":{"id":"4217154","nome":"São Miguel da Boa Vista","uf":"SC"},"geometry":{"type":"Point","coordinates":[-49.32,-26.52]}},{"type":"Feature","properties":{"id":"4217204","nome":"São Miguel do Oeste","uf":"SC"},"geometry":{"type":"Point","coordinates":[-48.9,-26.4]}},{"type":"Feature","properties":{"id":"4217253","nome":"São Pedro de Alcântara","uf":"SC"},"geometry":{"type":"Point","coordinates":[-48.480000000000004,-26.28]}},{"type":"Feature","properties":{"id":"4217303","nome":"Saudades","uf":"SC"},"geometry":{"type":"Point","coordinates":[-48.06,-26.16]}},{"type":"Feature","properties":{"id":"4217402","nome":"Schroeder","uf":"SC"},"geometry":{"type":"Point","coordinates":[-53.64,-26.04]}},{"type":"Feature","properties":{"id":"4217501","nome":"Seara","uf":"SC"},"geometry":{"type":"Point","coordinates":[-53.22,-25.92]}},{"type":"Feature","properties":{"id":"4217550","nome":"Serra Alta","uf":"SC"},"geometry":{"type":"Point","coordinates":[-52.8,-25.8]}},{"type":"Feature","properties":{"id":"4217600","nome":"Siderópolis","uf":"SC"},"geometry":{"type":"Point","coordinates":[-52.38,-25.68]}},{"type":"Feature","properties":{"id":"4217709","nome":"Sombrio","uf":"SC"},"geometry":{"type":"Point","coordinates":[-51.96,-25.56]}},{"type":"Feature","properties":{"id":"4217758","nome":"Sul Brasil","uf":"SC"},"geometry":{"type":"Point","coordinates":[-51.54,-25.44]}},{"type":"Feature","properties":{"id":"4217808","nome":"Taió","uf":"SC"},"geometry":{"type":"Point","coordinates":[-51.12,-25.32]}},{"type":"Feature","properties":{"id":"4217907","nome":"Tangará","uf":"SC"},"geometry":{"type":"Point","coordinates":[-50.7,-25.2]}},{"type":"Feature","properties":{"id":"4217956","nome":"Tigrinhos","uf":"SC"},"geometry":{"type":"Point","coordinates":[-50.28,-25.08]}},{"type":"Feature","properties":{"id":"4218004","nome":"Tijucas","uf":"SC"},"geometry":{"type":"Point","coordinates":[-49.86,-28.96]}},{"type":"Feature","properties":{"id":"4218103","nome":"Timbé do Sul","uf":"SC"},"geometry":{"type":"Point","coordinates":[-49.44,-28.84]}},{"type":"Feature","properties":{"id":"4218202","nome":"Timbó","uf":"SC"},"geometry":{"type":"Point","coordinates":[-49.02,-28.72]}},{"type":"Feature","properties":{"id":"4218251","nome":"Timbó Grande","uf":"SC"},"geometry":{"type":"Point","coordinates":[-48.6,-28.6]}},{"type":"Feature","properties":{"id":"4218301","nome":"Três Barras","uf":"SC"},"geometry":{"type":"Point","coordinates":[-48.18,-28.48]}},{"type":"Feature","properties":{"id":"4218350","nome":"Treviso","uf":"SC"},"geometry":{"type":"Point","coordinates":[-53.76,-28.36]}},{"type":"Feature","properties":{"id":"4218400","nome":"Treze de Maio","uf":"SC"},"geometry":{"type":"Point","coordinates":[-53.34,-28.24]}},{"type":"Feature","properties":{"id":"4218509","nome":"Treze Tílias","uf":"SC"},"geometry":{"type":"Point","coordinates":[-52.92,-28.12]}},{"type":"Feature","properties":{"id":"4218608","nome":"Trombudo Central","uf":"SC"},"geometry":{"type":"Point","coordinates":[-52.5,-28]}},{"type":"Feature","properties":{"id":"4218707","nome":"Tubarão","uf":"SC"},"geometry":{"type":"Point","coordinates":[-52.08,-27.88]}},{"type":"Feature","properties":{"id":"4218756","nome":"Tunápolis","uf":"SC"},"geometry":{"type":"Point","coordinates":[-51.66,-27.76]}},{"type":"Feature","properties":{"id":"4218806","nome":"Turvo","uf":"SC"},"geometry":{"type":"Point","coordinates":[-51.24,-27.64]}},{"type":"Feature","properties":{"id":"4218855","nome":"União do Oeste","uf":"SC"},"geometry":{"type":"Point","coordinates":[-50.82,-27.52]}},{"type":"Feature","properties":{"id":"4218905","nome":"Urubici","uf":"SC"},"geometry":{"type":"Point","coordinates":[-50.4,-27.4]}},{"type":"Feature","properties":{"id":"4218954","nome":"Urupema","uf":"SC"},"geometry":{"type":"Point","coordinates":[-49.980000000000004,-27.28]}},{"type":"Feature","properties":{"id":"4219002","nome":"Urussanga","uf":"SC"},"geometry":{"type":"Point","coordinates":[-49.56,-27.16]}},{"type":"Feature","properties":{"id":"4219101","nome":"Vargeão","uf":"SC"},"geometry":{"type":"Point","coordinates":[-49.14,-27.04]}},{"type":"Feature","properties":{"id":"4219150","nome":"Vargem","uf":"SC"},"geometry":{"type":"Point","coordinates":[-48.72,-26.92]}},{"type":"Feature","properties":{"id":"4219176","nome":"Vargem Bonita","uf":"SC"},"geometry":{"type":"Point","coordinates":[-48.3,-26.8]}},{"type":"Feature","properties":{"id":"4219200","nome":"Vidal Ramos","uf":"SC"},"geometry":{"type":"Point","coordinates":[-53.88,-26.68]}},{"type":"Feature","properties":{"id":"4219309","nome":"Videira","uf":"SC"},"geometry":{"type":"Point","coordinates":[-53.46,-26.56]}},{"type":"Feature","properties":{"id":"4219358","nome":"Vitor Meireles","uf":"SC"},"geometry":{"type":"Point","coordinates":[-53.04,-26.44]}},{"type":"Feature","properties":{"id":"4219408","nome":"Witmarsum","uf":"SC"},"geometry":{"type":"Point","coordinates":[-52.62,-26.32]}},{"type":"Feature","properties":{"id":"4219507","nome":"Xanxerê","uf":"SC"},"geometry":{"type":"Point","coordinates":[-52.2,-26.2]}},{"type":"Feature","properties":{"id":"4219606","nome":"Xavantina","uf":"SC"},"geometry":{"type":"Point","coordinates":[-51.78,-26.08]}},{"type":"Feature","properties":{"id":"4219705","nome":"Xaxim","uf":"SC"},"geometry":{"type":"Point","coordinates":[-51.36,-25.96]}},{"type":"Feature","properties":{"id":"4219853","nome":"Zortéa","uf":"SC"},"geometry":{"type":"Point","coordinates":[-50.94,-25.84]}},{"type":"Feature","properties":{"id":"4220000","nome":"Balneário Rincão","uf":"SC"},"geometry":{"type":"Point","coordinates":[-50.52,-25.72]}}]}