{"type":"FeatureCollection","features":[{"type":"Feature","properties":{"id":"1100015","nome":"Alta Floresta D'Oeste","uf":"RO"},"geometry":{"type":"Point","coordinates":[-66,-13]}},{"type":"Feature","properties":{"id":"1100023","nome":"Ariquemes","uf":"RO"},"geometry":{"type":"Point","coordinates":[-65.51,-12.82]}},{"type":"Feature","properties":{"id":"1100031","nome":"Cabixi","uf":"RO"},"geometry":{"type":"Point","coordinates":[-65.02,-12.64]}},{"type":"Feature","properties":{"id":"1100049","nome":"Cacoal","uf":"RO"},"geometry":{"type":"Point","coordinates":[-64.53,-12.46]}},{"type":"Feature","properties":{"id":"1100056","nome":"Cerejeiras","uf":"RO"},"geometry":{"type":"Point","coordinates":[-64.04,-12.28]}},{"type":"Feature","properties":{"id":"1100064","nome":"Colorado do Oeste","uf":"RO"},"geometry":{"type":"Point","coordinates":[-63.55,-12.1]}},{"type":"Feature","properties":{"id":"1100072","nome":"Corumbiara","uf":"RO"},"geometry":{"type":"Point","coordinates":[-63.06,-11.92]}},{"type":"Feature","properties":{"id":"1100080","nome":"Costa Marques","uf":"RO"},"geometry":{"type":"Point","coordinates":[-62.57,-11.74]}},{"type":"Feature","properties":{"id":"1100098","nome":"Espigão D'Oeste","uf":"RO"},"geometry":{"type":"Point","coordinates":[-62.08,-11.56]}},{"type":"Feature","properties":{"id":"1100106","nome":"Guajará-Mirim","uf":"RO"},"geometry":{"type":"Point","coordinates":[-61.59,-11.38]}},{"type":"Feature","properties":{"id":"1100114","nome":"Jaru","uf":"RO"},"geometry":{"type":"Point","coordinates":[-61.1,-11.2]}},{"type":"Feature","properties":{"id":"1100122","nome":"Ji-Paraná","uf":"RO"},"geometry":{"type":"Point","coordinates":[-60.61,-11.02]}},{"type":"Feature","properties":{"id":"1100130","nome":"Machadinho D'Oeste","uf":"RO"},"geometry":{"type":"Point","coordinates":[-60.12,-10.84]}},{"type":"Feature","properties":{"id":"1100148","nome":"Nova Brasilândia D'Oeste","uf":"RO"},"geometry":{"type":"Point","coordinates":[-59.629999999999995,-10.66]}},{"type":"Feature","properties":{"id":"1100155","nome":"Ouro Preto do Oeste","uf":"RO"},"geometry":{"type":"Point","coordinates":[-59.14,-10.48]}},{"type":"Feature","properties":{"id":"1100189","nome":"Pimenta Bueno","uf":"RO"},"geometry":{"type":"Point","coordinates":[-65.65,-10.3]}},{"type":"Feature","properties":{"id":"1100205","nome":"Porto Velho","uf":"RO"},"geometry":{"type":"Point","coordinates":[-65.16,-10.120000000000001]}},{"type":"Feature","properties":{"id":"1100254","nome":"Presidente Médici","uf":"RO"},"geometry":{"type":"Point","coordinates":[-64.67,-9.94]}},{"type":"Feature","properties":{"id":"1100262","nome":"Rio Crespo","uf":"RO"},"geometry":{"type":"Point","coordinates":[-64.18,-9.76]}},{"type":"Feature","properties":{"id":"1100288","nome":"Rolim de Moura","uf":"RO"},"geometry":{"type":"Point","coordinates":[-63.69,-9.58]}},{"type":"Feature","properties":{"id":"1100296","nome":"Santa Luzia D'Oeste","uf":"RO"},"geometry":{"type":"Point","coordinates":[-63.2,-9.4]}},{"type":"Feature","properties":{"id":"1100304","nome":"Vilhena","uf":"RO"},"geometry":{"type":"Point","coordinates":[-62.71,-9.22]}},{"type":"Feature","properties":{"id":"1100320","nome":"São Miguel do Guaporé","uf":"RO"},"geometry":{"type":"Point","coordinates":[-62.22,-9.04]}},{"type":"Feature","properties":{"id":"1100338","nome":"Nova Mamoré","uf":"RO"},"geometry":{"type":"Point","coordinates":[-61.73,-8.86]}},{"type":"Feature","properties":{"id":"1100346","nome":"Alvorada D'Oeste","uf":"RO"},"geometry":{"type":"Point","coordinates":[-61.24,-8.68]}},{"type":"Feature","properties":{"id":"1100379","nome":"Alto Alegre dos Parecis","uf":"RO"},"geometry":{"type":"Point","coordinates":[-60.75,-8.5]}},{"type":"Feature","properties":{"id":"1100403","nome":"Alto Paraíso","uf":"RO"},"geometry":{"type":"Point","coordinates":[-60.26,-8.32]}},{"type":"Feature","properties":{"id":"1100452","nome":"Buritis","uf":"RO"},"geometry":{"type":"Point","coordinates":[-59.769999999999996,-8.14]}},{"type":"Feature","properties":{"id":"1100502","nome":"Novo Horizonte do Oeste","uf":"RO"},"geometry":{"type":"Point","coordinates":[-59.28,-7.96]}},{"type":"Feature","properties":{"id":"1100601","nome":"Cacaulândia","uf":"RO"},"geometry":{"type":"Point","coordinates":[-65.79,-7.78]}},{"type":"Feature","properties":{"id":"1100700","nome":"Campo Novo de Rondônia","uf":"RO"},"geometry":{"type":"Point","coordinates":[-65.3,-7.6000000000000005]}},{"type":"Feature","properties":{"id":"1100809","nome":"Candeias do Jamari","uf":"RO"},"geometry":{"type":"Point","coordinates":[-64.81,-7.42]}},{"type":"Feature","properties":{"id":"1100908","nome":"Castanheiras","uf":"RO"},"geometry":{"type":"Point","coordinates":[-64.32,-7.24]}},{"type":"Feature","properties":{"id":"1100924","nome":"Chupinguaia","uf":"RO"},"geometry":{"type":"Point","coordinates":[-63.83,-7.0600000000000005]}},{"type":"Feature","properties":{"id":"1100940","nome":"Cujubim","uf":"RO"},"geometry":{"type":"Point","coordinates":[-63.34,-12.88]}},{"type":"Feature","properties":{"id":"1101005","nome":"Governador Jorge Teixeira","uf":"RO"},"geometry":{"type":"Point","coordinates":[-62.85,-12.7]}},{"type":"Feature","properties":{"id":"1101104","nome":"Itapuã do Oeste","uf":"RO"},"geometry":{"type":"Point","coordinates":[-62.36,-12.52]}},{"type":"Feature","properties":{"id":"1101203","nome":"Ministro Andreazza","uf":"RO"},"geometry":{"type":"Point","coordinates":[-61.87,-12.34]}},{"type":"Feature","properties":{"id":"1101302","nome":"Mirante da Serra","uf":"RO"},"geometry":{"type":"Point","coordinates":[-61.38,-12.16]}},{"type":"Feature","properties":{"id":"1101401","nome":"Monte Negro","uf":"RO"},"geometry":{"type":"Point","coordinates":[-60.89,-11.98]}},{"type":"Feature","properties":{"id":"1101435","nome":"Nova União","uf":"RO"},"geometry":{"type":"Point","coordinates":[-60.4,-11.8]}},{"type":"Feature","properties":{"id":"1101450","nome":"Parecis","uf":"RO"},"geometry":{"type":"Point","coordinates":[-59.91,-11.620000000000001]}},{"type":"Feature","properties":{"id":"1101468","nome":"Pimenteiras do Oeste","uf":"RO"},"geometry":{"type":"Point","coordinates":[-59.42,-11.44]}},{"type":"Feature","properties":{"id":"1101476","nome":"Primavera de Rondônia","uf":"RO"},"geometry":{"type":"Point","coordinates":[-65.93,-11.26]}},{"type":"Feature","properties":{"id":"1101484","nome":"São Felipe D'Oeste","uf":"RO"},"geometry":{"type":"Point","coordinates":[-65.44,-11.08]}},{"type":"Feature","properties":{"id":"1101492","nome":"São Francisco do Guaporé","uf":"RO"},"geometry":{"type":"Point","coordinates":[-64.95,-10.9]}},{"type":"Feature","properties":{"id":"1101500","nome":"Seringueiras","uf":"RO"},"geometry":{"type":"Point","coordinates":[-64.46,-10.72]}},{"type":"Feature","properties":{"id":"1101559","nome":"Teixeirópolis","uf":"RO"},"geometry":{"type":"Point","coordinates":[-63.97,-10.54]}},{"type":"Feature","properties":{"id":"1101609","nome":"Theobroma","uf":"RO"},"geometry":{"type":"Point","coordinates":[-63.48,-10.36]}},{"type":"Feature","properties":{"id":"1101708","nome":"Urupá","uf":"RO"},"geometry":{"type":"Point","coordinates":[-62.99,-10.18]}},{"type":"Feature","properties":{"id":"1101757","nome":"Vale do Anari","uf":"RO"},"geometry":{"type":"Point","coordinates":[-62.5,-10]}},{"type":"Feature","properties":{"id":"1101807","nome":"Vale do Paraíso","uf":"RO"},"geometry":{"type":"Point","coordinates":[-62.01,-9.82]}}]}