{"type":"FeatureCollection","features":[{"type":"Feature","properties":{"id":"1200013","nome":"Acrelândia","uf":"AC"},"geometry":{"type":"Point","coordinates":[-74,-11]}},{"type":"Feature","properties":{"id":"1200054","nome":"Assis Brasil","uf":"AC"},"geometry":{"type":"Point","coordinates":[-73.44,-10.88]}},{"type":"Feature","properties":{"id":"1200104","nome":"Brasiléia","uf":"AC"},"geometry":{"type":"Point","coordinates":[-72.88,-10.76]}},{"type":"Feature","properties":{"id":"1200138","nome":"Bujari","uf":"AC"},"geometry":{"type":"Point","coordinates":[-72.32,-10.64]}},{"type":"Feature","properties":{"id":"1200179","nome":"Capixaba","uf":"AC"},"geometry":{"type":"Point","coordinates":[-71.76,-10.52]}},{"type":"Feature","properties":{"id":"1200203","nome":"Cruzeiro do Sul","uf":"AC"},"geometry":{"type":"Point","coordinates":[-71.2,-10.4]}},{"type":"Feature","properties":{"id":"1200252","nome":"Epitaciolândia","uf":"AC"},"geometry":{"type":"Point","coordinates":[-70.64,-10.28]}},{"type":"Feature","properties":{"id":"1200302","nome":"Feijó","uf":"AC"},"geometry":{"type":"Point","coordinates":[-70.08,-10.16]}},{"type":"Feature","properties":{"id":"1200328","nome":"Jordão","uf":"AC"},"geometry":{"type":"Point","coordinates":[-69.52,-10.04]}},{"type":"Feature","properties":{"id":"1200336","nome":"Mâncio Lima","uf":"AC"},"geometry":{"type":"Point","coordinates":[-68.96,-9.92]}},{"type":"Feature","properties":{"id":"1200344","nome":"Manoel Urbano","uf":"AC"},"geometry":{"type":"Point","coordinates":[-68.4,-9.8]}},{"type":"Feature","properties":{"id":"1200351","nome":"Marechal Thaumaturgo","uf":"AC"},"geometry":{"type":"Point","coordinates":[-67.84,-9.68]}},{"type":"Feature","properties":{"id":"1200385","nome":"Plácido de Castro","uf":"AC"},"geometry":{"type":"Point","coordinates":[-67.28,-9.56]}},{"type":"Feature","properties":{"id":"1200393","nome":"Porto Walter","uf":"AC"},"geometry":{"type":"Point","coordinates":[-66.72,-9.44]}},{"type":"Feature","properties":{"id":"1200401","nome":"Rio Branco","uf":"AC"},"geometry":{"type":"Point","coordinates":[-66.16,-9.32]}},{"type":"Feature","properties":{"id":"1200427","nome":"Rodrigues Alves","uf":"AC"},"geometry":{"type":"Point","coordinates":[-73.6,-9.2]}},{"type":"Feature","properties":{"id":"1200435","nome":"Santa Rosa do Purus","uf":"AC"},"geometry":{"type":"Point","coordinates":[-73.04,-9.08]}},{"type":"Feature","properties":{"id":"1200450","nome":"Senador Guiomard","uf":"AC"},"geometry":{"type":"Point","coordinates":[-72.48,-8.96]}},{"type":"Feature","properties":{"id":"1200500","nome":"Sena Madureira","uf":"AC"},"geometry":{"type":"Point","coordinates":[-71.92,-8.84]}},{"type":"Feature","properties":{"id":"1200609","nome":"Tarauacá","uf":"AC"},"geometry":{"type":"Point","coordinates":[-71.36,-8.719999999999999]}},{"type":"Feature","properties":{"id":"1200708","nome":"Xapuri","uf":"AC"},"geometry":{"type":"Point","coordinates":[-70.8,-8.6]}},{"type":"Feature","properties":{"id":"1200807","nome":"Porto Acre","uf":"AC"},"geometry":{"type":"Point","coordinates":[-70.24,-8.48]}}]}