{"type":"FeatureCollection","features":[{"type":"Feature","properties":{"id":"1300029","nome":"Alvarães","uf":"AM"},"geometry":{"type":"Point","coordinates":[-74,-10]}},{"type":"Feature","properties":{"id":"1300060","nome":"Amaturá","uf":"AM"},"geometry":{"type":"Point","coordinates":[-72.74,-9.64]}},{"type":"Feature","properties":{"id":"1300086","nome":"Anamã","uf":"AM"},"geometry":{"type":"Point","coordinates":[-71.48,-9.28]}},{"type":"Feature","properties":{"id":"1300102","nome":"Anori","uf":"AM"},"geometry":{"type":"Point","coordinates":[-70.22,-8.92]}},{"type":"Feature","properties":{"id":"1300144","nome":"Apuí","uf":"AM"},"geometry":{"type":"Point","coordinates":[-68.96,-8.56]}},{"type":"Feature","properties":{"id":"1300201","nome":"Atalaia do Norte","uf":"AM"},"geometry":{"type":"Point","coordinates":[-67.7,-8.2]}},{"type":"Feature","properties":{"id":"1300300","nome":"Autazes","uf":"AM"},"geometry":{"type":"Point","coordinates":[-66.44,-7.84]}},{"type":"Feature","properties":{"id":"1300409","nome":"Barcelos","uf":"AM"},"geometry":{"type":"Point","coordinates":[-65.18,-7.48]}},{"type":"Feature","properties":{"id":"1300508","nome":"Barreirinha","uf":"AM"},"geometry":{"type":"Point","coordinates":[-63.92,-7.12]}},{"type":"Feature","properties":{"id":"1300607","nome":"Benjamin Constant","uf":"AM"},"geometry":{"type":"Point","coordinates":[-62.66,-6.76]}},{"type":"Feature","properties":{"id":"1300631","nome":"Beruri","uf":"AM"},"geometry":{"type":"Point","coordinates":[-61.4,-6.4]}},{"type":"Feature","properties":{"id":"1300680","nome":"Boa Vista do Ramos","uf":"AM"},"geometry":{"type":"Point","coordinates":[-60.14,-6.04]}},{"type":"Feature","properties":{"id":"1300706","nome":"Boca do Acre","uf":"AM"},"geometry":{"type":"Point","coordinates":[-58.88,-5.68]}},{"type":"Feature","properties":{"id":"1300805","nome":"Borba","uf":"AM"},"geometry":{"type":"Point","coordinates":[-57.620000000000005,-5.32]}},{"type":"Feature","properties":{"id":"1300839","nome":"Caapiranga","uf":"AM"},"geometry":{"type":"Point","coordinates":[-56.36,-4.96]}},{"type":"Feature","properties":{"id":"1300904","nome":"Canutama","uf":"AM"},"geometry":{"type":"Point","coordinates":[-73.1,-4.6000000000000005]}},{"type":"Feature","properties":{"id":"1301001","nome":"Carauari","uf":"AM"},"geometry":{"type":"Point","coordinates":[-71.84,-4.24]}},{"type":"Feature","properties":{"id":"1301100","nome":"Careiro","uf":"AM"},"geometry":{"type":"Point","coordinates":[-70.58,-3.88]}},{"type":"Feature","properties":{"id":"1301159","nome":"Careiro da Várzea","uf":"AM"},"geometry":{"type":"Point","coordinates":[-69.32,-3.5200000000000005]}},{"type":"Feature","properties":{"id":"1301209","nome":"Coari","uf":"AM"},"geometry":{"type":"Point","coordinates":[-68.06,-3.16]}},{"type":"Feature","properties":{"id":"1301308","nome":"Codajás","uf":"AM"},"geometry":{"type":"Point","coordinates":[-66.8,-2.8000000000000007]}},{"type":"Feature","properties":{"id":"1301407","nome":"Eirunepé","uf":"AM"},"geometry":{"type":"Point","coordinates":[-65.54,-2.4400000000000004]}},{"type":"Feature","properties":{"id":"1301506","nome":"Envira","uf":"AM"},"geometry":{"type":"Point","coordinates":[-64.28,-2.08]}},{"type":"Feature","properties":{"id":"1301605","nome":"Fonte Boa","uf":"AM"},"geometry":{"type":"Point","coordinates":[-63.019999999999996,-1.7200000000000006]}},{"type":"Feature","properties":{"id":"1301654","nome":"Guajará","uf":"AM"},"geometry":{"type":"Point","coordinates":[-61.76,-1.3599999999999994]}},{"type":"Feature","properties":{"id":"1301704","nome":"Humaitá","uf":"AM"},"geometry":{"type":"Point","coordinates":[-60.5,-1]}},{"type":"Feature","properties":{"id":"1301803","nome":"Ipixuna","uf":"AM"},"geometry":{"type":"Point","coordinates":[-59.24,-0.6400000000000006]}},{"type":"Feature","properties":{"id":"1301852","nome":"Iranduba","uf":"AM"},"geometry":{"type":"Point","coordinates":[-57.980000000000004,-0.28000000000000114]}},{"type":"Feature","properties":{"id":"1301902","nome":"Itacoatiara","uf":"AM"},"geometry":{"type":"Point","coordinates":[-56.72,0.08000000000000007]}},{"type":"Feature","properties":{"id":"1301951","nome":"Itamarati","uf":"AM"},"geometry":{"type":"Point","coordinates":[-73.46,0.4399999999999995]}},{"type":"Feature","properties":{"id":"1302009","nome":"Itapiranga","uf":"AM"},"geometry":{"type":"Point","coordinates":[-72.2,0.7999999999999989]}},{"type":"Feature","properties":{"id":"1302108","nome":"Japurá","uf":"AM"},"geometry":{"type":"Point","coordinates":[-70.94,1.1600000000000001]}},{"type":"Feature","properties":{"id":"1302207","nome":"Juruá","uf":"AM"},"geometry":{"type":"Point","coordinates":[-69.68,1.5199999999999996]}},{"type":"Feature","properties":{"id":"1302306","nome":"Jutaí","uf":"AM"},"geometry":{"type":"Point","coordinates":[-68.42,1.879999999999999]}},{"type":"Feature","properties":{"id":"1302405","nome":"Lábrea","uf":"AM"},"geometry":{"type":"Point","coordinates":[-67.16,-9.76]}},{"type":"Feature","properties":{"id":"1302504","nome":"Manacapuru","uf":"AM"},"geometry":{"type":"Point","coordinates":[-65.9,-9.4]}},{"type":"Feature","properties":{"id":"1302553","nome":"Manaquiri","uf":"AM"},"geometry":{"type":"Point","coordinates":[-64.64,-9.04]}},{"type":"Feature","properties":{"id":"1302603","nome":"Manaus","uf":"AM"},"geometry":{"type":"Point","coordinates":[-63.38,-8.68]}},{"type":"Feature","properties":{"id":"1302702","nome":"Manicoré","uf":"AM"},"geometry":{"type":"Point","coordinates":[-62.120000000000005,-8.32]}},{"type":"Feature","properties":{"id":"1302801","nome":"Maraã","uf":"AM"},"geometry":{"type":"Point","coordinates":[-60.86,-7.96]}},{"type":"Feature","properties":{"id":"1302900","nome":"Maués","uf":"AM"},"geometry":{"type":"Point","coordinates":[-59.6,-7.6]}},{"type":"Feature","properties":{"id":"1303007","nome":"Nhamundá","uf":"AM"},"geometry":{"type":"Point","coordinates":[-58.34,-7.24]}},{"type":"Feature","properties":{"id":"1303106","nome":"Nova Olinda do Norte","uf":"AM"},"geometry":{"type":"Point","coordinates":[-57.08,-6.88]}},{"type":"Feature","properties":{"id":"1303205","nome":"Novo Airão","uf":"AM"},"geometry":{"type":"Point","coordinates":[-73.82,-6.52]}},{"type":"Feature","properties":{"id":"1303304","nome":"Novo Aripuanã","uf":"AM"},"geometry":{"type":"Point","coordinates":[-72.56,-6.16]}},{"type":"Feature","properties":{"id":"1303403","nome":"Parintins","uf":"AM"},"geometry":{"type":"Point","coordinates":[-71.3,-5.8]}},{"type":"Feature","properties":{"id":"1303502","nome":"Pauini","uf":"AM"},"geometry":{"type":"Point","coordinates":[-70.04,-5.44]}},{"type":"Feature","properties":{"id":"1303536","nome":"Presidente Figueiredo","uf":"AM"},"geometry":{"type":"Point","coordinates":[-68.78,-5.08]}},{"type":"Feature","properties":{"id":"1303569","nome":"Rio Preto da Eva","uf":"AM"},"geometry":{"type":"Point","coordinates":[-67.52,-4.720000000000001]}},{"type":"Feature","properties":{"id":"1303601","nome":"Santa Isabel do Rio Negro","uf":"AM"},"geometry":{"type":"Point","coordinates":[-66.26,-4.36]}},{"type":"Feature","properties":{"id":"1303700","nome":"Santo Antônio do Içá","uf":"AM"},"geometry":{"type":"Point","coordinates":[-65,-4]}},{"type":"Feature","properties":{"id":"1303809","nome":"São Gabriel da Cachoeira","uf":"AM"},"geometry":{"type":"Point","coordinates":[-63.74,-3.6400000000000006]}},{"type":"Feature","properties":{"id":"1303908","nome":"São Paulo de Olivença","uf":"AM"},"geometry":{"type":"Point","coordinates":[-62.480000000000004,-3.2800000000000002]}},{"type":"Feature","properties":{"id":"1303957","nome":"São Sebastião do Uatumã","uf":"AM"},"geometry":{"type":"Point","coordinates":[-61.22,-2.92]}},{"type":"Feature","properties":{"id":"1304005","nome":"Silves","uf":"AM"},"geometry":{"type":"Point","coordinates":[-59.96,-2.5600000000000005]}},{"type":"Feature","properties":{"id":"1304062","nome":"Tabatinga","uf":"AM"},"geometry":{"type":"Point","coordinates":[-58.7,-2.2]}},{"type":"Feature","properties":{"id":"1304104","nome":"Tapauá","uf":"AM"},"geometry":{"type":"Point","coordinates":[-57.44,-1.8399999999999999]}},{"type":"Feature","properties":{"id":"1304203","nome":"Tefé","uf":"AM"},"geometry":{"type":"Point","coordinates":[-56.18,-1.4800000000000004]}},{"type":"Feature","properties":{"id":"1304237","nome":"Tonantins","uf":"AM"},"geometry":{"type":"Point","coordinates":[-72.92,-1.120000000000001]}},{"type":"Feature","properties":{"id":"1304260","nome":"Uarini","uf":"AM"},"geometry":{"type":"Point","coordinates":[-71.66,-0.7599999999999998]}},{"type":"Feature","properties":{"id":"1304302","nome":"Urucará","uf":"AM"},"geometry":{"type":"Point","coordinates":[-70.4,-0.40000000000000036]}},{"type":"Feature","properties":{"id":"1304401","nome":"Urucurituba","uf":"AM"},"geometry":{"type":"Point","coordinates":[-69.14,-0.040000000000000924]}}]}