{"type":"FeatureCollection","features":[{"type":"Feature","properties":{"id":"1400027","nome":"Amajari","uf":"RR"},"geometry":{"type":"Point","coordinates":[-65,1]}},{"type":"Feature","properties":{"id":"1400050","nome":"Alto Alegre","uf":"RR"},"geometry":{"type":"Point","coordinates":[-64.58,1.15]}},{"type":"Feature","properties":{"id":"1400100","nome":"Boa Vista","uf":"RR"},"geometry":{"type":"Point","coordinates":[-64.16,1.3]}},{"type":"Feature","properties":{"id":"1400159","nome":"Bonfim","uf":"RR"},"geometry":{"type":"Point","coordinates":[-63.74,1.45]}},{"type":"Feature","properties":{"id":"1400175","nome":"Cantá","uf":"RR"},"geometry":{"type":"Point","coordinates":[-63.32,1.6]}},{"type":"Feature","properties":{"id":"1400209","nome":"Caracaraí","uf":"RR"},"geometry":{"type":"Point","coordinates":[-62.9,1.75]}},{"type":"Feature","properties":{"id":"1400233","nome":"Caroebe","uf":"RR"},"geometry":{"type":"Point","coordinates":[-62.48,1.9]}},{"type":"Feature","properties":{"id":"1400282","nome":"Iracema","uf":"RR"},"geometry":{"type":"Point","coordinates":[-62.06,2.05]}},{"type":"Feature","properties":{"id":"1400308","nome":"Mucajaí","uf":"RR"},"geometry":{"type":"Point","coordinates":[-61.64,2.2]}},{"type":"Feature","properties":{"id":"1400407","nome":"Normandia","uf":"RR"},"geometry":{"type":"Point","coordinates":[-61.22,2.35]}},{"type":"Feature","properties":{"id":"1400456","nome":"Pacaraima","uf":"RR"},"geometry":{"type":"Point","coordinates":[-60.8,2.5]}},{"type":"Feature","properties":{"id":"1400472","nome":"Rorainópolis","uf":"RR"},"geometry":{"type":"Point","coordinates":[-60.38,2.6500000000000004]}},{"type":"Feature","properties":{"id":"1400506","nome":"São João da Baliza","uf":"RR"},"geometry":{"type":"Point","coordinates":[-59.96,2.8]}},{"type":"Feature","properties":{"id":"1400605","nome":"São Luiz do Anauá","uf":"RR"},"geometry":{"type":"Point","coordinates":[-59.54,2.95]}},{"type":"Feature","properties":{"id":"1400704","nome":"Uiramutã","uf":"RR"},"geometry":{"type":"Point","coordinates":[-59.12,3.1]}}]}