{"type":"FeatureCollection","features":[{"type":"Feature","properties":{"id":"1500107","nome":"Abaetetuba","uf":"PA"},"geometry":{"type":"Point","coordinates":[-58,-10]}},{"type":"Feature","properties":{"id":"1500131","nome":"Abel Figueiredo","uf":"PA"},"geometry":{"type":"Point","coordinates":[-57.16,-9.64]}},{"type":"Feature","properties":{"id":"1500206","nome":"Acará","uf":"PA"},"geometry":{"type":"Point","coordinates":[-56.32,-9.28]}},{"type":"Feature","properties":{"id":"1500305","nome":"Afuá","uf":"PA"},"geometry":{"type":"Point","coordinates":[-55.48,-8.92]}},{"type":"Feature","properties":{"id":"1500347","nome":"Água Azul do Norte","uf":"PA"},"geometry":{"type":"Point","coordinates":[-54.64,-8.56]}},{"type":"Feature","properties":{"id":"1500404","nome":"Alenquer","uf":"PA"},"geometry":{"type":"Point","coordinates":[-53.8,-8.2]}},{"type":"Feature","properties":{"id":"1500503","nome":"Almeirim","uf":"PA"},"geometry":{"type":"Point","coordinates":[-52.96,-7.84]}},{"type":"Feature","properties":{"id":"1500602","nome":"Altamira","uf":"PA"},"geometry":{"type":"Point","coordinates":[-52.12,-7.48]}},{"type":"Feature","properties":{"id":"1500701","nome":"Anajás","uf":"PA"},"geometry":{"type":"Point","coordinates":[-51.28,-7.12]}},{"type":"Feature","properties":{"id":"1500800","nome":"Ananindeua","uf":"PA"},"geometry":{"type":"Point","coordinates":[-50.44,-6.76]}},{"type":"Feature","properties":{"id":"1500859","nome":"Anapu","uf":"PA"},"geometry":{"type":"Point","coordinates":[-49.6,-6.4]}},{"type":"Feature","properties":{"id":"1500909","nome":"Augusto Corrêa","uf":"PA"},"geometry":{"type":"Point","coordinates":[-48.76,-6.04]}},{"type":"Feature","properties":{"id":"1500958","nome":"Aurora do Pará","uf":"PA"},"geometry":{"type":"Point","coordinates":[-47.92,-5.68]}},{"type":"Feature","properties":{"id":"1501006","nome":"Aveiro","uf":"PA"},"geometry":{"type":"Point","coordinates":[-47.08,-5.32]}},{"type":"Feature","properties":{"id":"1501105","nome":"Bagre","uf":"PA"},"geometry":{"type":"Point","coordinates":[-46.24,-4.96]}},{"type":"Feature","properties":{"id":"1501204","nome":"Baião","uf":"PA"},"geometry":{"type":"Point","coordinates":[-57.4,-4.6000000000000005]}},{"type":"Feature","properties":{"id":"1501253","nome":"Bannach","uf":"PA"},"geometry":{"type":"Point","coordinates":[-56.56,-4.24]}},{"type":"Feature","properties":{"id":"1501303","nome":"Barcarena","uf":"PA"},"geometry":{"type":"Point","coordinates":[-55.72,-3.88]}},{"type":"Feature","properties":{"id":"1501402","nome":"Belém","uf":"PA"},"geometry":{"type":"Point","coordinates":[-54.88,-3.5200000000000005]}},{"type":"Feature","properties":{"id":"1501451","nome":"Belterra","uf":"PA"},"geometry":{"type":"Point","coordinates":[-54.04,-3.16]}},{"type":"Feature","properties":{"id":"1501501","nome":"Benevides","uf":"PA"},"geometry":{"type":"Point","coordinates":[-53.2,-2.8000000000000007]}},{"type":"Feature","properties":{"id":"1501576","nome":"Bom Jesus do Tocantins","uf":"PA"},"geometry":{"type":"Point","coordinates":[-52.36,-2.4400000000000004]}},{"type":"Feature","properties":{"id":"1501600","nome":"Bonito","uf":"PA"},"geometry":{"type":"Point","coordinates":[-51.52,-2.08]}},{"type":"Feature","properties":{"id":"1501709","nome":"Bragança","uf":"PA"},"geometry":{"type":"Point","coordinates":[-50.68,-1.7200000000000006]}},{"type":"Feature","properties":{"id":"1501725","nome":"Brasil Novo","uf":"PA"},"geometry":{"type":"Point","coordinates":[-49.84,-1.3599999999999994]}},{"type":"Feature","properties":{"id":"1501758","nome":"Brejo Grande do Araguaia","uf":"PA"},"geometry":{"type":"Point","coordinates":[-49,-1]}},{"type":"Feature","properties":{"id":"1501782","nome":"Breu Branco","uf":"PA"},"geometry":{"type":"Point","coordinates":[-48.16,-0.6400000000000006]}},{"type":"Feature","properties":{"id":"1501808","nome":"Breves","uf":"PA"},"geometry":{"type":"Point","coordinates":[-47.32,-0.28000000000000114]}},{"type":"Feature","properties":{"id":"1501907","nome":"Bujaru","uf":"PA"},"geometry":{"type":"Point","coordinates":[-46.480000000000004,0.08000000000000007]}},{"type":"Feature","properties":{"id":"1501956","nome":"Cachoeira do Piriá","uf":"PA"},"geometry":{"type":"Point","coordinates":[-57.64,0.4399999999999995]}},{"type":"Feature","properties":{"id":"1502004","nome":"Cachoeira do Arari","uf":"PA"},"geometry":{"type":"Point","coordinates":[-56.8,0.7999999999999989]}},{"type":"Feature","properties":{"id":"1502103","nome":"Cametá","uf":"PA"},"geometry":{"type":"Point","coordinates":[-55.96,1.1600000000000001]}},{"type":"Feature","properties":{"id":"1502152","nome":"Canaã dos Carajás","uf":"PA"},"geometry":{"type":"Point","coordinates":[-55.12,1.5199999999999996]}},{"type":"Feature","properties":{"id":"1502202","nome":"Capanema","uf":"PA"},"geometry":{"type":"Point","coordinates":[-54.28,1.879999999999999]}},{"type":"Feature","properties":{"id":"1502301","nome":"Capitão Poço","uf":"PA"},"geometry":{"type":"Point","coordinates":[-53.44,-9.76]}},{"type":"Feature","properties":{"id":"1502400","nome":"Castanhal","uf":"PA"},"geometry":{"type":"Point","coordinates":[-52.6,-9.4]}},{"type":"Feature","properties":{"id":"1502509","nome":"Chaves","uf":"PA"},"geometry":{"type":"Point","coordinates":[-51.76,-9.04]}},{"type":"Feature","properties":{"id":"1502608","nome":"Colares","uf":"PA"},"geometry":{"type":"Point","coordinates":[-50.92,-8.68]}},{"type":"Feature","properties":{"id":"1502707","nome":"Conceição do Araguaia","uf":"PA"},"geometry":{"type":"Point","coordinates":[-50.08,-8.32]}},{"type":"Feature","properties":{"id":"1502756","nome":"Concórdia do Pará","uf":"PA"},"geometry":{"type":"Point","coordinates":[-49.24,-7.96]}},{"type":"Feature","properties":{"id":"1502764","nome":"Cumaru do Norte","uf":"PA"},"geometry":{"type":"Point","coordinates":[-48.4,-7.6]}},{"type":"Feature","properties":{"id":"1502772","nome":"Curionópolis","uf":"PA"},"geometry":{"type":"Point","coordinates":[-47.56,-7.24]}},{"type":"Feature","properties":{"id":"1502806","nome":"Curralinho","uf":"PA"},"geometry":{"type":"Point","coordinates":[-46.72,-6.88]}},{"type":"Feature","properties":{"id":"1502855","nome":"Curuá","uf":"PA"},"geometry":{"type":"Point","coordinates":[-57.88,-6.52]}},{"type":"Feature","properties":{"id":"1502905","nome":"Curuçá","uf":"PA"},"geometry":{"type":"Point","coordinates":[-57.04,-6.16]}},{"type":"Feature","properties":{"id":"1502939","nome":"Dom Eliseu","uf":"PA"},"geometry":{"type":"Point","coordinates":[-56.2,-5.8]}},{"type":"Feature","properties":{"id":"1502954","nome":"Eldorado do Carajás","uf":"PA"},"geometry":{"type":"Point","coordinates":[-55.36,-5.44]}},{"type":"Feature","properties":{"id":"1503002","nome":"Faro","uf":"PA"},"geometry":{"type":"Point","coordinates":[-54.52,-5.08]}},{"type":"Feature","properties":{"id":"1503044","nome":"Floresta do Araguaia","uf":"PA"},"geometry":{"type":"Point","coordinates":[-53.68,-4.720000000000001]}},{"type":"Feature","properties":{"id":"1503077","nome":"Garrafão do Norte","uf":"PA"},"geometry":{"type":"Point","coordinates":[-52.84,-4.36]}},{"type":"Feature","properties":{"id":"1503093","nome":"Goianésia do Pará","uf":"PA"},"geometry":{"type":"Point","coordinates":[-52,-4]}},{"type":"Feature","properties":{"id":"1503101","nome":"Gurupá","uf":"PA"},"geometry":{"type":"Point","coordinates":[-51.16,-3.6400000000000006]}},{"type":"Feature","properties":{"id":"1503200","nome":"Igarapé-Açu","uf":"PA"},"geometry":{"type":"Point","coordinates":[-50.32,-3.2800000000000002]}},{"type":"Feature","properties":{"id":"1503309","nome":"Igarapé-Miri","uf":"PA"},"geometry":{"type":"Point","coordinates":[-49.480000000000004,-2.92]}},{"type":"Feature","properties":{"id":"1503408","nome":"Inhangapi","uf":"PA"},"geometry":{"type":"Point","coordinates":[-48.64,-2.5600000000000005]}},{"type":"Feature","properties":{"id":"1503457","nome":"Ipixuna do Pará","uf":"PA"},"geometry":{"type":"Point","coordinates":[-47.8,-2.2]}},{"type":"Feature","properties":{"id":"1503507","nome":"Irituia","uf":"PA"},"geometry":{"type":"Point","coordinates":[-46.96,-1.8399999999999999]}},{"type":"Feature","properties":{"id":"1503606","nome":"Itaituba","uf":"PA"},"geometry":{"type":"Point","coordinates":[-46.120000000000005,-1.4800000000000004]}},{"type":"Feature","properties":{"id":"1503705","nome":"Itupiranga","uf":"PA"},"geometry":{"type":"Point","coordinates":[-57.28,-1.120000000000001]}},{"type":"Feature","properties":{"id":"1503754","nome":"Jacareacanga","uf":"PA"},"geometry":{"type":"Point","coordinates":[-56.44,-0.7599999999999998]}},{"type":"Feature","properties":{"id":"1503804","nome":"Jacundá","uf":"PA"},"geometry":{"type":"Point","coordinates":[-55.6,-0.40000000000000036]}},{"type":"Feature","properties":{"id":"1503903","nome":"Juruti","uf":"PA"},"geometry":{"type":"Point","coordinates":[-54.76,-0.040000000000000924]}},{"type":"Feature","properties":{"id":"1504000","nome":"Limoeiro do Ajuru","uf":"PA"},"geometry":{"type":"Point","coordinates":[-53.92,0.3200000000000003]}},{"type":"Feature","properties":{"id":"1504059","nome":"Mãe do Rio","uf":"PA"},"geometry":{"type":"Point","coordinates":[-53.08,0.6799999999999997]}},{"type":"Feature","properties":{"id":"1504109","nome":"Magalhães Barata","uf":"PA"},"geometry":{"type":"Point","coordinates":[-52.24,1.0399999999999991]}},{"type":"Feature","properties":{"id":"1504208","nome":"Marabá","uf":"PA"},"geometry":{"type":"Point","coordinates":[-51.4,1.4000000000000004]}},{"type":"Feature","properties":{"id":"1504307","nome":"Maracanã","uf":"PA"},"geometry":{"type":"Point","coordinates":[-50.56,1.7599999999999998]}},{"type":"Feature","properties":{"id":"1504406","nome":"Marapanim","uf":"PA"},"geometry":{"type":"Point","coordinates":[-49.72,-9.88]}},{"type":"Feature","properties":{"id":"1504422","nome":"Marituba","uf":"PA"},"geometry":{"type":"Point","coordinates":[-48.88,-9.52]}},{"type":"Feature","properties":{"id":"1504455","nome":"Medicilândia","uf":"PA"},"geometry":{"type":"Point","coordinates":[-48.04,-9.16]}},{"type":"Feature","properties":{"id":"1504505","nome":"Melgaço","uf":"PA"},"geometry":{"type":"Point","coordinates":[-47.2,-8.8]}},{"type":"Feature","properties":{"id":"1504604","nome":"Mocajuba","uf":"PA"},"geometry":{"type":"Point","coordinates":[-46.36,-8.44]}},{"type":"Feature","properties":{"id":"1504703","nome":"Moju","uf":"PA"},"geometry":{"type":"Point","coordinates":[-57.52,-8.08]}},{"type":"Feature","properties":{"id":"1504752","nome":"Mojuí dos Campos","uf":"PA"},"geometry":{"type":"Point","coordinates":[-56.68,-7.720000000000001]}},{"type":"Feature","properties":{"id":"1504802","nome":"Monte Alegre","uf":"PA"},"geometry":{"type":"Point","coordinates":[-55.84,-7.36]}},{"type":"Feature","properties":{"id":"1504901","nome":"Muaná","uf":"PA"},"geometry":{"type":"Point","coordinates":[-55,-7]}},{"type":"Feature","properties":{"id":"1504950","nome":"Nova Esperança do Piriá","uf":"PA"},"geometry":{"type":"Point","coordinates":[-54.16,-6.640000000000001]}},{"type":"Feature","properties":{"id":"1504976","nome":"Nova Ipixuna","uf":"PA"},"geometry":{"type":"Point","coordinates":[-53.32,-6.28]}},{"type":"Feature","properties":{"id":"1505007","nome":"Nova Timboteua","uf":"PA"},"geometry":{"type":"Point","coordinates":[-52.480000000000004,-5.92]}},{"type":"Feature","properties":{"id":"1505031","nome":"Novo Progresso","uf":"PA"},"geometry":{"type":"Point","coordinates":[-51.64,-5.5600000000000005]}},{"type":"Feature","properties":{"id":"1505064","nome":"Novo Repartimento","uf":"PA"},"geometry":{"type":"Point","coordinates":[-50.8,-5.2]}},{"type":"Feature","properties":{"id":"1505106","nome":"Óbidos","uf":"PA"},"geometry":{"type":"Point","coordinates":[-49.96,-4.84]}},{"type":"Feature","properties":{"id":"1505205","nome":"Oeiras do Pará","uf":"PA"},"geometry":{"type":"Point","coordinates":[-49.120000000000005,-4.48]}},{"type":"Feature","properties":{"id":"1505304","nome":"Oriximiná","uf":"PA"},"geometry":{"type":"Point","coordinates":[-48.28,-4.12]}},{"type":"Feature","properties":{"id":"1505403","nome":"Ourém","uf":"PA"},"geometry":{"type":"Point","coordinates":[-47.44,-3.76]}},{"type":"Feature","properties":{"id":"1505437","nome":"Ourilândia do Norte","uf":"PA"},"geometry":{"type":"Point","coordinates":[-46.6,-3.4000000000000004]}},{"type":"Feature","properties":{"id":"1505486","nome":"Pacajá","uf":"PA"},"geometry":{"type":"Point","coordinates":[-57.76,-3.04]}},{"type":"Feature","properties":{"id":"1505494","nome":"Palestina do Pará","uf":"PA"},"geometry":{"type":"Point","coordinates":[-56.92,-2.6800000000000006]}},{"type":"Feature","properties":{"id":"1505502","nome":"Paragominas","uf":"PA"},"geometry":{"type":"Point","coordinates":[-56.08,-2.3200000000000003]}},{"type":"Feature","properties":{"id":"1505536","nome":"Parauapebas","uf":"PA"},"geometry":{"type":"Point","coordinates":[-55.24,-1.9600000000000009]}},{"type":"Feature","properties":{"id":"1505551","nome":"Pau D'Arco","uf":"PA"},"geometry":{"type":"Point","coordinates":[-54.4,-1.5999999999999996]}},{"type":"Feature","properties":{"id":"1505601","nome":"Peixe-Boi","uf":"PA"},"geometry":{"type":"Point","coordinates":[-53.56,-1.2400000000000002]}},{"type":"Feature","properties":{"id":"1505635","nome":"Piçarra","uf":"PA"},"geometry":{"type":"Point","coordinates":[-52.72,-0.8800000000000008]}},{"type":"Feature","properties":{"id":"1505650","nome":"Placas","uf":"PA"},"geometry":{"type":"Point","coordinates":[-51.88,-0.5199999999999996]}},{"type":"Feature","properties":{"id":"1505700","nome":"Ponta de Pedras","uf":"PA"},"geometry":{"type":"Point","coordinates":[-51.04,-0.16000000000000014]}},{"type":"Feature","properties":{"id":"1505809","nome":"Portel","uf":"PA"},"geometry":{"type":"Point","coordinates":[-50.2,0.1999999999999993]}},{"type":"Feature","properties":{"id":"1505908","nome":"Porto de Moz","uf":"PA"},"geometry":{"type":"Point","coordinates":[-49.36,0.5599999999999987]}},{"type":"Feature","properties":{"id":"1506005","nome":"Prainha","uf":"PA"},"geometry":{"type":"Point","coordinates":[-48.519999999999996,0.9199999999999999]}},{"type":"Feature","properties":{"id":"1506104","nome":"Primavera","uf":"PA"},"geometry":{"type":"Point","coordinates":[-47.68,1.2799999999999994]}},{"type":"Feature","properties":{"id":"1506112","nome":"Quatipuru","uf":"PA"},"geometry":{"type":"Point","coordinates":[-46.84,1.6399999999999988]}},{"type":"Feature","properties":{"id":"1506138","nome":"Redenção","uf":"PA"},"geometry":{"type":"Point","coordinates":[-58,-10]}},{"type":"Feature","properties":{"id":"1506161","nome":"Rio Maria","uf":"PA"},"geometry":{"type":"Point","coordinates":[-57.16,-9.64]}},{"type":"Feature","properties":{"id":"1506187","nome":"Rondon do Pará","uf":"PA"},"geometry":{"type":"Point","coordinates":[-56.32,-9.28]}},{"type":"Feature","properties":{"id":"1506195","nome":"Rurópolis","uf":"PA"},"geometry":{"type":"Point","coordinates":[-55.48,-8.92]}},{"type":"Feature","properties":{"id":"1506203","nome":"Salinópolis","uf":"PA"},"geometry":{"type":"Point","coordinates":[-54.64,-8.56]}},{"type":"Feature","properties":{"id":"1506302","nome":"Salvaterra","uf":"PA"},"geometry":{"type":"Point","coordinates":[-53.8,-8.2]}},{"type":"Feature","properties":{"id":"1506351","nome":"Santa Bárbara do Pará","uf":"PA"},"geometry":{"type":"Point","coordinates":[-52.96,-7.84]}},{"type":"Feature","properties":{"id":"1506401","nome":"Santa Cruz do Arari","uf":"PA"},"geometry":{"type":"Point","coordinates":[-52.12,-7.48]}},{"type":"Feature","properties":{"id":"1506500","nome":"Santa Izabel do Pará","uf":"PA"},"geometry":{"type":"Point","coordinates":[-51.28,-7.12]}},{"type":"Feature","properties":{"id":"1506559","nome":"Santa Luzia do Pará","uf":"PA"},"geometry":{"type":"Point","coordinates":[-50.44,-6.76]}},{"type":"Feature","properties":{"id":"1506583","nome":"Santa Maria das Barreiras","uf":"PA"},"geometry":{"type":"Point","coordinates":[-49.6,-6.4]}},{"type":"Feature","properties":{"id":"1506609","nome":"Santa Maria do Pará","uf":"PA"},"geometry":{"type":"Point","coordinates":[-48.76,-6.04]}},{"type":"Feature","properties":{"id":"1506708","nome":"Santana do Araguaia","uf":"PA"},"geometry":{"type":"Point","coordinates":[-47.92,-5.68]}},{"type":"Feature","properties":{"id":"1506807","nome":"Santarém","uf":"PA"},"geometry":{"type":"Point","coordinates":[-47.08,-5.32]}},{"type":"Feature","properties":{"id":"1506906","nome":"Santarém Novo","uf":"PA"},"geometry":{"type":"Point","coordinates":[-46.24,-4.96]}},{"type":"Feature","properties":{"id":"1507003","nome":"Santo Antônio do Tauá","uf":"PA"},"geometry":{"type":"Point","coordinates":[-57.4,-4.6000000000000005]}},{"type":"Feature","properties":{"id":"1507102","nome":"São Caetano de Odivelas","uf":"PA"},"geometry":{"type":"Point","coordinates":[-56.56,-4.24]}},{"type":"Feature","properties":{"id":"1507151","nome":"São Domingos do Araguaia","uf":"PA"},"geometry":{"type":"Point","coordinates":[-55.72,-3.88]}},{"type":"Feature","properties":{"id":"1507201","nome":"São Domingos do Capim","uf":"PA"},"geometry":{"type":"Point","coordinates":[-54.88,-3.5200000000000005]}},{"type":"Feature","properties":{"id":"1507300","nome":"São Félix do Xingu","uf":"PA"},"geometry":{"type":"Point","coordinates":[-54.04,-3.16]}},{"type":"Feature","properties":{"id":"1507409","nome":"São Francisco do Pará","uf":"PA"},"geometry":{"type":"Point","coordinates":[-53.2,-2.8000000000000007]}},{"type":"Feature","properties":{"id":"1507458","nome":"São Geraldo do Araguaia","uf":"PA"},"geometry":{"type":"Point","coordinates":[-52.36,-2.4400000000000004]}},{"type":"Feature","properties":{"id":"1507466","nome":"São João da Ponta","uf":"PA"},"geometry":{"type":"Point","coordinates":[-51.52,-2.08]}},{"type":"Feature","properties":{"id":"1507474","nome":"São João de Pirabas","uf":"PA"},"geometry":{"type":"Point","coordinates":[-50.68,-1.7200000000000006]}},{"type":"Feature","properties":{"id":"1507508","nome":"São João do Araguaia","uf":"PA"},"geometry":{"type":"Point","coordinates":[-49.84,-1.3599999999999994]}},{"type":"Feature","properties":{"id":"1507607","nome":"São Miguel do Guamá","uf":"PA"},"geometry":{"type":"Point","coordinates":[-49,-1]}},{"type":"Feature","properties":{"id":"1507706","nome":"São Sebastião da Boa Vista","uf":"PA"},"geometry":{"type":"Point","coordinates":[-48.16,-0.6400000000000006]}},{"type":"Feature","properties":{"id":"1507755","nome":"Sapucaia","uf":"PA"},"geometry":{"type":"Point","coordinates":[-47.32,-0.28000000000000114]}},{"type":"Feature","properties":{"id":"1507805","nome":"Senador José Porfírio","uf":"PA"},"geometry":{"type":"Point","coordinates":[-46.480000000000004,0.08000000000000007]}},{"type":"Feature","properties":{"id":"1507904","nome":"Soure","uf":"PA"},"geometry":{"type":"Point","coordinates":[-57.64,0.4399999999999995]}},{"type":"Feature","properties":{"id":"1507953","nome":"Tailândia","uf":"PA"},"geometry":{"type":"Point","coordinates":[-56.8,0.7999999999999989]}},{"type":"Feature","properties":{"id":"1507961","nome":"Terra Alta","uf":"PA"},"geometry":{"type":"Point","coordinates":[-55.96,1.1600000000000001]}},{"type":"Feature","properties":{"id":"1507979","nome":"Terra Santa","uf":"PA"},"geometry":{"type":"Point","coordinates":[-55.12,1.5199999999999996]}},{"type":"Feature","properties":{"id":"1508001","nome":"Tomé-Açu","uf":"PA"},"geometry":{"type":"Point","coordinates":[-54.28,1.879999999999999]}},{"type":"Feature","properties":{"id":"1508035","nome":"Tracuateua","uf":"PA"},"geometry":{"type":"Point","coordinates":[-53.44,-9.76]}},{"type":"Feature","properties":{"id":"1508050","nome":"Trairão","uf":"PA"},"geometry":{"type":"Point","coordinates":[-52.6,-9.4]}},{"type":"Feature","properties":{"id":"1508084","nome":"Tucumã","uf":"PA"},"geometry":{"type":"Point","coordinates":[-51.76,-9.04]}},{"type":"Feature","properties":{"id":"1508100","nome":"Tucuruí","uf":"PA"},"geometry":{"type":"Point","coordinates":[-50.92,-8.68]}},{"type":"Feature","properties":{"id":"1508126","nome":"Ulianópolis","uf":"PA"},"geometry":{"type":"Point","coordinates":[-50.08,-8.32]}},{"type":"Feature","properties":{"id":"1508159","nome":"Uruará","uf":"PA"},"geometry":{"type":"Point","coordinates":[-49.24,-7.96]}},{"type":"Feature","properties":{"id":"1508209","nome":"Vigia","uf":"PA"},"geometry":{"type":"Point","coordinates":[-48.4,-7.6]}},{"type":"Feature","properties":{"id":"1508308","nome":"Viseu","uf":"PA"},"geometry":{"type":"Point","coordinates":[-47.56,-7.24]}},{"type":"Feature","properties":{"id":"1508357","nome":"Vitória do Xingu","uf":"PA"},"geometry":{"type":"Point","coordinates":[-46.72,-6.88]}},{"type":"Feature","properties":{"id":"1508407","nome":"Xinguara","uf":"PA"},"geometry":{"type":"Point","coordinates":[-57.88,-6.52]}}]}