{"type":"FeatureCollection","features":[{"type":"Feature","properties":{"id":"1600055","nome":"Serra do Navio","uf":"AP"},"geometry":{"type":"Point","coordinates":[-54,1]}},{"type":"Feature","properties":{"id":"1600105","nome":"Amapá","uf":"AP"},"geometry":{"type":"Point","coordinates":[-53.44,1.12]}},{"type":"Feature","properties":{"id":"1600154","nome":"Pedra Branca do Amapari","uf":"AP"},"geometry":{"type":"Point","coordinates":[-52.88,1.24]}},{"type":"Feature","properties":{"id":"1600204","nome":"Calçoene","uf":"AP"},"geometry":{"type":"Point","coordinates":[-52.32,1.3599999999999999]}},{"type":"Feature","properties":{"id":"1600212","nome":"Cutias","uf":"AP"},"geometry":{"type":"Point","coordinates":[-51.76,1.48]}},{"type":"Feature","properties":{"id":"1600238","nome":"Ferreira Gomes","uf":"AP"},"geometry":{"type":"Point","coordinates":[-51.2,1.6]}},{"type":"Feature","properties":{"id":"1600253","nome":"Itaubal","uf":"AP"},"geometry":{"type":"Point","coordinates":[-50.64,1.72]}},{"type":"Feature","properties":{"id":"1600279","nome":"Laranjal do Jari","uf":"AP"},"geometry":{"type":"Point","coordinates":[-50.08,1.8399999999999999]}},{"type":"Feature","properties":{"id":"1600303","nome":"Macapá","uf":"AP"},"geometry":{"type":"Point","coordinates":[-49.519999999999996,1.96]}},{"type":"Feature","properties":{"id":"1600402","nome":"Mazagão","uf":"AP"},"geometry":{"type":"Point","coordinates":[-48.96,2.08]}},{"type":"Feature","properties":{"id":"1600501","nome":"Oiapoque","uf":"AP"},"geometry":{"type":"Point","coordinates":[-48.4,2.2]}},{"type":"Feature","properties":{"id":"1600535","nome":"Porto Grande","uf":"AP"},"geometry":{"type":"Point","coordinates":[-47.84,2.3200000000000003]}},{"type":"Feature","properties":{"id":"1600550","nome":"Pracuúba","uf":"AP"},"geometry":{"type":"Point","coordinates":[-47.28,2.44]}},{"type":"Feature","properties":{"id":"1600600","nome":"Santana","uf":"AP"},"geometry":{"type":"Point","coordinates":[-46.72,2.56]}},{"type":"Feature","properties":{"id":"1600709","nome":"Tartarugalzinho","uf":"AP"},"geometry":{"type":"Point","coordinates":[-46.16,2.6799999999999997]}},{"type":"Feature","properties":{"id":"1600808","nome":"Vitória do Jari","uf":"AP"},"geometry":{"type":"Point","coordinates":[-53.6,2.8]}}]}