{"type":"FeatureCollection","features":[{"type":"Feature","properties":{"id":"2200053","nome":"Acauã","uf":"PI"},"geometry":{"type":"Point","coordinates":[-45,-11]}},{"type":"Feature","properties":{"id":"2200103","nome":"Agricolândia","uf":"PI"},"geometry":{"type":"Point","coordinates":[-44.65,-10.73]}},{"type":"Feature","properties":{"id":"2200202","nome":"Água Branca","uf":"PI"},"geometry":{"type":"Point","coordinates":[-44.3,-10.46]}},{"type":"Feature","properties":{"id":"2200251","nome":"Alagoinha do Piauí","uf":"PI"},"geometry":{"type":"Point","coordinates":[-43.95,-10.19]}},{"type":"Feature","properties":{"id":"2200277","nome":"Alegrete do Piauí","uf":"PI"},"geometry":{"type":"Point","coordinates":[-43.6,-9.92]}},{"type":"Feature","properties":{"id":"2200301","nome":"Alto Longá","uf":"PI"},"geometry":{"type":"Point","coordinates":[-43.25,-9.65]}},{"type":"Feature","properties":{"id":"2200400","nome":"Altos","uf":"PI"},"geometry":{"type":"Point","coordinates":[-42.9,-9.38]}},{"type":"Feature","properties":{"id":"2200459","nome":"Alvorada do Gurguéia","uf":"PI"},"geometry":{"type":"Point","coordinates":[-42.55,-9.11]}},{"type":"Feature","properties":{"id":"2200509","nome":"Amarante","uf":"PI"},"geometry":{"type":"Point","coordinates":[-42.2,-8.84]}},{"type":"Feature","properties":{"id":"2200608","nome":"Angical do Piauí","uf":"PI"},"geometry":{"type":"Point","coordinates":[-41.85,-8.57]}},{"type":"Feature","properties":{"id":"2200707","nome":"Anísio de Abreu","uf":"PI"},"geometry":{"type":"Point","coordinates":[-41.5,-8.3]}},{"type":"Feature","properties":{"id":"2200806","nome":"Antônio Almeida","uf":"PI"},"geometry":{"type":"Point","coordinates":[-41.15,-8.030000000000001]}},{"type":"Feature","properties":{"id":"2200905","nome":"Aroazes","uf":"PI"},"geometry":{"type":"Point","coordinates":[-40.8,-7.76]}},{"type":"Feature","properties":{"id":"2200954","nome":"Aroeiras do Itaim","uf":"PI"},"geometry":{"type":"Point","coordinates":[-40.45,-7.49]}},{"type":"Feature","properties":{"id":"2201002","nome":"Arraial","uf":"PI"},"geometry":{"type":"Point","coordinates":[-40.1,-7.220000000000001]}},{"type":"Feature","properties":{"id":"2201051","nome":"Assunção do Piauí","uf":"PI"},"geometry":{"type":"Point","coordinates":[-44.75,-6.95]}},{"type":"Feature","properties":{"id":"2201101","nome":"Avelino Lopes","uf":"PI"},"geometry":{"type":"Point","coordinates":[-44.4,-6.68]}},{"type":"Feature","properties":{"id":"2201150","nome":"Baixa Grande do Ribeiro","uf":"PI"},"geometry":{"type":"Point","coordinates":[-44.05,-6.41]}},{"type":"Feature","properties":{"id":"2201176","nome":"Barra D'Alcântara","uf":"PI"},"geometry":{"type":"Point","coordinates":[-43.7,-6.140000000000001]}},{"type":"Feature","properties":{"id":"2201200","nome":"Barras","uf":"PI"},"geometry":{"type":"Point","coordinates":[-43.35,-5.87]}},{"type":"Feature","properties":{"id":"2201309","nome":"Barreiras do Piauí","uf":"PI"},"geometry":{"type":"Point","coordinates":[-43,-5.6000000000000005]}},{"type":"Feature","properties":{"id":"2201408","nome":"Barro Duro","uf":"PI"},"geometry":{"type":"Point","coordinates":[-42.65,-5.33]}},{"type":"Feature","properties":{"id":"2201507","nome":"Batalha","uf":"PI"},"geometry":{"type":"Point","coordinates":[-42.3,-5.0600000000000005]}},{"type":"Feature","properties":{"id":"2201556","nome":"Bela Vista do Piauí","uf":"PI"},"geometry":{"type":"Point","coordinates":[-41.95,-4.79]}},{"type":"Feature","properties":{"id":"2201572","nome":"Belém do Piauí","uf":"PI"},"geometry":{"type":"Point","coordinates":[-41.6,-4.5200000000000005]}},{"type":"Feature","properties":{"id":"2201606","nome":"Beneditinos","uf":"PI"},"geometry":{"type":"Point","coordinates":[-41.25,-4.25]}},{"type":"Feature","properties":{"id":"2201705","nome":"Bertolínia","uf":"PI"},"geometry":{"type":"Point","coordinates":[-40.9,-3.9800000000000004]}},{"type":"Feature","properties":{"id":"2201739","nome":"Betânia do Piauí","uf":"PI"},"geometry":{"type":"Point","coordinates":[-40.55,-3.71]}},{"type":"Feature","properties":{"id":"2201770","nome":"Boa Hora","uf":"PI"},"geometry":{"type":"Point","coordinates":[-40.2,-3.4400000000000004]}},{"type":"Feature","properties":{"id":"2201804","nome":"Bocaina","uf":"PI"},"geometry":{"type":"Point","coordinates":[-44.85,-3.17]}},{"type":"Feature","properties":{"id":"2201903","nome":"Bom Jesus","uf":"PI"},"geometry":{"type":"Point","coordinates":[-44.5,-2.9000000000000004]}},{"type":"Feature","properties":{"id":"2201919","nome":"Bom Princípio do Piauí","uf":"PI"},"geometry":{"type":"Point","coordinates":[-44.15,-2.630000000000001]}},{"type":"Feature","properties":{"id":"2201929","nome":"Bonfim do Piauí","uf":"PI"},"geometry":{"type":"Point","coordinates":[-43.8,-2.3599999999999994]}},{"type":"Feature","properties":{"id":"2201945","nome":"Boqueirão do Piauí","uf":"PI"},"geometry":{"type":"Point","coordinates":[-43.45,-2.09]}},{"type":"Feature","properties":{"id":"2201960","nome":"Brasileira","uf":"PI"},"geometry":{"type":"Point","coordinates":[-43.1,-10.82]}},{"type":"Feature","properties":{"id":"2201988","nome":"Brejo do Piauí","uf":"PI"},"geometry":{"type":"Point","coordinates":[-42.75,-10.55]}},{"type":"Feature","properties":{"id":"2202000","nome":"Buriti dos Lopes","uf":"PI"},"geometry":{"type":"Point","coordinates":[-42.4,-10.28]}},{"type":"Feature","properties":{"id":"2202026","nome":"Buriti dos Montes","uf":"PI"},"geometry":{"type":"Point","coordinates":[-42.05,-10.01]}},{"type":"Feature","properties":{"id":"2202059","nome":"Cabeceiras do Piauí","uf":"PI"},"geometry":{"type":"Point","coordinates":[-41.7,-9.74]}},{"type":"Feature","properties":{"id":"2202075","nome":"Cajazeiras do Piauí","uf":"PI"},"geometry":{"type":"Point","coordinates":[-41.35,-9.47]}},{"type":"Feature","properties":{"id":"2202083","nome":"Cajueiro da Praia","uf":"PI"},"geometry":{"type":"Point","coordinates":[-41,-9.2]}},{"type":"Feature","properties":{"id":"2202091","nome":"Caldeirão Grande do Piauí","uf":"PI"},"geometry":{"type":"Point","coordinates":[-40.65,-8.93]}},{"type":"Feature","properties":{"id":"2202109","nome":"Campinas do Piauí","uf":"PI"},"geometry":{"type":"Point","coordinates":[-40.3,-8.66]}},{"type":"Feature","properties":{"id":"2202117","nome":"Campo Alegre do Fidalgo","uf":"PI"},"geometry":{"type":"Point","coordinates":[-44.95,-8.39]}},{"type":"Feature","properties":{"id":"2202133","nome":"Campo Grande do Piauí","uf":"PI"},"geometry":{"type":"Point","coordinates":[-44.6,-8.120000000000001]}},{"type":"Feature","properties":{"id":"2202174","nome":"Campo Largo do Piauí","uf":"PI"},"geometry":{"type":"Point","coordinates":[-44.25,-7.85]}},{"type":"Feature","properties":{"id":"2202208","nome":"Campo Maior","uf":"PI"},"geometry":{"type":"Point","coordinates":[-43.9,-7.58]}},{"type":"Feature","properties":{"id":"2202251","nome":"Canavieira","uf":"PI"},"geometry":{"type":"Point","coordinates":[-43.55,-7.3100000000000005]}},{"type":"Feature","properties":{"id":"2202307","nome":"Canto do Buriti","uf":"PI"},"geometry":{"type":"Point","coordinates":[-43.2,-7.04]}},{"type":"Feature","properties":{"id":"2202406","nome":"Capitão de Campos","uf":"PI"},"geometry":{"type":"Point","coordinates":[-42.85,-6.7700000000000005]}},{"type":"Feature","properties":{"id":"2202455","nome":"Capitão Gervásio Oliveira","uf":"PI"},"geometry":{"type":"Point","coordinates":[-42.5,-6.5]}},{"type":"Feature","properties":{"id":"2202505","nome":"Caracol","uf":"PI"},"geometry":{"type":"Point","coordinates":[-42.15,-6.23]}},{"type":"Feature","properties":{"id":"2202539","nome":"Caraúbas do Piauí","uf":"PI"},"geometry":{"type":"Point","coordinates":[-41.8,-5.96]}},{"type":"Feature","properties":{"id":"2202554","nome":"Caridade do Piauí","uf":"PI"},"geometry":{"type":"Point","coordinates":[-41.45,-5.69]}},{"type":"Feature","properties":{"id":"2202604","nome":"Castelo do Piauí","uf":"PI"},"geometry":{"type":"Point","coordinates":[-41.1,-5.42]}},{"type":"Feature","properties":{"id":"2202653","nome":"Caxingó","uf":"PI"},"geometry":{"type":"Point","coordinates":[-40.75,-5.15]}},{"type":"Feature","properties":{"id":"2202703","nome":"Cocal","uf":"PI"},"geometry":{"type":"Point","coordinates":[-40.4,-4.88]}},{"type":"Feature","properties":{"id":"2202711","nome":"Cocal de Telha","uf":"PI"},"geometry":{"type":"Point","coordinates":[-40.05,-4.61]}},{"type":"Feature","properties":{"id":"2202729","nome":"Cocal dos Alves","uf":"PI"},"geometry":{"type":"Point","coordinates":[-44.7,-4.34]}},{"type":"Feature","properties":{"id":"2202737","nome":"Coivaras","uf":"PI"},"geometry":{"type":"Point","coordinates":[-44.35,-4.07]}},{"type":"Feature","properties":{"id":"2202752","nome":"Colônia do Gurguéia","uf":"PI"},"geometry":{"type":"Point","coordinates":[-44,-3.8000000000000007]}},{"type":"Feature","properties":{"id":"2202778","nome":"Colônia do Piauí","uf":"PI"},"geometry":{"type":"Point","coordinates":[-43.65,-3.5300000000000002]}},{"type":"Feature","properties":{"id":"2202802","nome":"Conceição do Canindé","uf":"PI"},"geometry":{"type":"Point","coordinates":[-43.3,-3.2600000000000007]}},{"type":"Feature","properties":{"id":"2202851","nome":"Coronel José Dias","uf":"PI"},"geometry":{"type":"Point","coordinates":[-42.95,-2.99]}},{"type":"Feature","properties":{"id":"2202901","nome":"Corrente","uf":"PI"},"geometry":{"type":"Point","coordinates":[-42.6,-2.7200000000000006]}},{"type":"Feature","properties":{"id":"2203008","nome":"Cristalândia do Piauí","uf":"PI"},"geometry":{"type":"Point","coordinates":[-42.25,-2.450000000000001]}},{"type":"Feature","properties":{"id":"2203107","nome":"Cristino Castro","uf":"PI"},"geometry":{"type":"Point","coordinates":[-41.9,-2.1799999999999997]}},{"type":"Feature","properties":{"id":"2203206","nome":"Curimatá","uf":"PI"},"geometry":{"type":"Point","coordinates":[-41.55,-10.91]}},{"type":"Feature","properties":{"id":"2203230","nome":"Currais","uf":"PI"},"geometry":{"type":"Point","coordinates":[-41.2,-10.64]}},{"type":"Feature","properties":{"id":"2203255","nome":"Curralinhos","uf":"PI"},"geometry":{"type":"Point","coordinates":[-40.85,-10.37]}},{"type":"Feature","properties":{"id":"2203271","nome":"Curral Novo do Piauí","uf":"PI"},"geometry":{"type":"Point","coordinates":[-40.5,-10.1]}},{"type":"Feature","properties":{"id":"2203305","nome":"Demerval Lobão","uf":"PI"},"geometry":{"type":"Point","coordinates":[-40.15,-9.83]}},{"type":"Feature","properties":{"id":"2203354","nome":"Dirceu Arcoverde","uf":"PI"},"geometry":{"type":"Point","coordinates":[-44.8,-9.56]}},{"type":"Feature","properties":{"id":"2203404","nome":"Dom Expedito Lopes","uf":"PI"},"geometry":{"type":"Point","coordinates":[-44.45,-9.29]}},{"type":"Feature","properties":{"id":"2203420","nome":"Domingos Mourão","uf":"PI"},"geometry":{"type":"Point","coordinates":[-44.1,-9.02]}},{"type":"Feature","properties":{"id":"2203453","nome":"Dom Inocêncio","uf":"PI"},"geometry":{"type":"Point","coordinates":[-43.75,-8.75]}},{"type":"Feature","properties":{"id":"2203503","nome":"Elesbão Veloso","uf":"PI"},"geometry":{"type":"Point","coordinates":[-43.4,-8.48]}},{"type":"Feature","properties":{"id":"2203602","nome":"Eliseu Martins","uf":"PI"},"geometry":{"type":"Point","coordinates":[-43.05,-8.21]}},{"type":"Feature","properties":{"id":"2203701","nome":"Esperantina","uf":"PI"},"geometry":{"type":"Point","coordinates":[-42.7,-7.9399999999999995]}},{"type":"Feature","properties":{"id":"2203750","nome":"Fartura do Piauí","uf":"PI"},"geometry":{"type":"Point","coordinates":[-42.35,-7.67]}},{"type":"Feature","properties":{"id":"2203800","nome":"Flores do Piauí","uf":"PI"},"geometry":{"type":"Point","coordinates":[-42,-7.4]}},{"type":"Feature","properties":{"id":"2203859","nome":"Floresta do Piauí","uf":"PI"},"geometry":{"type":"Point","coordinates":[-41.65,-7.130000000000001]}},{"type":"Feature","properties":{"id":"2203909","nome":"Floriano","uf":"PI"},"geometry":{"type":"Point","coordinates":[-41.3,-6.86]}},{"type":"Feature","properties":{"id":"2204006","nome":"Francinópolis","uf":"PI"},"geometry":{"type":"Point","coordinates":[-40.95,-6.59]}},{"type":"Feature","properties":{"id":"2204105","nome":"Francisco Ayres","uf":"PI"},"geometry":{"type":"Point","coordinates":[-40.6,-6.32]}},{"type":"Feature","properties":{"id":"2204154","nome":"Francisco Macedo","uf":"PI"},"geometry":{"type":"Point","coordinates":[-40.25,-6.05]}},{"type":"Feature","properties":{"id":"2204204","nome":"Francisco Santos","uf":"PI"},"geometry":{"type":"Point","coordinates":[-44.9,-5.78]}},{"type":"Feature","properties":{"id":"2204303","nome":"Fronteiras","uf":"PI"},"geometry":{"type":"Point","coordinates":[-44.55,-5.51]}},{"type":"Feature","properties":{"id":"2204352","nome":"Geminiano","uf":"PI"},"geometry":{"type":"Point","coordinates":[-44.2,-5.24]}},{"type":"Feature","properties":{"id":"2204402","nome":"Gilbués","uf":"PI"},"geometry":{"type":"Point","coordinates":[-43.85,-4.970000000000001]}},{"type":"Feature","properties":{"id":"2204501","nome":"Guadalupe","uf":"PI"},"geometry":{"type":"Point","coordinates":[-43.5,-4.7]}},{"type":"Feature","properties":{"id":"2204550","nome":"Guaribas","uf":"PI"},"geometry":{"type":"Point","coordinates":[-43.15,-4.430000000000001]}},{"type":"Feature","properties":{"id":"2204600","nome":"Hugo Napoleão","uf":"PI"},"geometry":{"type":"Point","coordinates":[-42.8,-4.16]}},{"type":"Feature","properties":{"id":"2204659","nome":"Ilha Grande","uf":"PI"},"geometry":{"type":"Point","coordinates":[-42.45,-3.8900000000000006]}},{"type":"Feature","properties":{"id":"2204709","nome":"Inhuma","uf":"PI"},"geometry":{"type":"Point","coordinates":[-42.1,-3.62]}},{"type":"Feature","properties":{"id":"2204808","nome":"Ipiranga do Piauí","uf":"PI"},"geometry":{"type":"Point","coordinates":[-41.75,-3.3500000000000005]}},{"type":"Feature","properties":{"id":"2204907","nome":"Isaías Coelho","uf":"PI"},"geometry":{"type":"Point","coordinates":[-41.4,-3.08]}},{"type":"Feature","properties":{"id":"2205003","nome":"Itainópolis","uf":"PI"},"geometry":{"type":"Point","coordinates":[-41.05,-2.8100000000000005]}},{"type":"Feature","properties":{"id":"2205102","nome":"Itaueira","uf":"PI"},"geometry":{"type":"Point","coordinates":[-40.7,-2.540000000000001]}},{"type":"Feature","properties":{"id":"2205151","nome":"Jacobina do Piauí","uf":"PI"},"geometry":{"type":"Point","coordinates":[-40.35,-2.2699999999999996]}},{"type":"Feature","properties":{"id":"2205201","nome":"Jaicós","uf":"PI"},"geometry":{"type":"Point","coordinates":[-45,-11]}},{"type":"Feature","properties":{"id":"2205250","nome":"Jardim do Mulato","uf":"PI"},"geometry":{"type":"Point","coordinates":[-44.65,-10.73]}},{"type":"Feature","properties":{"id":"2205276","nome":"Jatobá do Piauí","uf":"PI"},"geometry":{"type":"Point","coordinates":[-44.3,-10.46]}},{"type":"Feature","properties":{"id":"2205300","nome":"Jerumenha","uf":"PI"},"geometry":{"type":"Point","coordinates":[-43.95,-10.19]}},{"type":"Feature","properties":{"id":"2205359","nome":"João Costa","uf":"PI"},"geometry":{"type":"Point","coordinates":[-43.6,-9.92]}},{"type":"Feature","properties":{"id":"2205409","nome":"Joaquim Pires","uf":"PI"},"geometry":{"type":"Point","coordinates":[-43.25,-9.65]}},{"type":"Feature","properties":{"id":"2205458","nome":"Joca Marques","uf":"PI"},"geometry":{"type":"Point","coordinates":[-42.9,-9.38]}},{"type":"Feature","properties":{"id":"2205508","nome":"José de Freitas","uf":"PI"},"geometry":{"type":"Point","coordinates":[-42.55,-9.11]}},{"type":"Feature","properties":{"id":"2205516","nome":"Juazeiro do Piauí","uf":"PI"},"geometry":{"type":"Point","coordinates":[-42.2,-8.84]}},{"type":"Feature","properties":{"id":"2205524","nome":"Júlio Borges","uf":"PI"},"geometry":{"type":"Point","coordinates":[-41.85,-8.57]}},{"type":"Feature","properties":{"id":"2205532","nome":"Jurema","uf":"PI"},"geometry":{"type":"Point","coordinates":[-41.5,-8.3]}},{"type":"Feature","properties":{"id":"2205540","nome":"Lagoinha do Piauí","uf":"PI"},"geometry":{"type":"Point","coordinates":[-41.15,-8.030000000000001]}},{"type":"Feature","properties":{"id":"2205557","nome":"Lagoa Alegre","uf":"PI"},"geometry":{"type":"Point","coordinates":[-40.8,-7.76]}},{"type":"Feature","properties":{"id":"2205565","nome":"Lagoa do Barro do Piauí","uf":"PI"},"geometry":{"type":"Point","coordinates":[-40.45,-7.49]}},{"type":"Feature","properties":{"id":"2205573","nome":"Lagoa de São Francisco","uf":"PI"},"geometry":{"type":"Point","coordinates":[-40.1,-7.220000000000001]}},{"type":"Feature","properties":{"id":"2205581","nome":"Lagoa do Piauí","uf":"PI"},"geometry":{"type":"Point","coordinates":[-44.75,-6.95]}},{"type":"Feature","properties":{"id":"2205599","nome":"Lagoa do Sítio","uf":"PI"},"geometry":{"type":"Point","coordinates":[-44.4,-6.68]}},{"type":"Feature","properties":{"id":"2205607","nome":"Landri Sales","uf":"PI"},"geometry":{"type":"Point","coordinates":[-44.05,-6.41]}},{"type":"Feature","properties":{"id":"2205706","nome":"Luís Correia","uf":"PI"},"geometry":{"type":"Point","coordinates":[-43.7,-6.140000000000001]}},{"type":"Feature","properties":{"id":"2205805","nome":"Luzilândia","uf":"PI"},"geometry":{"type":"Point","coordinates":[-43.35,-5.87]}},{"type":"Feature","properties":{"id":"2205854","nome":"Madeiro","uf":"PI"},"geometry":{"type":"Point","coordinates":[-43,-5.6000000000000005]}},{"type":"Feature","properties":{"id":"2205904","nome":"Manoel Emídio","uf":"PI"},"geometry":{"type":"Point","coordinates":[-42.65,-5.33]}},{"type":"Feature","properties":{"id":"2205953","nome":"Marcolândia","uf":"PI"},"geometry":{"type":"Point","coordinates":[-42.3,-5.0600000000000005]}},{"type":"Feature","properties":{"id":"2206001","nome":"Marcos Parente","uf":"PI"},"geometry":{"type":"Point","coordinates":[-41.95,-4.79]}},{"type":"Feature","properties":{"id":"2206050","nome":"Massapê do Piauí","uf":"PI"},"geometry":{"type":"Point","coordinates":[-41.6,-4.5200000000000005]}},{"type":"Feature","properties":{"id":"2206100","nome":"Matias Olímpio","uf":"PI"},"geometry":{"type":"Point","coordinates":[-41.25,-4.25]}},{"type":"Feature","properties":{"id":"2206209","nome":"Miguel Alves","uf":"PI"},"geometry":{"type":"Point","coordinates":[-40.9,-3.9800000000000004]}},{"type":"Feature","properties":{"id":"2206308","nome":"Miguel Leão","uf":"PI"},"geometry":{"type":"Point","coordinates":[-40.55,-3.71]}},{"type":"Feature","properties":{"id":"2206357","nome":"Milton Brandão","uf":"PI"},"geometry":{"type":"Point","coordinates":[-40.2,-3.4400000000000004]}},{"type":"Feature","properties":{"id":"2206407","nome":"Monsenhor Gil","uf":"PI"},"geometry":{"type":"Point","coordinates":[-44.85,-3.17]}},{"type":"Feature","properties":{"id":"2206506","nome":"Monsenhor Hipólito","uf":"PI"},"geometry":{"type":"Point","coordinates":[-44.5,-2.9000000000000004]}},{"type":"Feature","properties":{"id":"2206605","nome":"Monte Alegre do Piauí","uf":"PI"},"geometry":{"type":"Point","coordinates":[-44.15,-2.630000000000001]}},{"type":"Feature","properties":{"id":"2206654","nome":"Morro Cabeça no Tempo","uf":"PI"},"geometry":{"type":"Point","coordinates":[-43.8,-2.3599999999999994]}},{"type":"Feature","properties":{"id":"2206670","nome":"Morro do Chapéu do Piauí","uf":"PI"},"geometry":{"type":"Point","coordinates":[-43.45,-2.09]}},{"type":"Feature","properties":{"id":"2206696","nome":"Murici dos Portelas","uf":"PI"},"geometry":{"type":"Point","coordinates":[-43.1,-10.82]}},{"type":"Feature","properties":{"id":"2206704","nome":"Nazaré do Piauí","uf":"PI"},"geometry":{"type":"Point","coordinates":[-42.75,-10.55]}},{"type":"Feature","properties":{"id":"2206720","nome":"Nazária","uf":"PI"},"geometry":{"type":"Point","coordinates":[-42.4,-10.28]}},{"type":"Feature","properties":{"id":"2206753","nome":"Nossa Senhora de Nazaré","uf":"PI"},"geometry":{"type":"Point","coordinates":[-42.05,-10.01]}},{"type":"Feature","properties":{"id":"2206803","nome":"Nossa Senhora dos Remédios","uf":"PI"},"geometry":{"type":"Point","coordinates":[-41.7,-9.74]}},{"type":"Feature","properties":{"id":"2206902","nome":"Novo Oriente do Piauí","uf":"PI"},"geometry":{"type":"Point","coordinates":[-41.35,-9.47]}},{"type":"Feature","properties":{"id":"2206951","nome":"Novo Santo Antônio","uf":"PI"},"geometry":{"type":"Point","coordinates":[-41,-9.2]}},{"type":"Feature","properties":{"id":"2207009","nome":"Oeiras","uf":"PI"},"geometry":{"type":"Point","coordinates":[-40.65,-8.93]}},{"type":"Feature","properties":{"id":"2207108","nome":"Olho D'Água do Piauí","uf":"PI"},"geometry":{"type":"Point","coordinates":[-40.3,-8.66]}},{"type":"Feature","properties":{"id":"2207207","nome":"Padre Marcos","uf":"PI"},"geometry":{"type":"Point","coordinates":[-44.95,-8.39]}},{"type":"Feature","properties":{"id":"2207306","nome":"Paes Landim","uf":"PI"},"geometry":{"type":"Point","coordinates":[-44.6,-8.120000000000001]}},{"type":"Feature","properties":{"id":"2207355","nome":"Pajeú do Piauí","uf":"PI"},"geometry":{"type":"Point","coordinates":[-44.25,-7.85]}},{"type":"Feature","properties":{"id":"2207405","nome":"Palmeira do Piauí","uf":"PI"},"geometry":{"type":"Point","coordinates":[-43.9,-7.58]}},{"type":"Feature","properties":{"id":"2207504","nome":"Palmeirais","uf":"PI"},"geometry":{"type":"Point","coordinates":[-43.55,-7.3100000000000005]}},{"type":"Feature","properties":{"id":"2207553","nome":"Paquetá","uf":"PI"},"geometry":{"type":"Point","coordinates":[-43.2,-7.04]}},{"type":"Feature","properties":{"id":"2207603","nome":"Parnaguá","uf":"PI"},"geometry":{"type":"Point","coordinates":[-42.85,-6.7700000000000005]}},{"type":"Feature","properties":{"id":"2207702","nome":"Parnaíba","uf":"PI"},"geometry":{"type":"Point","coordinates":[-42.5,-6.5]}},{"type":"Feature","properties":{"id":"2207751","nome":"Passagem Franca do Piauí","uf":"PI"},"geometry":{"type":"Point","coordinates":[-42.15,-6.23]}},{"type":"Feature","properties":{"id":"2207777","nome":"Patos do Piauí","uf":"PI"},"geometry":{"type":"Point","coordinates":[-41.8,-5.96]}},{"type":"Feature","properties":{"id":"2207793","nome":"Pau D'Arco do Piauí","uf":"PI"},"geometry":{"type":"Point","coordinates":[-41.45,-5.69]}},{"type":"Feature","properties":{"id":"2207801","nome":"Paulistana","uf":"PI"},"geometry":{"type":"Point","coordinates":[-41.1,-5.42]}},{"type":"Feature","properties":{"id":"2207850","nome":"Pavussu","uf":"PI"},"geometry":{"type":"Point","coordinates":[-40.75,-5.15]}},{"type":"Feature","properties":{"id":"2207900","nome":"Pedro II","uf":"PI"},"geometry":{"type":"Point","coordinates":[-40.4,-4.88]}},{"type":"Feature","properties":{"id":"2207934","nome":"Pedro Laurentino","uf":"PI"},"geometry":{"type":"Point","coordinates":[-40.05,-4.61]}},{"type":"Feature","properties":{"id":"2207959","nome":"Nova Santa Rita","uf":"PI"},"geometry":{"type":"Point","coordinates":[-44.7,-4.34]}},{"type":"Feature","properties":{"id":"2208007","nome":"Picos","uf":"PI"},"geometry":{"type":"Point","coordinates":[-44.35,-4.07]}},{"type":"Feature","properties":{"id":"2208106","nome":"Pimenteiras","uf":"PI"},"geometry":{"type":"Point","coordinates":[-44,-3.8000000000000007]}},{"type":"Feature","properties":{"id":"2208205","nome":"Pio IX","uf":"PI"},"geometry":{"type":"Point","coordinates":[-43.65,-3.5300000000000002]}},{"type":"Feature","properties":{"id":"2208304","nome":"Piracuruca","uf":"PI"},"geometry":{"type":"Point","coordinates":[-43.3,-3.2600000000000007]}},{"type":"Feature","properties":{"id":"2208403","nome":"Piripiri","uf":"PI"},"geometry":{"type":"Point","coordinates":[-42.95,-2.99]}},{"type":"Feature","properties":{"id":"2208502","nome":"Porto","uf":"PI"},"geometry":{"type":"Point","coordinates":[-42.6,-2.7200000000000006]}},{"type":"Feature","properties":{"id":"2208551","nome":"Porto Alegre do Piauí","uf":"PI"},"geometry":{"type":"Point","coordinates":[-42.25,-2.450000000000001]}},{"type":"Feature","properties":{"id":"2208601","nome":"Prata do Piauí","uf":"PI"},"geometry":{"type":"Point","coordinates":[-41.9,-2.1799999999999997]}},{"type":"Feature","properties":{"id":"2208650","nome":"Queimada Nova","uf":"PI"},"geometry":{"type":"Point","coordinates":[-41.55,-10.91]}},{"type":"Feature","properties":{"id":"2208700","nome":"Redenção do Gurguéia","uf":"PI"},"geometry":{"type":"Point","coordinates":[-41.2,-10.64]}},{"type":"Feature","properties":{"id":"2208809","nome":"Regeneração","uf":"PI"},"geometry":{"type":"Point","coordinates":[-40.85,-10.37]}},{"type":"Feature","properties":{"id":"2208858","nome":"Riacho Frio","uf":"PI"},"geometry":{"type":"Point","coordinates":[-40.5,-10.1]}},{"type":"Feature","properties":{"id":"2208874","nome":"Ribeira do Piauí","uf":"PI"},"geometry":{"type":"Point","coordinates":[-40.15,-9.83]}},{"type":"Feature","properties":{"id":"2208908","nome":"Ribeiro Gonçalves","uf":"PI"},"geometry":{"type":"Point","coordinates":[-44.8,-9.56]}},{"type":"Feature","properties":{"id":"2209005","nome":"Rio Grande do Piauí","uf":"PI"},"geometry":{"type":"Point","coordinates":[-44.45,-9.29]}},{"type":"Feature","properties":{"id":"2209104","nome":"Santa Cruz do Piauí","uf":"PI"},"geometry":{"type":"Point","coordinates":[-44.1,-9.02]}},{"type":"Feature","properties":{"id":"2209153","nome":"Santa Cruz dos Milagres","uf":"PI"},"geometry":{"type":"Point","coordinates":[-43.75,-8.75]}},{"type":"Feature","properties":{"id":"2209203","nome":"Santa Filomena","uf":"PI"},"geometry":{"type":"Point","coordinates":[-43.4,-8.48]}},{"type":"Feature","properties":{"id":"2209302","nome":"Santa Luz","uf":"PI"},"geometry":{"type":"Point","coordinates":[-43.05,-8.21]}},{"type":"Feature","properties":{"id":"2209351","nome":"Santana do Piauí","uf":"PI"},"geometry":{"type":"Point","coordinates":[-42.7,-7.9399999999999995]}},{"type":"Feature","properties":{"id":"2209377","nome":"Santa Rosa do Piauí","uf":"PI"},"geometry":{"type":"Point","coordinates":[-42.35,-7.67]}},{"type":"Feature","properties":{"id":"2209401","nome":"Santo Antônio de Lisboa","uf":"PI"},"geometry":{"type":"Point","coordinates":[-42,-7.4]}},{"type":"Feature","properties":{"id":"2209450","nome":"Santo Antônio dos Milagres","uf":"PI"},"geometry":{"type":"Point","coordinates":[-41.65,-7.130000000000001]}},{"type":"Feature","properties":{"id":"2209500","nome":"Santo Inácio do Piauí","uf":"PI"},"geometry":{"type":"Point","coordinates":[-41.3,-6.86]}},{"type":"Feature","properties":{"id":"2209559","nome":"São Braz do Piauí","uf":"PI"},"geometry":{"type":"Point","coordinates":[-40.95,-6.59]}},{"type":"Feature","properties":{"id":"2209609","nome":"São Félix do Piauí","uf":"PI"},"geometry":{"type":"Point","coordinates":[-40.6,-6.32]}},{"type":"Feature","properties":{"id":"2209658","nome":"São Francisco de Assis do Piauí","uf":"PI"},"geometry":{"type":"Point","coordinates":[-40.25,-6.05]}},{"type":"Feature","properties":{"id":"2209708","nome":"São Francisco do Piauí","uf":"PI"},"geometry":{"type":"Point","coordinates":[-44.9,-5.78]}},{"type":"Feature","properties":{"id":"2209757","nome":"São Gonçalo do Gurguéia","uf":"PI"},"geometry":{"type":"Point","coordinates":[-44.55,-5.51]}},{"type":"Feature","properties":{"id":"2209807","nome":"São Gonçalo do Piauí","uf":"PI"},"geometry":{"type":"Point","coordinates":[-44.2,-5.24]}},{"type":"Feature","properties":{"id":"2209856","nome":"São João da Canabrava","uf":"PI"},"geometry":{"type":"Point","coordinates":[-43.85,-4.970000000000001]}},{"type":"Feature","properties":{"id":"2209872","nome":"São João da Fronteira","uf":"PI"},"geometry":{"type":"Point","coordinates":[-43.5,-4.7]}},{"type":"Feature","properties":{"id":"2209906","nome":"São João da Serra","uf":"PI"},"geometry":{"type":"Point","coordinates":[-43.15,-4.430000000000001]}},{"type":"Feature","properties":{"id":"2209955","nome":"São João da Varjota","uf":"PI"},"geometry":{"type":"Point","coordinates":[-42.8,-4.16]}},{"type":"Feature","properties":{"id":"2209971","nome":"São João do Arraial","uf":"PI"},"geometry":{"type":"Point","coordinates":[-42.45,-3.8900000000000006]}},{"type":"Feature","properties":{"id":"2210003","nome":"São João do Piauí","uf":"PI"},"geometry":{"type":"Point","coordinates":[-42.1,-3.62]}},{"type":"Feature","properties":{"id":"2210052","nome":"São José do Divino","uf":"PI"},"geometry":{"type":"Point","coordinates":[-41.75,-3.3500000000000005]}},{"type":"Feature","properties":{"id":"2210102","nome":"São José do Peixe","uf":"PI"},"geometry":{"type":"Point","coordinates":[-41.4,-3.08]}},{"type":"Feature","properties":{"id":"2210201","nome":"São José do Piauí","uf":"PI"},"geometry":{"type":"Point","coordinates":[-41.05,-2.8100000000000005]}},{"type":"Feature","properties":{"id":"2210300","nome":"São Julião","uf":"PI"},"geometry":{"type":"Point","coordinates":[-40.7,-2.540000000000001]}},{"type":"Feature","properties":{"id":"2210359","nome":"São Lourenço do Piauí","uf":"PI"},"geometry":{"type":"Point","coordinates":[-40.35,-2.2699999999999996]}},{"type":"Feature","properties":{"id":"2210375","nome":"São Luis do Piauí","uf":"PI"},"geometry":{"type":"Point","coordinates":[-45,-11]}},{"type":"Feature","properties":{"id":"2210383","nome":"São Miguel da Baixa Grande","uf":"PI"},"geometry":{"type":"Point","coordinates":[-44.65,-10.73]}},{"type":"Feature","properties":{"id":"2210391","nome":"São Miguel do Fidalgo","uf":"PI"},"geometry":{"type":"Point","coordinates":[-44.3,-10.46]}},{"type":"Feature","properties":{"id":"2210409","nome":"São Miguel do Tapuio","uf":"PI"},"geometry":{"type":"Point","coordinates":[-43.95,-10.19]}},{"type":"Feature","properties":{"id":"2210508","nome":"São Pedro do Piauí","uf":"PI"},"geometry":{"type":"Point","coordinates":[-43.6,-9.92]}},{"type":"Feature","properties":{"id":"2210607","nome":"São Raimundo Nonato","uf":"PI"},"geometry":{"type":"Point","coordinates":[-43.25,-9.65]}},{"type":"Feature","properties":{"id":"2210623","nome":"Sebastião Barros","uf":"PI"},"geometry":{"type":"Point","coordinates":[-42.9,-9.38]}},{"type":"Feature","properties":{"id":"2210631","nome":"Sebastião Leal","uf":"PI"},"geometry":{"type":"Point","coordinates":[-42.55,-9.11]}},{"type":"Feature","properties":{"id":"2210656","nome":"Sigefredo Pacheco","uf":"PI"},"geometry":{"type":"Point","coordinates":[-42.2,-8.84]}},{"type":"Feature","properties":{"id":"2210706","nome":"Simões","uf":"PI"},"geometry":{"type":"Point","coordinates":[-41.85,-8.57]}},{"type":"Feature","properties":{"id":"2210805","nome":"Simplício Mendes","uf":"PI"},"geometry":{"type":"Point","coordinates":[-41.5,-8.3]}},{"type":"Feature","properties":{"id":"2210904","nome":"Socorro do Piauí","uf":"PI"},"geometry":{"type":"Point","coordinates":[-41.15,-8.030000000000001]}},{"type":"Feature","properties":{"id":"2210938","nome":"Sussuapara","uf":"PI"},"geometry":{"type":"Point","coordinates":[-40.8,-7.76]}},{"type":"Feature","properties":{"id":"2210953","nome":"Tamboril do Piauí","uf":"PI"},"geometry":{"type":"Point","coordinates":[-40.45,-7.49]}},{"type":"Feature","properties":{"id":"2210979","nome":"Tanque do Piauí","uf":"PI"},"geometry":{"type":"Point","coordinates":[-40.1,-7.220000000000001]}},{"type":"Feature","properties":{"id":"2211001","nome":"Teresina","uf":"PI"},"geometry":{"type":"Point","coordinates":[-44.75,-6.95]}},{"type":"Feature","properties":{"id":"2211100","nome":"União","uf":"PI"},"geometry":{"type":"Point","coordinates":[-44.4,-6.68]}},{"type":"Feature","properties":{"id":"2211209","nome":"Uruçuí","uf":"PI"},"geometry":{"type":"Point","coordinates":[-44.05,-6.41]}},{"type":"Feature","properties":{"id":"2211308","nome":"Valença do Piauí","uf":"PI"},"geometry":{"type":"Point","coordinates":[-43.7,-6.140000000000001]}},{"type":"Feature","properties":{"id":"2211357","nome":"Várzea Branca","uf":"PI"},"geometry":{"type":"Point","coordinates":[-43.35,-5.87]}},{"type":"Feature","properties":{"id":"2211407","nome":"Várzea Grande","uf":"PI"},"geometry":{"type":"Point","coordinates":[-43,-5.6000000000000005]}},{"type":"Feature","properties":{"id":"2211506","nome":"Vera Mendes","uf":"PI"},"geometry":{"type":"Point","coordinates":[-42.65,-5.33]}},{"type":"Feature","properties":{"id":"2211605","nome":"Vila Nova do Piauí","uf":"PI"},"geometry":{"type":"Point","coordinates":[-42.3,-5.0600000000000005]}},{"type":"Feature","properties":{"id":"2211704","nome":"Wall Ferraz","uf":"PI"},"geometry":{"type":"Point","coordinates":[-41.95,-4.79]}}]}