{"type":"FeatureCollection","features":[{"type":"Feature","properties":{"id":"2400109","nome":"Acari","uf":"RN"},"geometry":{"type":"Point","coordinates":[-38,-7]}},{"type":"Feature","properties":{"id":"2400208","nome":"Assú","uf":"RN"},"geometry":{"type":"Point","coordinates":[-37.72,-6.91]}},{"type":"Feature","properties":{"id":"2400307","nome":"Afonso Bezerra","uf":"RN"},"geometry":{"type":"Point","coordinates":[-37.44,-6.82]}},{"type":"Feature","properties":{"id":"2400406","nome":"Água Nova","uf":"RN"},"geometry":{"type":"Point","coordinates":[-37.16,-6.73]}},{"type":"Feature","properties":{"id":"2400505","nome":"Alexandria","uf":"RN"},"geometry":{"type":"Point","coordinates":[-36.88,-6.64]}},{"type":"Feature","properties":{"id":"2400604","nome":"Almino Afonso","uf":"RN"},"geometry":{"type":"Point","coordinates":[-36.6,-6.55]}},{"type":"Feature","properties":{"id":"2400703","nome":"Alto do Rodrigues","uf":"RN"},"geometry":{"type":"Point","coordinates":[-36.32,-6.46]}},{"type":"Feature","properties":{"id":"2400802","nome":"Angicos","uf":"RN"},"geometry":{"type":"Point","coordinates":[-36.04,-6.37]}},{"type":"Feature","properties":{"id":"2400901","nome":"Antônio Martins","uf":"RN"},"geometry":{"type":"Point","coordinates":[-35.76,-6.28]}},{"type":"Feature","properties":{"id":"2401008","nome":"Apodi","uf":"RN"},"geometry":{"type":"Point","coordinates":[-35.48,-6.19]}},{"type":"Feature","properties":{"id":"2401107","nome":"Areia Branca","uf":"RN"},"geometry":{"type":"Point","coordinates":[-35.2,-6.1]}},{"type":"Feature","properties":{"id":"2401206","nome":"Arez","uf":"RN"},"geometry":{"type":"Point","coordinates":[-34.92,-6.01]}},{"type":"Feature","properties":{"id":"2401305","nome":"Campo Grande","uf":"RN"},"geometry":{"type":"Point","coordinates":[-34.64,-5.92]}},{"type":"Feature","properties":{"id":"2401404","nome":"Baía Formosa","uf":"RN"},"geometry":{"type":"Point","coordinates":[-34.36,-5.83]}},{"type":"Feature","properties":{"id":"2401453","nome":"Baraúna","uf":"RN"},"geometry":{"type":"Point","coordinates":[-34.08,-5.74]}},{"type":"Feature","properties":{"id":"2401503","nome":"Barcelona","uf":"RN"},"geometry":{"type":"Point","coordinates":[-37.8,-5.65]}},{"type":"Feature","properties":{"id":"2401602","nome":"Bento Fernandes","uf":"RN"},"geometry":{"type":"Point","coordinates":[-37.52,-5.5600000000000005]}},{"type":"Feature","properties":{"id":"2401651","nome":"Bodó","uf":"RN"},"geometry":{"type":"Point","coordinates":[-37.24,-5.47]}},{"type":"Feature","properties":{"id":"2401701","nome":"Bom Jesus","uf":"RN"},"geometry":{"type":"Point","coordinates":[-36.96,-5.38]}},{"type":"Feature","properties":{"id":"2401800","nome":"Brejinho","uf":"RN"},"geometry":{"type":"Point","coordinates":[-36.68,-5.29]}},{"type":"Feature","properties":{"id":"2401859","nome":"Caiçara do Norte","uf":"RN"},"geometry":{"type":"Point","coordinates":[-36.4,-5.2]}},{"type":"Feature","properties":{"id":"2401909","nome":"Caiçara do Rio do Vento","uf":"RN"},"geometry":{"type":"Point","coordinates":[-36.12,-5.11]}},{"type":"Feature","properties":{"id":"2402006","nome":"Caicó","uf":"RN"},"geometry":{"type":"Point","coordinates":[-35.84,-5.02]}},{"type":"Feature","properties":{"id":"2402105","nome":"Campo Redondo","uf":"RN"},"geometry":{"type":"Point","coordinates":[-35.56,-4.93]}},{"type":"Feature","properties":{"id":"2402204","nome":"Canguaretama","uf":"RN"},"geometry":{"type":"Point","coordinates":[-35.28,-4.84]}},{"type":"Feature","properties":{"id":"2402303","nome":"Caraúbas","uf":"RN"},"geometry":{"type":"Point","coordinates":[-35,-4.75]}},{"type":"Feature","properties":{"id":"2402402","nome":"Carnaúba dos Dantas","uf":"RN"},"geometry":{"type":"Point","coordinates":[-34.72,-4.66]}},{"type":"Feature","properties":{"id":"2402501","nome":"Carnaubais","uf":"RN"},"geometry":{"type":"Point","coordinates":[-34.44,-4.57]}},{"type":"Feature","properties":{"id":"2402600","nome":"Ceará-Mirim","uf":"RN"},"geometry":{"type":"Point","coordinates":[-34.16,-4.48]}},{"type":"Feature","properties":{"id":"2402709","nome":"Cerro Corá","uf":"RN"},"geometry":{"type":"Point","coordinates":[-37.88,-4.390000000000001]}},{"type":"Feature","properties":{"id":"2402808","nome":"Coronel Ezequiel","uf":"RN"},"geometry":{"type":"Point","coordinates":[-37.6,-4.300000000000001]}},{"type":"Feature","properties":{"id":"2402907","nome":"Coronel João Pessoa","uf":"RN"},"geometry":{"type":"Point","coordinates":[-37.32,-4.21]}},{"type":"Feature","properties":{"id":"2403004","nome":"Cruzeta","uf":"RN"},"geometry":{"type":"Point","coordinates":[-37.04,-4.12]}},{"type":"Feature","properties":{"id":"2403103","nome":"Currais Novos","uf":"RN"},"geometry":{"type":"Point","coordinates":[-36.76,-4.03]}},{"type":"Feature","properties":{"id":"2403202","nome":"Doutor Severiano","uf":"RN"},"geometry":{"type":"Point","coordinates":[-36.48,-6.94]}},{"type":"Feature","properties":{"id":"2403251","nome":"Parnamirim","uf":"RN"},"geometry":{"type":"Point","coordinates":[-36.2,-6.85]}},{"type":"Feature","properties":{"id":"2403301","nome":"Encanto","uf":"RN"},"geometry":{"type":"Point","coordinates":[-35.92,-6.76]}},{"type":"Feature","properties":{"id":"2403400","nome":"Equador","uf":"RN"},"geometry":{"type":"Point","coordinates":[-35.64,-6.67]}},{"type":"Feature","properties":{"id":"2403509","nome":"Espírito Santo","uf":"RN"},"geometry":{"type":"Point","coordinates":[-35.36,-6.58]}},{"type":"Feature","properties":{"id":"2403608","nome":"Extremoz","uf":"RN"},"geometry":{"type":"Point","coordinates":[-35.08,-6.49]}},{"type":"Feature","properties":{"id":"2403707","nome":"Felipe Guerra","uf":"RN"},"geometry":{"type":"Point","coordinates":[-34.8,-6.4]}},{"type":"Feature","properties":{"id":"2403756","nome":"Fernando Pedroza","uf":"RN"},"geometry":{"type":"Point","coordinates":[-34.52,-6.3100000000000005]}},{"type":"Feature","properties":{"id":"2403806","nome":"Florânia","uf":"RN"},"geometry":{"type":"Point","coordinates":[-34.24,-6.22]}},{"type":"Feature","properties":{"id":"2403905","nome":"Francisco Dantas","uf":"RN"},"geometry":{"type":"Point","coordinates":[-37.96,-6.13]}},{"type":"Feature","properties":{"id":"2404002","nome":"Frutuoso Gomes","uf":"RN"},"geometry":{"type":"Point","coordinates":[-37.68,-6.04]}},{"type":"Feature","properties":{"id":"2404101","nome":"Galinhos","uf":"RN"},"geometry":{"type":"Point","coordinates":[-37.4,-5.95]}},{"type":"Feature","properties":{"id":"2404200","nome":"Goianinha","uf":"RN"},"geometry":{"type":"Point","coordinates":[-37.12,-5.86]}},{"type":"Feature","properties":{"id":"2404309","nome":"Governador Dix-Sept Rosado","uf":"RN"},"geometry":{"type":"Point","coordinates":[-36.84,-5.77]}},{"type":"Feature","properties":{"id":"2404408","nome":"Grossos","uf":"RN"},"geometry":{"type":"Point","coordinates":[-36.56,-5.68]}},{"type":"Feature","properties":{"id":"2404507","nome":"Guamaré","uf":"RN"},"geometry":{"type":"Point","coordinates":[-36.28,-5.59]}},{"type":"Feature","properties":{"id":"2404606","nome":"Ielmo Marinho","uf":"RN"},"geometry":{"type":"Point","coordinates":[-36,-5.5]}},{"type":"Feature","properties":{"id":"2404705","nome":"Ipanguaçu","uf":"RN"},"geometry":{"type":"Point","coordinates":[-35.72,-5.41]}},{"type":"Feature","properties":{"id":"2404804","nome":"Ipueira","uf":"RN"},"geometry":{"type":"Point","coordinates":[-35.44,-5.32]}},{"type":"Feature","properties":{"id":"2404853","nome":"Itajá","uf":"RN"},"geometry":{"type":"Point","coordinates":[-35.16,-5.23]}},{"type":"Feature","properties":{"id":"2404903","nome":"Itaú","uf":"RN"},"geometry":{"type":"Point","coordinates":[-34.88,-5.140000000000001]}},{"type":"Feature","properties":{"id":"2405009","nome":"Jaçanã","uf":"RN"},"geometry":{"type":"Point","coordinates":[-34.6,-5.05]}},{"type":"Feature","properties":{"id":"2405108","nome":"Jandaíra","uf":"RN"},"geometry":{"type":"Point","coordinates":[-34.32,-4.96]}},{"type":"Feature","properties":{"id":"2405207","nome":"Janduís","uf":"RN"},"geometry":{"type":"Point","coordinates":[-34.04,-4.87]}},{"type":"Feature","properties":{"id":"2405306","nome":"Januário Cicco","uf":"RN"},"geometry":{"type":"Point","coordinates":[-37.76,-4.78]}},{"type":"Feature","properties":{"id":"2405405","nome":"Japi","uf":"RN"},"geometry":{"type":"Point","coordinates":[-37.48,-4.6899999999999995]}},{"type":"Feature","properties":{"id":"2405504","nome":"Jardim de Angicos","uf":"RN"},"geometry":{"type":"Point","coordinates":[-37.2,-4.6]}},{"type":"Feature","properties":{"id":"2405603","nome":"Jardim de Piranhas","uf":"RN"},"geometry":{"type":"Point","coordinates":[-36.92,-4.51]}},{"type":"Feature","properties":{"id":"2405702","nome":"Jardim do Seridó","uf":"RN"},"geometry":{"type":"Point","coordinates":[-36.64,-4.42]}},{"type":"Feature","properties":{"id":"2405801","nome":"João Câmara","uf":"RN"},"geometry":{"type":"Point","coordinates":[-36.36,-4.33]}},{"type":"Feature","properties":{"id":"2405900","nome":"João Dias","uf":"RN"},"geometry":{"type":"Point","coordinates":[-36.08,-4.24]}},{"type":"Feature","properties":{"id":"2406007","nome":"José da Penha","uf":"RN"},"geometry":{"type":"Point","coordinates":[-35.8,-4.15]}},{"type":"Feature","properties":{"id":"2406106","nome":"Jucurutu","uf":"RN"},"geometry":{"type":"Point","coordinates":[-35.52,-4.0600000000000005]}},{"type":"Feature","properties":{"id":"2406155","nome":"Jundiá","uf":"RN"},"geometry":{"type":"Point","coordinates":[-35.24,-6.97]}},{"type":"Feature","properties":{"id":"2406205","nome":"Lagoa d'Anta","uf":"RN"},"geometry":{"type":"Point","coordinates":[-34.96,-6.88]}},{"type":"Feature","properties":{"id":"2406304","nome":"Lagoa de Pedras","uf":"RN"},"geometry":{"type":"Point","coordinates":[-34.68,-6.79]}},{"type":"Feature","properties":{"id":"2406403","nome":"Lagoa de Velhos","uf":"RN"},"geometry":{"type":"Point","coordinates":[-34.4,-6.7]}},{"type":"Feature","properties":{"id":"2406502","nome":"Lagoa Nova","uf":"RN"},"geometry":{"type":"Point","coordinates":[-34.12,-6.61]}},{"type":"Feature","properties":{"id":"2406601","nome":"Lagoa Salgada","uf":"RN"},"geometry":{"type":"Point","coordinates":[-37.84,-6.52]}},{"type":"Feature","properties":{"id":"2406700","nome":"Lajes","uf":"RN"},"geometry":{"type":"Point","coordinates":[-37.56,-6.43]}},{"type":"Feature","properties":{"id":"2406809","nome":"Lajes Pintadas","uf":"RN"},"geometry":{"type":"Point","coordinates":[-37.28,-6.34]}},{"type":"Feature","properties":{"id":"2406908","nome":"Lucrécia","uf":"RN"},"geometry":{"type":"Point","coordinates":[-37,-6.25]}},{"type":"Feature","properties":{"id":"2407005","nome":"Luís Gomes","uf":"RN"},"geometry":{"type":"Point","coordinates":[-36.72,-6.16]}},{"type":"Feature","properties":{"id":"2407104","nome":"Macaíba","uf":"RN"},"geometry":{"type":"Point","coordinates":[-36.44,-6.07]}},{"type":"Feature","properties":{"id":"2407203","nome":"Macau","uf":"RN"},"geometry":{"type":"Point","coordinates":[-36.16,-5.98]}},{"type":"Feature","properties":{"id":"2407252","nome":"Major Sales","uf":"RN"},"geometry":{"type":"Point","coordinates":[-35.88,-5.890000000000001]}},{"type":"Feature","properties":{"id":"2407302","nome":"Marcelino Vieira","uf":"RN"},"geometry":{"type":"Point","coordinates":[-35.6,-5.8]}},{"type":"Feature","properties":{"id":"2407401","nome":"Martins","uf":"RN"},"geometry":{"type":"Point","coordinates":[-35.32,-5.71]}},{"type":"Feature","properties":{"id":"2407500","nome":"Maxaranguape","uf":"RN"},"geometry":{"type":"Point","coordinates":[-35.04,-5.62]}},{"type":"Feature","properties":{"id":"2407609","nome":"Messias Targino","uf":"RN"},"geometry":{"type":"Point","coordinates":[-34.76,-5.53]}},{"type":"Feature","properties":{"id":"2407708","nome":"Montanhas","uf":"RN"},"geometry":{"type":"Point","coordinates":[-34.48,-5.4399999999999995]}},{"type":"Feature","properties":{"id":"2407807","nome":"Monte Alegre","uf":"RN"},"geometry":{"type":"Point","coordinates":[-34.2,-5.35]}},{"type":"Feature","properties":{"id":"2407906","nome":"Monte das Gameleiras","uf":"RN"},"geometry":{"type":"Point","coordinates":[-37.92,-5.26]}},{"type":"Feature","properties":{"id":"2408003","nome":"Mossoró","uf":"RN"},"geometry":{"type":"Point","coordinates":[-37.64,-5.17]}},{"type":"Feature","properties":{"id":"2408102","nome":"Natal","uf":"RN"},"geometry":{"type":"Point","coordinates":[-37.36,-5.08]}},{"type":"Feature","properties":{"id":"2408201","nome":"Nísia Floresta","uf":"RN"},"geometry":{"type":"Point","coordinates":[-37.08,-4.99]}},{"type":"Feature","properties":{"id":"2408300","nome":"Nova Cruz","uf":"RN"},"geometry":{"type":"Point","coordinates":[-36.8,-4.9]}},{"type":"Feature","properties":{"id":"2408409","nome":"Olho d'Água do Borges","uf":"RN"},"geometry":{"type":"Point","coordinates":[-36.52,-4.8100000000000005]}},{"type":"Feature","properties":{"id":"2408508","nome":"Ouro Branco","uf":"RN"},"geometry":{"type":"Point","coordinates":[-36.24,-4.720000000000001]}},{"type":"Feature","properties":{"id":"2408607","nome":"Paraná","uf":"RN"},"geometry":{"type":"Point","coordinates":[-35.96,-4.63]}},{"type":"Feature","properties":{"id":"2408706","nome":"Paraú","uf":"RN"},"geometry":{"type":"Point","coordinates":[-35.68,-4.54]}},{"type":"Feature","properties":{"id":"2408805","nome":"Parazinho","uf":"RN"},"geometry":{"type":"Point","coordinates":[-35.4,-4.45]}},{"type":"Feature","properties":{"id":"2408904","nome":"Parelhas","uf":"RN"},"geometry":{"type":"Point","coordinates":[-35.12,-4.36]}},{"type":"Feature","properties":{"id":"2408953","nome":"Rio do Fogo","uf":"RN"},"geometry":{"type":"Point","coordinates":[-34.84,-4.27]}},{"type":"Feature","properties":{"id":"2409100","nome":"Passa e Fica","uf":"RN"},"geometry":{"type":"Point","coordinates":[-34.56,-4.18]}},{"type":"Feature","properties":{"id":"2409209","nome":"Passagem","uf":"RN"},"geometry":{"type":"Point","coordinates":[-34.28,-4.09]}},{"type":"Feature","properties":{"id":"2409308","nome":"Patu","uf":"RN"},"geometry":{"type":"Point","coordinates":[-38,-7]}},{"type":"Feature","properties":{"id":"2409332","nome":"Santa Maria","uf":"RN"},"geometry":{"type":"Point","coordinates":[-37.72,-6.91]}},{"type":"Feature","properties":{"id":"2409407","nome":"Pau dos Ferros","uf":"RN"},"geometry":{"type":"Point","coordinates":[-37.44,-6.82]}},{"type":"Feature","properties":{"id":"2409506","nome":"Pedra Grande","uf":"RN"},"geometry":{"type":"Point","coordinates":[-37.16,-6.73]}},{"type":"Feature","properties":{"id":"2409605","nome":"Pedra Preta","uf":"RN"},"geometry":{"type":"Point","coordinates":[-36.88,-6.64]}},{"type":"Feature","properties":{"id":"2409704","nome":"Pedro Avelino","uf":"RN"},"geometry":{"type":"Point","coordinates":[-36.6,-6.55]}},{"type":"Feature","properties":{"id":"2409803","nome":"Pedro Velho","uf":"RN"},"geometry":{"type":"Point","coordinates":[-36.32,-6.46]}},{"type":"Feature","properties":{"id":"2409902","nome":"Pendências","uf":"RN"},"geometry":{"type":"Point","coordinates":[-36.04,-6.37]}},{"type":"Feature","properties":{"id":"2410009","nome":"Pilões","uf":"RN"},"geometry":{"type":"Point","coordinates":[-35.76,-6.28]}},{"type":"Feature","properties":{"id":"2410108","nome":"Poço Branco","uf":"RN"},"geometry":{"type":"Point","coordinates":[-35.48,-6.19]}},{"type":"Feature","properties":{"id":"2410207","nome":"Portalegre","uf":"RN"},"geometry":{"type":"Point","coordinates":[-35.2,-6.1]}},{"type":"Feature","properties":{"id":"2410256","nome":"Porto do Mangue","uf":"RN"},"geometry":{"type":"Point","coordinates":[-34.92,-6.01]}},{"type":"Feature","properties":{"id":"2410306","nome":"Serra Caiada","uf":"RN"},"geometry":{"type":"Point","coordinates":[-34.64,-5.92]}},{"type":"Feature","properties":{"id":"2410405","nome":"Pureza","uf":"RN"},"geometry":{"type":"Point","coordinates":[-34.36,-5.83]}},{"type":"Feature","properties":{"id":"2410504","nome":"Rafael Fernandes","uf":"RN"},"geometry":{"type":"Point","coordinates":[-34.08,-5.74]}},{"type":"Feature","properties":{"id":"2410603","nome":"Rafael Godeiro","uf":"RN"},"geometry":{"type":"Point","coordinates":[-37.8,-5.65]}},{"type":"Feature","properties":{"id":"2410702","nome":"Riacho da Cruz","uf":"RN"},"geometry":{"type":"Point","coordinates":[-37.52,-5.5600000000000005]}},{"type":"Feature","properties":{"id":"2410801","nome":"Riacho de Santana","uf":"RN"},"geometry":{"type":"Point","coordinates":[-37.24,-5.47]}},{"type":"Feature","properties":{"id":"2410900","nome":"Riachuelo","uf":"RN"},"geometry":{"type":"Point","coordinates":[-36.96,-5.38]}},{"type":"Feature","properties":{"id":"2411007","nome":"Rodolfo Fernandes","uf":"RN"},"geometry":{"type":"Point","coordinates":[-36.68,-5.29]}},{"type":"Feature","properties":{"id":"2411056","nome":"Tibau","uf":"RN"},"geometry":{"type":"Point","coordinates":[-36.4,-5.2]}},{"type":"Feature","properties":{"id":"2411106","nome":"Ruy Barbosa","uf":"RN"},"geometry":{"type":"Point","coordinates":[-36.12,-5.11]}},{"type":"Feature","properties":{"id":"2411205","nome":"Santa Cruz","uf":"RN"},"geometry":{"type":"Point","coordinates":[-35.84,-5.02]}},{"type":"Feature","properties":{"id":"2411403","nome":"Santana do Matos","uf":"RN"},"geometry":{"type":"Point","coordinates":[-35.56,-4.93]}},{"type":"Feature","properties":{"id":"2411429","nome":"Santana do Seridó","uf":"RN"},"geometry":{"type":"Point","coordinates":[-35.28,-4.84]}},{"type":"Feature","properties":{"id":"2411502","nome":"Santo Antônio","uf":"RN"},"geometry":{"type":"Point","coordinates":[-35,-4.75]}},{"type":"Feature","properties":{"id":"2411601","nome":"São Bento do Norte","uf":"RN"},"geometry":{"type":"Point","coordinates":[-34.72,-4.66]}},{"type":"Feature","properties":{"id":"2411700","nome":"São Bento do Trairí","uf":"RN"},"geometry":{"type":"Point","coordinates":[-34.44,-4.57]}},{"type":"Feature","properties":{"id":"2411809","nome":"São Fernando","uf":"RN"},"geometry":{"type":"Point","coordinates":[-34.16,-4.48]}},{"type":"Feature","properties":{"id":"2411908","nome":"São Francisco do Oeste","uf":"RN"},"geometry":{"type":"Point","coordinates":[-37.88,-4.390000000000001]}},{"type":"Feature","properties":{"id":"2412005","nome":"São Gonçalo do Amarante","uf":"RN"},"geometry":{"type":"Point","coordinates":[-37.6,-4.300000000000001]}},{"type":"Feature","properties":{"id":"2412104","nome":"São João do Sabugi","uf":"RN"},"geometry":{"type":"Point","coordinates":[-37.32,-4.21]}},{"type":"Feature","properties":{"id":"2412203","nome":"São José de Mipibu","uf":"RN"},"geometry":{"type":"Point","coordinates":[-37.04,-4.12]}},{"type":"Feature","properties":{"id":"2412302","nome":"São José do Campestre","uf":"RN"},"geometry":{"type":"Point","coordinates":[-36.76,-4.03]}},{"type":"Feature","properties":{"id":"2412401","nome":"São José do Seridó","uf":"RN"},"geometry":{"type":"Point","coordinates":[-36.48,-6.94]}},{"type":"Feature","properties":{"id":"2412500","nome":"São Miguel","uf":"RN"},"geometry":{"type":"Point","coordinates":[-36.2,-6.85]}},{"type":"Feature","properties":{"id":"2412559","nome":"São Miguel do Gostoso","uf":"RN"},"geometry":{"type":"Point","coordinates":[-35.92,-6.76]}},{"type":"Feature","properties":{"id":"2412609","nome":"São Paulo do Potengi","uf":"RN"},"geometry":{"type":"Point","coordinates":[-35.64,-6.67]}},{"type":"Feature","properties":{"id":"2412708","nome":"São Pedro","uf":"RN"},"geometry":{"type":"Point","coordinates":[-35.36,-6.58]}},{"type":"Feature","properties":{"id":"2412807","nome":"São Rafael","uf":"RN"},"geometry":{"type":"Point","coordinates":[-35.08,-6.49]}},{"type":"Feature","properties":{"id":"2412906","nome":"São Tomé","uf":"RN"},"geometry":{"type":"Point","coordinates":[-34.8,-6.4]}},{"type":"Feature","properties":{"id":"2413003","nome":"São Vicente","uf":"RN"},"geometry":{"type":"Point","coordinates":[-34.52,-6.3100000000000005]}},{"type":"Feature","properties":{"id":"2413102","nome":"Senador Elói de Souza","uf":"RN"},"geometry":{"type":"Point","coordinates":[-34.24,-6.22]}},{"type":"Feature","properties":{"id":"2413201","nome":"Senador Georgino Avelino","uf":"RN"},"geometry":{"type":"Point","coordinates":[-37.96,-6.13]}},{"type":"Feature","properties":{"id":"2413300","nome":"Serra de São Bento","uf":"RN"},"geometry":{"type":"Point","coordinates":[-37.68,-6.04]}},{"type":"Feature","properties":{"id":"2413359","nome":"Serra do Mel","uf":"RN"},"geometry":{"type":"Point","coordinates":[-37.4,-5.95]}},{"type":"Feature","properties":{"id":"2413409","nome":"Serra Negra do Norte","uf":"RN"},"geometry":{"type":"Point","coordinates":[-37.12,-5.86]}},{"type":"Feature","properties":{"id":"2413508","nome":"Serrinha","uf":"RN"},"geometry":{"type":"Point","coordinates":[-36.84,-5.77]}},{"type":"Feature","properties":{"id":"2413557","nome":"Serrinha dos Pintos","uf":"RN"},"geometry":{"type":"Point","coordinates":[-36.56,-5.68]}},{"type":"Feature","properties":{"id":"2413607","nome":"Severiano Melo","uf":"RN"},"geometry":{"type":"Point","coordinates":[-36.28,-5.59]}},{"type":"Feature","properties":{"id":"2413706","nome":"Sítio Novo","uf":"RN"},"geometry":{"type":"Point","coordinates":[-36,-5.5]}},{"type":"Feature","properties":{"id":"2413805","nome":"Taboleiro Grande","uf":"RN"},"geometry":{"type":"Point","coordinates":[-35.72,-5.41]}},{"type":"Feature","properties":{"id":"2413904","nome":"Taipu","uf":"RN"},"geometry":{"type":"Point","coordinates":[-35.44,-5.32]}},{"type":"Feature","properties":{"id":"2414001","nome":"Tangará","uf":"RN"},"geometry":{"type":"Point","coordinates":[-35.16,-5.23]}},{"type":"Feature","properties":{"id":"2414100","nome":"Tenente Ananias","uf":"RN"},"geometry":{"type":"Point","coordinates":[-34.88,-5.140000000000001]}},{"type":"Feature","properties":{"id":"2414159","nome":"Tenente Laurentino Cruz","uf":"RN"},"geometry":{"type":"Point","coordinates":[-34.6,-5.05]}},{"type":"Feature","properties":{"id":"2414209","nome":"Tibau do Sul","uf":"RN"},"geometry":{"type":"Point","coordinates":[-34.32,-4.96]}},{"type":"Feature","properties":{"id":"2414308","nome":"Timbaúba dos Batistas","uf":"RN"},"geometry":{"type":"Point","coordinates":[-34.04,-4.87]}},{"type":"Feature","properties":{"id":"2414407","nome":"Touros","uf":"RN"},"geometry":{"type":"Point","coordinates":[-37.76,-4.78]}},{"type":"Feature","properties":{"id":"2414456","nome":"Triunfo Potiguar","uf":"RN"},"geometry":{"type":"Point","coordinates":[-37.48,-4.6899999999999995]}},{"type":"Feature","properties":{"id":"2414506","nome":"Umarizal","uf":"RN"},"geometry":{"type":"Point","coordinates":[-37.2,-4.6]}},{"type":"Feature","properties":{"id":"2414605","nome":"Upanema","uf":"RN"},"geometry":{"type":"Point","coordinates":[-36.92,-4.51]}},{"type":"Feature","properties":{"id":"2414704","nome":"Várzea","uf":"RN"},"geometry":{"type":"Point","coordinates":[-36.64,-4.42]}},{"type":"Feature","properties":{"id":"2414753","nome":"Venha-Ver","uf":"RN"},"geometry":{"type":"Point","coordinates":[-36.36,-4.33]}},{"type":"Feature","properties":{"id":"2414803","nome":"Vera Cruz","uf":"RN"},"geometry":{"type":"Point","coordinates":[-36.08,-4.24]}},{"type":"Feature","properties":{"id":"2414902","nome":"Viçosa","uf":"RN"},"geometry":{"type":"Point","coordinates":[-35.8,-4.15]}},{"type":"Feature","properties":{"id":"2415008","nome":"Vila Flor","uf":"RN"},"geometry":{"type":"Point","coordinates":[-35.52,-4.0600000000000005]}}]}