{"type":"FeatureCollection","features":[{"type":"Feature","properties":{"id":"2500106","nome":"Água Branca","uf":"PB"},"geometry":{"type":"Point","coordinates":[-38,-8]}},{"type":"Feature","properties":{"id":"2500205","nome":"Aguiar","uf":"PB"},"geometry":{"type":"Point","coordinates":[-37.72,-7.94]}},{"type":"Feature","properties":{"id":"2500304","nome":"Alagoa Grande","uf":"PB"},"geometry":{"type":"Point","coordinates":[-37.44,-7.88]}},{"type":"Feature","properties":{"id":"2500403","nome":"Alagoa Nova","uf":"PB"},"geometry":{"type":"Point","coordinates":[-37.16,-7.82]}},{"type":"Feature","properties":{"id":"2500502","nome":"Alagoinha","uf":"PB"},"geometry":{"type":"Point","coordinates":[-36.88,-7.76]}},{"type":"Feature","properties":{"id":"2500536","nome":"Alcantil","uf":"PB"},"geometry":{"type":"Point","coordinates":[-36.6,-7.7]}},{"type":"Feature","properties":{"id":"2500577","nome":"Algodão de Jandaíra","uf":"PB"},"geometry":{"type":"Point","coordinates":[-36.32,-7.64]}},{"type":"Feature","properties":{"id":"2500601","nome":"Alhandra","uf":"PB"},"geometry":{"type":"Point","coordinates":[-36.04,-7.58]}},{"type":"Feature","properties":{"id":"2500700","nome":"São João do Rio do Peixe","uf":"PB"},"geometry":{"type":"Point","coordinates":[-35.76,-7.52]}},{"type":"Feature","properties":{"id":"2500734","nome":"Amparo","uf":"PB"},"geometry":{"type":"Point","coordinates":[-35.48,-7.46]}},{"type":"Feature","properties":{"id":"2500775","nome":"Aparecida","uf":"PB"},"geometry":{"type":"Point","coordinates":[-35.2,-7.4]}},{"type":"Feature","properties":{"id":"2500809","nome":"Araçagi","uf":"PB"},"geometry":{"type":"Point","coordinates":[-34.92,-7.34]}},{"type":"Feature","properties":{"id":"2500908","nome":"Arara","uf":"PB"},"geometry":{"type":"Point","coordinates":[-34.64,-7.28]}},{"type":"Feature","properties":{"id":"2501005","nome":"Araruna","uf":"PB"},"geometry":{"type":"Point","coordinates":[-34.36,-7.22]}},{"type":"Feature","properties":{"id":"2501104","nome":"Areia","uf":"PB"},"geometry":{"type":"Point","coordinates":[-34.08,-7.16]}},{"type":"Feature","properties":{"id":"2501153","nome":"Areia de Baraúnas","uf":"PB"},"geometry":{"type":"Point","coordinates":[-37.8,-7.1]}},{"type":"Feature","properties":{"id":"2501203","nome":"Areial","uf":"PB"},"geometry":{"type":"Point","coordinates":[-37.52,-7.04]}},{"type":"Feature","properties":{"id":"2501302","nome":"Aroeiras","uf":"PB"},"geometry":{"type":"Point","coordinates":[-37.24,-6.98]}},{"type":"Feature","properties":{"id":"2501351","nome":"Assunção","uf":"PB"},"geometry":{"type":"Point","coordinates":[-36.96,-6.92]}},{"type":"Feature","properties":{"id":"2501401","nome":"Baía da Traição","uf":"PB"},"geometry":{"type":"Point","coordinates":[-36.68,-6.859999999999999]}},{"type":"Feature","properties":{"id":"2501500","nome":"Bananeiras","uf":"PB"},"geometry":{"type":"Point","coordinates":[-36.4,-6.8]}},{"type":"Feature","properties":{"id":"2501534","nome":"Baraúna","uf":"PB"},"geometry":{"type":"Point","coordinates":[-36.12,-6.74]}},{"type":"Feature","properties":{"id":"2501575","nome":"Barra de Santana","uf":"PB"},"geometry":{"type":"Point","coordinates":[-35.84,-6.68]}},{"type":"Feature","properties":{"id":"2501609","nome":"Barra de Santa Rosa","uf":"PB"},"geometry":{"type":"Point","coordinates":[-35.56,-6.62]}},{"type":"Feature","properties":{"id":"2501708","nome":"Barra de São Miguel","uf":"PB"},"geometry":{"type":"Point","coordinates":[-35.28,-6.5600000000000005]}},{"type":"Feature","properties":{"id":"2501807","nome":"Bayeux","uf":"PB"},"geometry":{"type":"Point","coordinates":[-35,-6.5]}},{"type":"Feature","properties":{"id":"2501906","nome":"Belém","uf":"PB"},"geometry":{"type":"Point","coordinates":[-34.72,-6.4399999999999995]}},{"type":"Feature","properties":{"id":"2502003","nome":"Belém do Brejo do Cruz","uf":"PB"},"geometry":{"type":"Point","coordinates":[-34.44,-6.38]}},{"type":"Feature","properties":{"id":"2502052","nome":"Bernardino Batista","uf":"PB"},"geometry":{"type":"Point","coordinates":[-34.16,-6.32]}},{"type":"Feature","properties":{"id":"2502102","nome":"Boa Ventura","uf":"PB"},"geometry":{"type":"Point","coordinates":[-37.88,-6.26]}},{"type":"Feature","properties":{"id":"2502151","nome":"Boa Vista","uf":"PB"},"geometry":{"type":"Point","coordinates":[-37.6,-6.2]}},{"type":"Feature","properties":{"id":"2502201","nome":"Bom Jesus","uf":"PB"},"geometry":{"type":"Point","coordinates":[-37.32,-6.14]}},{"type":"Feature","properties":{"id":"2502300","nome":"Bom Sucesso","uf":"PB"},"geometry":{"type":"Point","coordinates":[-37.04,-6.08]}},{"type":"Feature","properties":{"id":"2502409","nome":"Bonito de Santa Fé","uf":"PB"},"geometry":{"type":"Point","coordinates":[-36.76,-6.02]}},{"type":"Feature","properties":{"id":"2502508","nome":"Boqueirão","uf":"PB"},"geometry":{"type":"Point","coordinates":[-36.48,-7.96]}},{"type":"Feature","properties":{"id":"2502607","nome":"Igaracy","uf":"PB"},"geometry":{"type":"Point","coordinates":[-36.2,-7.9]}},{"type":"Feature","properties":{"id":"2502706","nome":"Borborema","uf":"PB"},"geometry":{"type":"Point","coordinates":[-35.92,-7.84]}},{"type":"Feature","properties":{"id":"2502805","nome":"Brejo do Cruz","uf":"PB"},"geometry":{"type":"Point","coordinates":[-35.64,-7.78]}},{"type":"Feature","properties":{"id":"2502904","nome":"Brejo dos Santos","uf":"PB"},"geometry":{"type":"Point","coordinates":[-35.36,-7.72]}},{"type":"Feature","properties":{"id":"2503001","nome":"Caaporã","uf":"PB"},"geometry":{"type":"Point","coordinates":[-35.08,-7.66]}},{"type":"Feature","properties":{"id":"2503100","nome":"Cabaceiras","uf":"PB"},"geometry":{"type":"Point","coordinates":[-34.8,-7.6]}},{"type":"Feature","properties":{"id":"2503209","nome":"Cabedelo","uf":"PB"},"geometry":{"type":"Point","coordinates":[-34.52,-7.54]}},{"type":"Feature","properties":{"id":"2503308","nome":"Cachoeira dos Índios","uf":"PB"},"geometry":{"type":"Point","coordinates":[-34.24,-7.48]}},{"type":"Feature","properties":{"id":"2503407","nome":"Cacimba de Areia","uf":"PB"},"geometry":{"type":"Point","coordinates":[-37.96,-7.42]}},{"type":"Feature","properties":{"id":"2503506","nome":"Cacimba de Dentro","uf":"PB"},"geometry":{"type":"Point","coordinates":[-37.68,-7.36]}},{"type":"Feature","properties":{"id":"2503555","nome":"Cacimbas","uf":"PB"},"geometry":{"type":"Point","coordinates":[-37.4,-7.3]}},{"type":"Feature","properties":{"id":"2503605","nome":"Caiçara","uf":"PB"},"geometry":{"type":"Point","coordinates":[-37.12,-7.24]}},{"type":"Feature","properties":{"id":"2503704","nome":"Cajazeiras","uf":"PB"},"geometry":{"type":"Point","coordinates":[-36.84,-7.18]}},{"type":"Feature","properties":{"id":"2503753","nome":"Cajazeirinhas","uf":"PB"},"geometry":{"type":"Point","coordinates":[-36.56,-7.12]}},{"type":"Feature","properties":{"id":"2503803","nome":"Caldas Brandão","uf":"PB"},"geometry":{"type":"Point","coordinates":[-36.28,-7.06]}},{"type":"Feature","properties":{"id":"2503902","nome":"Camalaú","uf":"PB"},"geometry":{"type":"Point","coordinates":[-36,-7]}},{"type":"Feature","properties":{"id":"2504009","nome":"Campina Grande","uf":"PB"},"geometry":{"type":"Point","coordinates":[-35.72,-6.9399999999999995]}},{"type":"Feature","properties":{"id":"2504033","nome":"Capim","uf":"PB"},"geometry":{"type":"Point","coordinates":[-35.44,-6.88]}},{"type":"Feature","properties":{"id":"2504074","nome":"Caraúbas","uf":"PB"},"geometry":{"type":"Point","coordinates":[-35.16,-6.82]}},{"type":"Feature","properties":{"id":"2504108","nome":"Carrapateira","uf":"PB"},"geometry":{"type":"Point","coordinates":[-34.88,-6.76]}},{"type":"Feature","properties":{"id":"2504157","nome":"Casserengue","uf":"PB"},"geometry":{"type":"Point","coordinates":[-34.6,-6.7]}},{"type":"Feature","properties":{"id":"2504207","nome":"Catingueira","uf":"PB"},"geometry":{"type":"Point","coordinates":[-34.32,-6.64]}},{"type":"Feature","properties":{"id":"2504306","nome":"Catolé do Rocha","uf":"PB"},"geometry":{"type":"Point","coordinates":[-34.04,-6.58]}},{"type":"Feature","properties":{"id":"2504355","nome":"Caturité","uf":"PB"},"geometry":{"type":"Point","coordinates":[-37.76,-6.52]}},{"type":"Feature","properties":{"id":"2504405","nome":"Conceição","uf":"PB"},"geometry":{"type":"Point","coordinates":[-37.48,-6.46]}},{"type":"Feature","properties":{"id":"2504504","nome":"Condado","uf":"PB"},"geometry":{"type":"Point","coordinates":[-37.2,-6.4]}},{"type":"Feature","properties":{"id":"2504603","nome":"Conde","uf":"PB"},"geometry":{"type":"Point","coordinates":[-36.92,-6.34]}},{"type":"Feature","properties":{"id":"2504702","nome":"Congo","uf":"PB"},"geometry":{"type":"Point","coordinates":[-36.64,-6.28]}},{"type":"Feature","properties":{"id":"2504801","nome":"Coremas","uf":"PB"},"geometry":{"type":"Point","coordinates":[-36.36,-6.22]}},{"type":"Feature","properties":{"id":"2504850","nome":"Coxixola","uf":"PB"},"geometry":{"type":"Point","coordinates":[-36.08,-6.16]}},{"type":"Feature","properties":{"id":"2504900","nome":"Cruz do Espírito Santo","uf":"PB"},"geometry":{"type":"Point","coordinates":[-35.8,-6.1]}},{"type":"Feature","properties":{"id":"2505006","nome":"Cubati","uf":"PB"},"geometry":{"type":"Point","coordinates":[-35.52,-6.04]}},{"type":"Feature","properties":{"id":"2505105","nome":"Cuité","uf":"PB"},"geometry":{"type":"Point","coordinates":[-35.24,-7.98]}},{"type":"Feature","properties":{"id":"2505204","nome":"Cuitegi","uf":"PB"},"geometry":{"type":"Point","coordinates":[-34.96,-7.92]}},{"type":"Feature","properties":{"id":"2505238","nome":"Cuité de Mamanguape","uf":"PB"},"geometry":{"type":"Point","coordinates":[-34.68,-7.86]}},{"type":"Feature","properties":{"id":"2505279","nome":"Curral de Cima","uf":"PB"},"geometry":{"type":"Point","coordinates":[-34.4,-7.8]}},{"type":"Feature","properties":{"id":"2505303","nome":"Curral Velho","uf":"PB"},"geometry":{"type":"Point","coordinates":[-34.12,-7.74]}},{"type":"Feature","properties":{"id":"2505352","nome":"Damião","uf":"PB"},"geometry":{"type":"Point","coordinates":[-37.84,-7.68]}},{"type":"Feature","properties":{"id":"2505402","nome":"Desterro","uf":"PB"},"geometry":{"type":"Point","coordinates":[-37.56,-7.62]}},{"type":"Feature","properties":{"id":"2505501","nome":"Vista Serrana","uf":"PB"},"geometry":{"type":"Point","coordinates":[-37.28,-7.56]}},{"type":"Feature","properties":{"id":"2505600","nome":"Diamante","uf":"PB"},"geometry":{"type":"Point","coordinates":[-37,-7.5]}},{"type":"Feature","properties":{"id":"2505709","nome":"Dona Inês","uf":"PB"},"geometry":{"type":"Point","coordinates":[-36.72,-7.4399999999999995]}},{"type":"Feature","properties":{"id":"2505808","nome":"Duas Estradas","uf":"PB"},"geometry":{"type":"Point","coordinates":[-36.44,-7.38]}},{"type":"Feature","properties":{"id":"2505907","nome":"Emas","uf":"PB"},"geometry":{"type":"Point","coordinates":[-36.16,-7.32]}},{"type":"Feature","properties":{"id":"2506004","nome":"Esperança","uf":"PB"},"geometry":{"type":"Point","coordinates":[-35.88,-7.26]}},{"type":"Feature","properties":{"id":"2506103","nome":"Fagundes","uf":"PB"},"geometry":{"type":"Point","coordinates":[-35.6,-7.2]}},{"type":"Feature","properties":{"id":"2506202","nome":"Frei Martinho","uf":"PB"},"geometry":{"type":"Point","coordinates":[-35.32,-7.14]}},{"type":"Feature","properties":{"id":"2506251","nome":"Gado Bravo","uf":"PB"},"geometry":{"type":"Point","coordinates":[-35.04,-7.08]}},{"type":"Feature","properties":{"id":"2506301","nome":"Guarabira","uf":"PB"},"geometry":{"type":"Point","coordinates":[-34.76,-7.02]}},{"type":"Feature","properties":{"id":"2506400","nome":"Gurinhém","uf":"PB"},"geometry":{"type":"Point","coordinates":[-34.48,-6.96]}},{"type":"Feature","properties":{"id":"2506509","nome":"Gurjão","uf":"PB"},"geometry":{"type":"Point","coordinates":[-34.2,-6.9]}},{"type":"Feature","properties":{"id":"2506608","nome":"Ibiara","uf":"PB"},"geometry":{"type":"Point","coordinates":[-37.92,-6.84]}},{"type":"Feature","properties":{"id":"2506707","nome":"Imaculada","uf":"PB"},"geometry":{"type":"Point","coordinates":[-37.64,-6.78]}},{"type":"Feature","properties":{"id":"2506806","nome":"Ingá","uf":"PB"},"geometry":{"type":"Point","coordinates":[-37.36,-6.72]}},{"type":"Feature","properties":{"id":"2506905","nome":"Itabaiana","uf":"PB"},"geometry":{"type":"Point","coordinates":[-37.08,-6.66]}},{"type":"Feature","properties":{"id":"2507002","nome":"Itaporanga","uf":"PB"},"geometry":{"type":"Point","coordinates":[-36.8,-6.6]}},{"type":"Feature","properties":{"id":"2507101","nome":"Itapororoca","uf":"PB"},"geometry":{"type":"Point","coordinates":[-36.52,-6.54]}},{"type":"Feature","properties":{"id":"2507200","nome":"Itatuba","uf":"PB"},"geometry":{"type":"Point","coordinates":[-36.24,-6.48]}},{"type":"Feature","properties":{"id":"2507309","nome":"Jacaraú","uf":"PB"},"geometry":{"type":"Point","coordinates":[-35.96,-6.42]}},{"type":"Feature","properties":{"id":"2507408","nome":"Jericó","uf":"PB"},"geometry":{"type":"Point","coordinates":[-35.68,-6.359999999999999]}},{"type":"Feature","properties":{"id":"2507507","nome":"João Pessoa","uf":"PB"},"geometry":{"type":"Point","coordinates":[-35.4,-6.3]}},{"type":"Feature","properties":{"id":"2507606","nome":"Juarez Távora","uf":"PB"},"geometry":{"type":"Point","coordinates":[-35.12,-6.24]}},{"type":"Feature","properties":{"id":"2507705","nome":"Juazeirinho","uf":"PB"},"geometry":{"type":"Point","coordinates":[-34.84,-6.18]}},{"type":"Feature","properties":{"id":"2507804","nome":"Junco do Seridó","uf":"PB"},"geometry":{"type":"Point","coordinates":[-34.56,-6.12]}},{"type":"Feature","properties":{"id":"2507903","nome":"Juripiranga","uf":"PB"},"geometry":{"type":"Point","coordinates":[-34.28,-6.0600000000000005]}},{"type":"Feature","properties":{"id":"2508000","nome":"Juru","uf":"PB"},"geometry":{"type":"Point","coordinates":[-38,-8]}},{"type":"Feature","properties":{"id":"2508109","nome":"Lagoa","uf":"PB"},"geometry":{"type":"Point","coordinates":[-37.72,-7.94]}},{"type":"Feature","properties":{"id":"2508208","nome":"Lagoa de Dentro","uf":"PB"},"geometry":{"type":"Point","coordinates":[-37.44,-7.88]}},{"type":"Feature","properties":{"id":"2508307","nome":"Lagoa Seca","uf":"PB"},"geometry":{"type":"Point","coordinates":[-37.16,-7.82]}},{"type":"Feature","properties":{"id":"2508406","nome":"Lastro","uf":"PB"},"geometry":{"type":"Point","coordinates":[-36.88,-7.76]}},{"type":"Feature","properties":{"id":"2508505","nome":"Livramento","uf":"PB"},"geometry":{"type":"Point","coordinates":[-36.6,-7.7]}},{"type":"Feature","properties":{"id":"2508554","nome":"Logradouro","uf":"PB"},"geometry":{"type":"Point","coordinates":[-36.32,-7.64]}},{"type":"Feature","properties":{"id":"2508604","nome":"Lucena","uf":"PB"},"geometry":{"type":"Point","coordinates":[-36.04,-7.58]}},{"type":"Feature","properties":{"id":"2508703","nome":"Mãe d'Água","uf":"PB"},"geometry":{"type":"Point","coordinates":[-35.76,-7.52]}},{"type":"Feature","properties":{"id":"2508802","nome":"Malta","uf":"PB"},"geometry":{"type":"Point","coordinates":[-35.48,-7.46]}},{"type":"Feature","properties":{"id":"2508901","nome":"Mamanguape","uf":"PB"},"geometry":{"type":"Point","coordinates":[-35.2,-7.4]}},{"type":"Feature","properties":{"id":"2509008","nome":"Manaíra","uf":"PB"},"geometry":{"type":"Point","coordinates":[-34.92,-7.34]}},{"type":"Feature","properties":{"id":"2509057","nome":"Marcação","uf":"PB"},"geometry":{"type":"Point","coordinates":[-34.64,-7.28]}},{"type":"Feature","properties":{"id":"2509107","nome":"Mari","uf":"PB"},"geometry":{"type":"Point","coordinates":[-34.36,-7.22]}},{"type":"Feature","properties":{"id":"2509156","nome":"Marizópolis","uf":"PB"},"geometry":{"type":"Point","coordinates":[-34.08,-7.16]}},{"type":"Feature","properties":{"id":"2509206","nome":"Massaranduba","uf":"PB"},"geometry":{"type":"Point","coordinates":[-37.8,-7.1]}},{"type":"Feature","properties":{"id":"2509305","nome":"Mataraca","uf":"PB"},"geometry":{"type":"Point","coordinates":[-37.52,-7.04]}},{"type":"Feature","properties":{"id":"2509339","nome":"Matinhas","uf":"PB"},"geometry":{"type":"Point","coordinates":[-37.24,-6.98]}},{"type":"Feature","properties":{"id":"2509370","nome":"Mato Grosso","uf":"PB"},"geometry":{"type":"Point","coordinates":[-36.96,-6.92]}},{"type":"Feature","properties":{"id":"2509396","nome":"Maturéia","uf":"PB"},"geometry":{"type":"Point","coordinates":[-36.68,-6.859999999999999]}},{"type":"Feature","properties":{"id":"2509404","nome":"Mogeiro","uf":"PB"},"geometry":{"type":"Point","coordinates":[-36.4,-6.8]}},{"type":"Feature","properties":{"id":"2509503","nome":"Montadas","uf":"PB"},"geometry":{"type":"Point","coordinates":[-36.12,-6.74]}},{"type":"Feature","properties":{"id":"2509602","nome":"Monte Horebe","uf":"PB"},"geometry":{"type":"Point","coordinates":[-35.84,-6.68]}},{"type":"Feature","properties":{"id":"2509701","nome":"Monteiro","uf":"PB"},"geometry":{"type":"Point","coordinates":[-35.56,-6.62]}},{"type":"Feature","properties":{"id":"2509800","nome":"Mulungu","uf":"PB"},"geometry":{"type":"Point","coordinates":[-35.28,-6.5600000000000005]}},{"type":"Feature","properties":{"id":"2509909","nome":"Natuba","uf":"PB"},"geometry":{"type":"Point","coordinates":[-35,-6.5]}},{"type":"Feature","properties":{"id":"2510006","nome":"Nazarezinho","uf":"PB"},"geometry":{"type":"Point","coordinates":[-34.72,-6.4399999999999995]}},{"type":"Feature","properties":{"id":"2510105","nome":"Nova Floresta","uf":"PB"},"geometry":{"type":"Point","coordinates":[-34.44,-6.38]}},{"type":"Feature","properties":{"id":"2510204","nome":"Nova Olinda","uf":"PB"},"geometry":{"type":"Point","coordinates":[-34.16,-6.32]}},{"type":"Feature","properties":{"id":"2510303","nome":"Nova Palmeira","uf":"PB"},"geometry":{"type":"Point","coordinates":[-37.88,-6.26]}},{"type":"Feature","properties":{"id":"2510402","nome":"Olho d'Água","uf":"PB"},"geometry":{"type":"Point","coordinates":[-37.6,-6.2]}},{"type":"Feature","properties":{"id":"2510501","nome":"Olivedos","uf":"PB"},"geometry":{"type":"Point","coordinates":[-37.32,-6.14]}},{"type":"Feature","properties":{"id":"2510600","nome":"Ouro Velho","uf":"PB"},"geometry":{"type":"Point","coordinates":[-37.04,-6.08]}},{"type":"Feature","properties":{"id":"2510659","nome":"Parari","uf":"PB"},"geometry":{"type":"Point","coordinates":[-36.76,-6.02]}},{"type":"Feature","properties":{"id":"2510709","nome":"Passagem","uf":"PB"},"geometry":{"type":"Point","coordinates":[-36.48,-7.96]}},{"type":"Feature","properties":{"id":"2510808","nome":"Patos","uf":"PB"},"geometry":{"type":"Point","coordinates":[-36.2,-7.9]}},{"type":"Feature","properties":{"id":"2510907","nome":"Paulista","uf":"PB"},"geometry":{"type":"Point","coordinates":[-35.92,-7.84]}},{"type":"Feature","properties":{"id":"2511004","nome":"Pedra Branca","uf":"PB"},"geometry":{"type":"Point","coordinates":[-35.64,-7.78]}},{"type":"Feature","properties":{"id":"2511103","nome":"Pedra Lavrada","uf":"PB"},"geometry":{"type":"Point","coordinates":[-35.36,-7.72]}},{"type":"Feature","properties":{"id":"2511202","nome":"Pedras de Fogo","uf":"PB"},"geometry":{"type":"Point","coordinates":[-35.08,-7.66]}},{"type":"Feature","properties":{"id":"2511301","nome":"Piancó","uf":"PB"},"geometry":{"type":"Point","coordinates":[-34.8,-7.6]}},{"type":"Feature","properties":{"id":"2511400","nome":"Picuí","uf":"PB"},"geometry":{"type":"Point","coordinates":[-34.52,-7.54]}},{"type":"Feature","properties":{"id":"2511509","nome":"Pilar","uf":"PB"},"geometry":{"type":"Point","coordinates":[-34.24,-7.48]}},{"type":"Feature","properties":{"id":"2511608","nome":"Pilões","uf":"PB"},"geometry":{"type":"Point","coordinates":[-37.96,-7.42]}},{"type":"Feature","properties":{"id":"2511707","nome":"Pilõezinhos","uf":"PB"},"geometry":{"type":"Point","coordinates":[-37.68,-7.36]}},{"type":"Feature","properties":{"id":"2511806","nome":"Pirpirituba","uf":"PB"},"geometry":{"type":"Point","coordinates":[-37.4,-7.3]}},{"type":"Feature","properties":{"id":"2511905","nome":"Pitimbu","uf":"PB"},"geometry":{"type":"Point","coordinates":[-37.12,-7.24]}},{"type":"Feature","properties":{"id":"2512002","nome":"Pocinhos","uf":"PB"},"geometry":{"type":"Point","coordinates":[-36.84,-7.18]}},{"type":"Feature","properties":{"id":"2512036","nome":"Poço Dantas","uf":"PB"},"geometry":{"type":"Point","coordinates":[-36.56,-7.12]}},{"type":"Feature","properties":{"id":"2512077","nome":"Poço de José de Moura","uf":"PB"},"geometry":{"type":"Point","coordinates":[-36.28,-7.06]}},{"type":"Feature","properties":{"id":"2512101","nome":"Pombal","uf":"PB"},"geometry":{"type":"Point","coordinates":[-36,-7]}},{"type":"Feature","properties":{"id":"2512200","nome":"Prata","uf":"PB"},"geometry":{"type":"Point","coordinates":[-35.72,-6.9399999999999995]}},{"type":"Feature","properties":{"id":"2512309","nome":"Princesa Isabel","uf":"PB"},"geometry":{"type":"Point","coordinates":[-35.44,-6.88]}},{"type":"Feature","properties":{"id":"2512408","nome":"Puxinanã","uf":"PB"},"geometry":{"type":"Point","coordinates":[-35.16,-6.82]}},{"type":"Feature","properties":{"id":"2512507","nome":"Queimadas","uf":"PB"},"geometry":{"type":"Point","coordinates":[-34.88,-6.76]}},{"type":"Feature","properties":{"id":"2512606","nome":"Quixaba","uf":"PB"},"geometry":{"type":"Point","coordinates":[-34.6,-6.7]}},{"type":"Feature","properties":{"id":"2512705","nome":"Remígio","uf":"PB"},"geometry":{"type":"Point","coordinates":[-34.32,-6.64]}},{"type":"Feature","properties":{"id":"2512721","nome":"Pedro Régis","uf":"PB"},"geometry":{"type":"Point","coordinates":[-34.04,-6.58]}},{"type":"Feature","properties":{"id":"2512747","nome":"Riachão","uf":"PB"},"geometry":{"type":"Point","coordinates":[-37.76,-6.52]}},{"type":"Feature","properties":{"id":"2512754","nome":"Riachão do Bacamarte","uf":"PB"},"geometry":{"type":"Point","coordinates":[-37.48,-6.46]}},{"type":"Feature","properties":{"id":"2512762","nome":"Riachão do Poço","uf":"PB"},"geometry":{"type":"Point","coordinates":[-37.2,-6.4]}},{"type":"Feature","properties":{"id":"2512788","nome":"Riacho de Santo Antônio","uf":"PB"},"geometry":{"type":"Point","coordinates":[-36.92,-6.34]}},{"type":"Feature","properties":{"id":"2512804","nome":"Riacho dos Cavalos","uf":"PB"},"geometry":{"type":"Point","coordinates":[-36.64,-6.28]}},{"type":"Feature","properties":{"id":"2512903","nome":"Rio Tinto","uf":"PB"},"geometry":{"type":"Point","coordinates":[-36.36,-6.22]}},{"type":"Feature","properties":{"id":"2513000","nome":"Salgadinho","uf":"PB"},"geometry":{"type":"Point","coordinates":[-36.08,-6.16]}},{"type":"Feature","properties":{"id":"2513109","nome":"Salgado de São Félix","uf":"PB"},"geometry":{"type":"Point","coordinates":[-35.8,-6.1]}},{"type":"Feature","properties":{"id":"2513158","nome":"Santa Cecília","uf":"PB"},"geometry":{"type":"Point","coordinates":[-35.52,-6.04]}},{"type":"Feature","properties":{"id":"2513208","nome":"Santa Cruz","uf":"PB"},"geometry":{"type":"Point","coordinates":[-35.24,-7.98]}},{"type":"Feature","properties":{"id":"2513307","nome":"Santa Helena","uf":"PB"},"geometry":{"type":"Point","coordinates":[-34.96,-7.92]}},{"type":"Feature","properties":{"id":"2513356","nome":"Santa Inês","uf":"PB"},"geometry":{"type":"Point","coordinates":[-34.68,-7.86]}},{"type":"Feature","properties":{"id":"2513406","nome":"Santa Luzia","uf":"PB"},"geometry":{"type":"Point","coordinates":[-34.4,-7.8]}},{"type":"Feature","properties":{"id":"2513505","nome":"Santana de Mangueira","uf":"PB"},"geometry":{"type":"Point","coordinates":[-34.12,-7.74]}},{"type":"Feature","properties":{"id":"2513604","nome":"Santana dos Garrotes","uf":"PB"},"geometry":{"type":"Point","coordinates":[-37.84,-7.68]}},{"type":"Feature","properties":{"id":"2513653","nome":"Joca Claudino","uf":"PB"},"geometry":{"type":"Point","coordinates":[-37.56,-7.62]}},{"type":"Feature","properties":{"id":"2513703","nome":"Santa Rita","uf":"PB"},"geometry":{"type":"Point","coordinates":[-37.28,-7.56]}},{"type":"Feature","properties":{"id":"2513802","nome":"Santa Teresinha","uf":"PB"},"geometry":{"type":"Point","coordinates":[-37,-7.5]}},{"type":"Feature","properties":{"id":"2513851","nome":"Santo André","uf":"PB"},"geometry":{"type":"Point","coordinates":[-36.72,-7.4399999999999995]}},{"type":"Feature","properties":{"id":"2513901","nome":"São Bento","uf":"PB"},"geometry":{"type":"Point","coordinates":[-36.44,-7.38]}},{"type":"Feature","properties":{"id":"2513927","nome":"São Bentinho","uf":"PB"},"geometry":{"type":"Point","coordinates":[-36.16,-7.32]}},{"type":"Feature","properties":{"id":"2513943","nome":"São Domingos do Cariri","uf":"PB"},"geometry":{"type":"Point","coordinates":[-35.88,-7.26]}},{"type":"Feature","properties":{"id":"2513968","nome":"São Domingos","uf":"PB"},"geometry":{"type":"Point","coordinates":[-35.6,-7.2]}},{"type":"Feature","properties":{"id":"2513984","nome":"São Francisco","uf":"PB"},"geometry":{"type":"Point","coordinates":[-35.32,-7.14]}},{"type":"Feature","properties":{"id":"2514008","nome":"São João do Cariri","uf":"PB"},"geometry":{"type":"Point","coordinates":[-35.04,-7.08]}},{"type":"Feature","properties":{"id":"2514107","nome":"São João do Tigre","uf":"PB"},"geometry":{"type":"Point","coordinates":[-34.76,-7.02]}},{"type":"Feature","properties":{"id":"2514206","nome":"São José da Lagoa Tapada","uf":"PB"},"geometry":{"type":"Point","coordinates":[-34.48,-6.96]}},{"type":"Feature","properties":{"id":"2514305","nome":"São José de Caiana","uf":"PB"},"geometry":{"type":"Point","coordinates":[-34.2,-6.9]}},{"type":"Feature","properties":{"id":"2514404","nome":"São José de Espinharas","uf":"PB"},"geometry":{"type":"Point","coordinates":[-37.92,-6.84]}},{"type":"Feature","properties":{"id":"2514453","nome":"São José dos Ramos","uf":"PB"},"geometry":{"type":"Point","coordinates":[-37.64,-6.78]}},{"type":"Feature","properties":{"id":"2514503","nome":"São José de Piranhas","uf":"PB"},"geometry":{"type":"Point","coordinates":[-37.36,-6.72]}},{"type":"Feature","properties":{"id":"2514552","nome":"São José de Princesa","uf":"PB"},"geometry":{"type":"Point","coordinates":[-37.08,-6.66]}},{"type":"Feature","properties":{"id":"2514602","nome":"São José do Bonfim","uf":"PB"},"geometry":{"type":"Point","coordinates":[-36.8,-6.6]}},{"type":"Feature","properties":{"id":"2514651","nome":"São José do Brejo do Cruz","uf":"PB"},"geometry":{"type":"Point","coordinates":[-36.52,-6.54]}},{"type":"Feature","properties":{"id":"2514701","nome":"São José do Sabugi","uf":"PB"},"geometry":{"type":"Point","coordinates":[-36.24,-6.48]}},{"type":"Feature","properties":{"id":"2514800","nome":"São José dos Cordeiros","uf":"PB"},"geometry":{"type":"Point","coordinates":[-35.96,-6.42]}},{"type":"Feature","properties":{"id":"2514909","nome":"São Mamede","uf":"PB"},"geometry":{"type":"Point","coordinates":[-35.68,-6.359999999999999]}},{"type":"Feature","properties":{"id":"2515005","nome":"São Miguel de Taipu","uf":"PB"},"geometry":{"type":"Point","coordinates":[-35.4,-6.3]}},{"type":"Feature","properties":{"id":"2515104","nome":"São Sebastião de Lagoa de Roça","uf":"PB"},"geometry":{"type":"Point","coordinates":[-35.12,-6.24]}},{"type":"Feature","properties":{"id":"2515203","nome":"São Sebastião do Umbuzeiro","uf":"PB"},"geometry":{"type":"Point","coordinates":[-34.84,-6.18]}},{"type":"Feature","properties":{"id":"2515302","nome":"Sapé","uf":"PB"},"geometry":{"type":"Point","coordinates":[-34.56,-6.12]}},{"type":"Feature","properties":{"id":"2515401","nome":"São Vicente do Seridó","uf":"PB"},"geometry":{"type":"Point","coordinates":[-34.28,-6.0600000000000005]}},{"type":"Feature","properties":{"id":"2515500","nome":"Serra Branca","uf":"PB"},"geometry":{"type":"Point","coordinates":[-38,-8]}},{"type":"Feature","properties":{"id":"2515609","nome":"Serra da Raiz","uf":"PB"},"geometry":{"type":"Point","coordinates":[-37.72,-7.94]}},{"type":"Feature","properties":{"id":"2515708","nome":"Serra Grande","uf":"PB"},"geometry":{"type":"Point","coordinates":[-37.44,-7.88]}},{"type":"Feature","properties":{"id":"2515807","nome":"Serra Redonda","uf":"PB"},"geometry":{"type":"Point","coordinates":[-37.16,-7.82]}},{"type":"Feature","properties":{"id":"2515906","nome":"Serraria","uf":"PB"},"geometry":{"type":"Point","coordinates":[-36.88,-7.76]}},{"type":"Feature","properties":{"id":"2515930","nome":"Sertãozinho","uf":"PB"},"geometry":{"type":"Point","coordinates":[-36.6,-7.7]}},{"type":"Feature","properties":{"id":"2515971","nome":"Sobrado","uf":"PB"},"geometry":{"type":"Point","coordinates":[-36.32,-7.64]}},{"type":"Feature","properties":{"id":"2516003","nome":"Solânea","uf":"PB"},"geometry":{"type":"Point","coordinates":[-36.04,-7.58]}},{"type":"Feature","properties":{"id":"2516102","nome":"Soledade","uf":"PB"},"geometry":{"type":"Point","coordinates":[-35.76,-7.52]}},{"type":"Feature","properties":{"id":"2516151","nome":"Sossêgo","uf":"PB"},"geometry":{"type":"Point","coordinates":[-35.48,-7.46]}},{"type":"Feature","properties":{"id":"2516201","nome":"Sousa","uf":"PB"},"geometry":{"type":"Point","coordinates":[-35.2,-7.4]}},{"type":"Feature","properties":{"id":"2516300","nome":"Sumé","uf":"PB"},"geometry":{"type":"Point","coordinates":[-34.92,-7.34]}},{"type":"Feature","properties":{"id":"2516409","nome":"Tacima","uf":"PB"},"geometry":{"type":"Point","coordinates":[-34.64,-7.28]}},{"type":"Feature","properties":{"id":"2516508","nome":"Taperoá","uf":"PB"},"geometry":{"type":"Point","coordinates":[-34.36,-7.22]}},{"type":"Feature","properties":{"id":"2516607","nome":"Tavares","uf":"PB"},"geometry":{"type":"Point","coordinates":[-34.08,-7.16]}},{"type":"Feature","properties":{"id":"2516706","nome":"Teixeira","uf":"PB"},"geometry":{"type":"Point","coordinates":[-37.8,-7.1]}},{"type":"Feature","properties":{"id":"2516755","nome":"Tenório","uf":"PB"},"geometry":{"type":"Point","coordinates":[-37.52,-7.04]}},{"type":"Feature","properties":{"id":"2516805","nome":"Triunfo","uf":"PB"},"geometry":{"type":"Point","coordinates":[-37.24,-6.98]}},{"type":"Feature","properties":{"id":"2516904","nome":"Uiraúna","uf":"PB"},"geometry":{"type":"Point","coordinates":[-36.96,-6.92]}},{"type":"Feature","properties":{"id":"2517001","nome":"Umbuzeiro","uf":"PB"},"geometry":{"type":"Point","coordinates":[-36.68,-6.859999999999999]}},{"type":"Feature","properties":{"id":"2517100","nome":"Várzea","uf":"PB"},"geometry":{"type":"Point","coordinates":[-36.4,-6.8]}},{"type":"Feature","properties":{"id":"2517209","nome":"Vieirópolis","uf":"PB"},"geometry":{"type":"Point","coordinates":[-36.12,-6.74]}},{"type":"Feature","properties":{"id":"2517407","nome":"Zabelê","uf":"PB"},"geometry":{"type":"Point","coordinates":[-35.84,-6.68]}}]}