{"type":"FeatureCollection","features":[{"type":"Feature","properties":{"id":"2800100","nome":"Amparo do São Francisco","uf":"SE"},"geometry":{"type":"Point","coordinates":[-38,-11]}},{"type":"Feature","properties":{"id":"2800209","nome":"Aquidabã","uf":"SE"},"geometry":{"type":"Point","coordinates":[-37.86,-10.94]}},{"type":"Feature","properties":{"id":"2800308","nome":"Aracaju","uf":"SE"},"geometry":{"type":"Point","coordinates":[-37.72,-10.88]}},{"type":"Feature","properties":{"id":"2800407","nome":"Arauá","uf":"SE"},"geometry":{"type":"Point","coordinates":[-37.58,-10.82]}},{"type":"Feature","properties":{"id":"2800506","nome":"Areia Branca","uf":"SE"},"geometry":{"type":"Point","coordinates":[-37.44,-10.76]}},{"type":"Feature","properties":{"id":"2800605","nome":"Barra dos Coqueiros","uf":"SE"},"geometry":{"type":"Point","coordinates":[-37.3,-10.7]}},{"type":"Feature","properties":{"id":"2800670","nome":"Boquim","uf":"SE"},"geometry":{"type":"Point","coordinates":[-37.16,-10.64]}},{"type":"Feature","properties":{"id":"2800704","nome":"Brejo Grande","uf":"SE"},"geometry":{"type":"Point","coordinates":[-37.02,-10.58]}},{"type":"Feature","properties":{"id":"2801009","nome":"Campo do Brito","uf":"SE"},"geometry":{"type":"Point","coordinates":[-36.88,-10.52]}},{"type":"Feature","properties":{"id":"2801108","nome":"Canhoba","uf":"SE"},"geometry":{"type":"Point","coordinates":[-36.74,-10.46]}},{"type":"Feature","properties":{"id":"2801207","nome":"Canindé de São Francisco","uf":"SE"},"geometry":{"type":"Point","coordinates":[-36.6,-10.4]}},{"type":"Feature","properties":{"id":"2801306","nome":"Capela","uf":"SE"},"geometry":{"type":"Point","coordinates":[-36.46,-10.34]}},{"type":"Feature","properties":{"id":"2801405","nome":"Carira","uf":"SE"},"geometry":{"type":"Point","coordinates":[-36.32,-10.28]}},{"type":"Feature","properties":{"id":"2801504","nome":"Carmópolis","uf":"SE"},"geometry":{"type":"Point","coordinates":[-36.18,-10.22]}},{"type":"Feature","properties":{"id":"2801603","nome":"Cedro de São João","uf":"SE"},"geometry":{"type":"Point","coordinates":[-36.04,-10.16]}},{"type":"Feature","properties":{"id":"2801702","nome":"Cristinápolis","uf":"SE"},"geometry":{"type":"Point","coordinates":[-37.9,-10.1]}},{"type":"Feature","properties":{"id":"2801900","nome":"Cumbe","uf":"SE"},"geometry":{"type":"Point","coordinates":[-37.76,-10.04]}},{"type":"Feature","properties":{"id":"2802007","nome":"Divina Pastora","uf":"SE"},"geometry":{"type":"Point","coordinates":[-37.62,-9.98]}},{"type":"Feature","properties":{"id":"2802106","nome":"Estância","uf":"SE"},"geometry":{"type":"Point","coordinates":[-37.48,-9.92]}},{"type":"Feature","properties":{"id":"2802205","nome":"Feira Nova","uf":"SE"},"geometry":{"type":"Point","coordinates":[-37.34,-9.86]}},{"type":"Feature","properties":{"id":"2802304","nome":"Frei Paulo","uf":"SE"},"geometry":{"type":"Point","coordinates":[-37.2,-9.8]}},{"type":"Feature","properties":{"id":"2802403","nome":"Gararu","uf":"SE"},"geometry":{"type":"Point","coordinates":[-37.06,-9.74]}},{"type":"Feature","properties":{"id":"2802502","nome":"General Maynard","uf":"SE"},"geometry":{"type":"Point","coordinates":[-36.92,-9.68]}},{"type":"Feature","properties":{"id":"2802601","nome":"Graccho Cardoso","uf":"SE"},"geometry":{"type":"Point","coordinates":[-36.78,-9.62]}},{"type":"Feature","properties":{"id":"2802700","nome":"Ilha das Flores","uf":"SE"},"geometry":{"type":"Point","coordinates":[-36.64,-9.56]}},{"type":"Feature","properties":{"id":"2802809","nome":"Indiaroba","uf":"SE"},"geometry":{"type":"Point","coordinates":[-36.5,-9.5]}},{"type":"Feature","properties":{"id":"2802908","nome":"Itabaiana","uf":"SE"},"geometry":{"type":"Point","coordinates":[-36.36,-9.44]}},{"type":"Feature","properties":{"id":"2803005","nome":"Itabaianinha","uf":"SE"},"geometry":{"type":"Point","coordinates":[-36.22,-9.379999999999999]}},{"type":"Feature","properties":{"id":"2803104","nome":"Itabi","uf":"SE"},"geometry":{"type":"Point","coordinates":[-36.08,-9.32]}},{"type":"Feature","properties":{"id":"2803203","nome":"Itaporanga d'Ajuda","uf":"SE"},"geometry":{"type":"Point","coordinates":[-37.94,-9.26]}},{"type":"Feature","properties":{"id":"2803302","nome":"Japaratuba","uf":"SE"},"geometry":{"type":"Point","coordinates":[-37.8,-9.2]}},{"type":"Feature","properties":{"id":"2803401","nome":"Japoatã","uf":"SE"},"geometry":{"type":"Point","coordinates":[-37.66,-9.14]}},{"type":"Feature","properties":{"id":"2803500","nome":"Lagarto","uf":"SE"},"geometry":{"type":"Point","coordinates":[-37.52,-9.08]}},{"type":"Feature","properties":{"id":"2803609","nome":"Laranjeiras","uf":"SE"},"geometry":{"type":"Point","coordinates":[-37.38,-9.02]}},{"type":"Feature","properties":{"id":"2803708","nome":"Macambira","uf":"SE"},"geometry":{"type":"Point","coordinates":[-37.24,-10.96]}},{"type":"Feature","properties":{"id":"2803807","nome":"Malhada dos Bois","uf":"SE"},"geometry":{"type":"Point","coordinates":[-37.1,-10.9]}},{"type":"Feature","properties":{"id":"2803906","nome":"Malhador","uf":"SE"},"geometry":{"type":"Point","coordinates":[-36.96,-10.84]}},{"type":"Feature","properties":{"id":"2804003","nome":"Maruim","uf":"SE"},"geometry":{"type":"Point","coordinates":[-36.82,-10.78]}},{"type":"Feature","properties":{"id":"2804102","nome":"Moita Bonita","uf":"SE"},"geometry":{"type":"Point","coordinates":[-36.68,-10.72]}},{"type":"Feature","properties":{"id":"2804201","nome":"Monte Alegre de Sergipe","uf":"SE"},"geometry":{"type":"Point","coordinates":[-36.54,-10.66]}},{"type":"Feature","properties":{"id":"2804300","nome":"Muribeca","uf":"SE"},"geometry":{"type":"Point","coordinates":[-36.4,-10.6]}},{"type":"Feature","properties":{"id":"2804409","nome":"Neópolis","uf":"SE"},"geometry":{"type":"Point","coordinates":[-36.26,-10.54]}},{"type":"Feature","properties":{"id":"2804458","nome":"Nossa Senhora Aparecida","uf":"SE"},"geometry":{"type":"Point","coordinates":[-36.12,-10.48]}},{"type":"Feature","properties":{"id":"2804508","nome":"Nossa Senhora da Glória","uf":"SE"},"geometry":{"type":"Point","coordinates":[-37.98,-10.42]}},{"type":"Feature","properties":{"id":"2804607","nome":"Nossa Senhora das Dores","uf":"SE"},"geometry":{"type":"Point","coordinates":[-37.84,-10.36]}},{"type":"Feature","properties":{"id":"2804706","nome":"Nossa Senhora de Lourdes","uf":"SE"},"geometry":{"type":"Point","coordinates":[-37.7,-10.3]}},{"type":"Feature","properties":{"id":"2804805","nome":"Nossa Senhora do Socorro","uf":"SE"},"geometry":{"type":"Point","coordinates":[-37.56,-10.24]}},{"type":"Feature","properties":{"id":"2804904","nome":"Pacatuba","uf":"SE"},"geometry":{"type":"Point","coordinates":[-37.42,-10.18]}},{"type":"Feature","properties":{"id":"2805000","nome":"Pedra Mole","uf":"SE"},"geometry":{"type":"Point","coordinates":[-37.28,-10.12]}},{"type":"Feature","properties":{"id":"2805109","nome":"Pedrinhas","uf":"SE"},"geometry":{"type":"Point","coordinates":[-37.14,-10.06]}},{"type":"Feature","properties":{"id":"2805208","nome":"Pinhão","uf":"SE"},"geometry":{"type":"Point","coordinates":[-37,-10]}},{"type":"Feature","properties":{"id":"2805307","nome":"Pirambu","uf":"SE"},"geometry":{"type":"Point","coordinates":[-36.86,-9.94]}},{"type":"Feature","properties":{"id":"2805406","nome":"Poço Redondo","uf":"SE"},"geometry":{"type":"Point","coordinates":[-36.72,-9.879999999999999]}},{"type":"Feature","properties":{"id":"2805505","nome":"Poço Verde","uf":"SE"},"geometry":{"type":"Point","coordinates":[-36.58,-9.82]}},{"type":"Feature","properties":{"id":"2805604","nome":"Porto da Folha","uf":"SE"},"geometry":{"type":"Point","coordinates":[-36.44,-9.76]}},{"type":"Feature","properties":{"id":"2805703","nome":"Propriá","uf":"SE"},"geometry":{"type":"Point","coordinates":[-36.3,-9.7]}},{"type":"Feature","properties":{"id":"2805802","nome":"Riachão do Dantas","uf":"SE"},"geometry":{"type":"Point","coordinates":[-36.16,-9.64]}},{"type":"Feature","properties":{"id":"2805901","nome":"Riachuelo","uf":"SE"},"geometry":{"type":"Point","coordinates":[-36.02,-9.58]}},{"type":"Feature","properties":{"id":"2806008","nome":"Ribeirópolis","uf":"SE"},"geometry":{"type":"Point","coordinates":[-37.88,-9.52]}},{"type":"Feature","properties":{"id":"2806107","nome":"Rosário do Catete","uf":"SE"},"geometry":{"type":"Point","coordinates":[-37.74,-9.46]}},{"type":"Feature","properties":{"id":"2806206","nome":"Salgado","uf":"SE"},"geometry":{"type":"Point","coordinates":[-37.6,-9.4]}},{"type":"Feature","properties":{"id":"2806305","nome":"Santa Luzia do Itanhy","uf":"SE"},"geometry":{"type":"Point","coordinates":[-37.46,-9.34]}},{"type":"Feature","properties":{"id":"2806404","nome":"Santana do São Francisco","uf":"SE"},"geometry":{"type":"Point","coordinates":[-37.32,-9.28]}},{"type":"Feature","properties":{"id":"2806503","nome":"Santa Rosa de Lima","uf":"SE"},"geometry":{"type":"Point","coordinates":[-37.18,-9.22]}},{"type":"Feature","properties":{"id":"2806602","nome":"Santo Amaro das Brotas","uf":"SE"},"geometry":{"type":"Point","coordinates":[-37.04,-9.16]}},{"type":"Feature","properties":{"id":"2806701","nome":"São Cristóvão","uf":"SE"},"geometry":{"type":"Point","coordinates":[-36.9,-9.1]}},{"type":"Feature","properties":{"id":"2806800","nome":"São Domingos","uf":"SE"},"geometry":{"type":"Point","coordinates":[-36.76,-9.04]}},{"type":"Feature","properties":{"id":"2806909","nome":"São Francisco","uf":"SE"},"geometry":{"type":"Point","coordinates":[-36.62,-10.98]}},{"type":"Feature","properties":{"id":"2807006","nome":"São Miguel do Aleixo","uf":"SE"},"geometry":{"type":"Point","coordinates":[-36.48,-10.92]}},{"type":"Feature","properties":{"id":"2807105","nome":"Simão Dias","uf":"SE"},"geometry":{"type":"Point","coordinates":[-36.34,-10.86]}},{"type":"Feature","properties":{"id":"2807204","nome":"Siriri","uf":"SE"},"geometry":{"type":"Point","coordinates":[-36.2,-10.8]}},{"type":"Feature","properties":{"id":"2807303","nome":"Telha","uf":"SE"},"geometry":{"type":"Point","coordinates":[-36.06,-10.74]}},{"type":"Feature","properties":{"id":"2807402","nome":"Tobias Barreto","uf":"SE"},"geometry":{"type":"Point","coordinates":[-37.92,-10.68]}},{"type":"Feature","properties":{"id":"2807501","nome":"Tomar do Geru","uf":"SE"},"geometry":{"type":"Point","coordinates":[-37.78,-10.62]}},{"type":"Feature","properties":{"id":"2807600","nome":"Umbaúba","uf":"SE"},"geometry":{"type":"Point","coordinates":[-37.64,-10.56]}}]}