{"type":"FeatureCollection","features":[{"type":"Feature","properties":{"id":"2900108","nome":"Abaíra","uf":"BA"},"geometry":{"type":"Point","coordinates":[-46,-18]}},{"type":"Feature","properties":{"id":"2900207","nome":"Abaré","uf":"BA"},"geometry":{"type":"Point","coordinates":[-45.37,-17.7]}},{"type":"Feature","properties":{"id":"2900306","nome":"Acajutiba","uf":"BA"},"geometry":{"type":"Point","coordinates":[-44.74,-17.4]}},{"type":"Feature","properties":{"id":"2900355","nome":"Adustina","uf":"BA"},"geometry":{"type":"Point","coordinates":[-44.11,-17.1]}},{"type":"Feature","properties":{"id":"2900405","nome":"Água Fria","uf":"BA"},"geometry":{"type":"Point","coordinates":[-43.48,-16.8]}},{"type":"Feature","properties":{"id":"2900504","nome":"Érico Cardoso","uf":"BA"},"geometry":{"type":"Point","coordinates":[-42.85,-16.5]}},{"type":"Feature","properties":{"id":"2900603","nome":"Aiquara","uf":"BA"},"geometry":{"type":"Point","coordinates":[-42.22,-16.2]}},{"type":"Feature","properties":{"id":"2900702","nome":"Alagoinhas","uf":"BA"},"geometry":{"type":"Point","coordinates":[-41.59,-15.9]}},{"type":"Feature","properties":{"id":"2900801","nome":"Alcobaça","uf":"BA"},"geometry":{"type":"Point","coordinates":[-40.96,-15.6]}},{"type":"Feature","properties":{"id":"2900900","nome":"Almadina","uf":"BA"},"geometry":{"type":"Point","coordinates":[-40.33,-15.3]}},{"type":"Feature","properties":{"id":"2901007","nome":"Amargosa","uf":"BA"},"geometry":{"type":"Point","coordinates":[-39.7,-15]}},{"type":"Feature","properties":{"id":"2901106","nome":"Amélia Rodrigues","uf":"BA"},"geometry":{"type":"Point","coordinates":[-39.07,-14.7]}},{"type":"Feature","properties":{"id":"2901155","nome":"América Dourada","uf":"BA"},"geometry":{"type":"Point","coordinates":[-38.44,-14.4]}},{"type":"Feature","properties":{"id":"2901205","nome":"Anagé","uf":"BA"},"geometry":{"type":"Point","coordinates":[-37.81,-14.1]}},{"type":"Feature","properties":{"id":"2901304","nome":"Andaraí","uf":"BA"},"geometry":{"type":"Point","coordinates":[-37.18,-13.8]}},{"type":"Feature","properties":{"id":"2901353","nome":"Andorinha","uf":"BA"},"geometry":{"type":"Point","coordinates":[-45.55,-13.5]}},{"type":"Feature","properties":{"id":"2901403","nome":"Angical","uf":"BA"},"geometry":{"type":"Point","coordinates":[-44.92,-13.2]}},{"type":"Feature","properties":{"id":"2901502","nome":"Anguera","uf":"BA"},"geometry":{"type":"Point","coordinates":[-44.29,-12.899999999999999]}},{"type":"Feature","properties":{"id":"2901601","nome":"Antas","uf":"BA"},"geometry":{"type":"Point","coordinates":[-43.66,-12.6]}},{"type":"Feature","properties":{"id":"2901700","nome":"Antônio Cardoso","uf":"BA"},"geometry":{"type":"Point","coordinates":[-43.03,-12.3]}},{"type":"Feature","properties":{"id":"2901809","nome":"Antônio Gonçalves","uf":"BA"},"geometry":{"type":"Point","coordinates":[-42.4,-12]}},{"type":"Feature","properties":{"id":"2901908","nome":"Aporá","uf":"BA"},"geometry":{"type":"Point","coordinates":[-41.77,-11.7]}},{"type":"Feature","properties":{"id":"2901957","nome":"Apuarema","uf":"BA"},"geometry":{"type":"Point","coordinates":[-41.14,-11.399999999999999]}},{"type":"Feature","properties":{"id":"2902005","nome":"Aracatu","uf":"BA"},"geometry":{"type":"Point","coordinates":[-40.51,-11.1]}},{"type":"Feature","properties":{"id":"2902054","nome":"Araçás","uf":"BA"},"geometry":{"type":"Point","coordinates":[-39.88,-10.8]}},{"type":"Feature","properties":{"id":"2902104","nome":"Araci","uf":"BA"},"geometry":{"type":"Point","coordinates":[-39.25,-10.5]}},{"type":"Feature","properties":{"id":"2902203","nome":"Aramari","uf":"BA"},"geometry":{"type":"Point","coordinates":[-38.62,-10.2]}},{"type":"Feature","properties":{"id":"2902252","nome":"Arataca","uf":"BA"},"geometry":{"type":"Point","coordinates":[-37.99,-9.9]}},{"type":"Feature","properties":{"id":"2902302","nome":"Aratuípe","uf":"BA"},"geometry":{"type":"Point","coordinates":[-37.36,-9.6]}},{"type":"Feature","properties":{"id":"2902401","nome":"Aurelino Leal","uf":"BA"},"geometry":{"type":"Point","coordinates":[-45.73,-9.299999999999999]}},{"type":"Feature","properties":{"id":"2902500","nome":"Baianópolis","uf":"BA"},"geometry":{"type":"Point","coordinates":[-45.1,-9]}},{"type":"Feature","properties":{"id":"2902609","nome":"Baixa Grande","uf":"BA"},"geometry":{"type":"Point","coordinates":[-44.47,-8.7]}},{"type":"Feature","properties":{"id":"2902658","nome":"Banzaê","uf":"BA"},"geometry":{"type":"Point","coordinates":[-43.84,-8.399999999999999]}},{"type":"Feature","properties":{"id":"2902708","nome":"Barra","uf":"BA"},"geometry":{"type":"Point","coordinates":[-43.21,-8.1]}},{"type":"Feature","properties":{"id":"2902807","nome":"Barra da Estiva","uf":"BA"},"geometry":{"type":"Point","coordinates":[-42.58,-17.8]}},{"type":"Feature","properties":{"id":"2902906","nome":"Barra do Choça","uf":"BA"},"geometry":{"type":"Point","coordinates":[-41.95,-17.5]}},{"type":"Feature","properties":{"id":"2903003","nome":"Barra do Mendes","uf":"BA"},"geometry":{"type":"Point","coordinates":[-41.32,-17.2]}},{"type":"Feature","properties":{"id":"2903102","nome":"Barra do Rocha","uf":"BA"},"geometry":{"type":"Point","coordinates":[-40.69,-16.9]}},{"type":"Feature","properties":{"id":"2903201","nome":"Barreiras","uf":"BA"},"geometry":{"type":"Point","coordinates":[-40.06,-16.6]}},{"type":"Feature","properties":{"id":"2903235","nome":"Barro Alto","uf":"BA"},"geometry":{"type":"Point","coordinates":[-39.43,-16.3]}},{"type":"Feature","properties":{"id":"2903276","nome":"Barrocas","uf":"BA"},"geometry":{"type":"Point","coordinates":[-38.8,-16]}},{"type":"Feature","properties":{"id":"2903300","nome":"Barro Preto","uf":"BA"},"geometry":{"type":"Point","coordinates":[-38.17,-15.7]}},{"type":"Feature","properties":{"id":"2903409","nome":"Belmonte","uf":"BA"},"geometry":{"type":"Point","coordinates":[-37.54,-15.4]}},{"type":"Feature","properties":{"id":"2903508","nome":"Belo Campo","uf":"BA"},"geometry":{"type":"Point","coordinates":[-45.91,-15.1]}},{"type":"Feature","properties":{"id":"2903607","nome":"Biritinga","uf":"BA"},"geometry":{"type":"Point","coordinates":[-45.28,-14.8]}},{"type":"Feature","properties":{"id":"2903706","nome":"Boa Nova","uf":"BA"},"geometry":{"type":"Point","coordinates":[-44.65,-14.5]}},{"type":"Feature","properties":{"id":"2903805","nome":"Boa Vista do Tupim","uf":"BA"},"geometry":{"type":"Point","coordinates":[-44.02,-14.2]}},{"type":"Feature","properties":{"id":"2903904","nome":"Bom Jesus da Lapa","uf":"BA"},"geometry":{"type":"Point","coordinates":[-43.39,-13.899999999999999]}},{"type":"Feature","properties":{"id":"2903953","nome":"Bom Jesus da Serra","uf":"BA"},"geometry":{"type":"Point","coordinates":[-42.76,-13.6]}},{"type":"Feature","properties":{"id":"2904001","nome":"Boninal","uf":"BA"},"geometry":{"type":"Point","coordinates":[-42.13,-13.3]}},{"type":"Feature","properties":{"id":"2904050","nome":"Bonito","uf":"BA"},"geometry":{"type":"Point","coordinates":[-41.5,-13]}},{"type":"Feature","properties":{"id":"2904100","nome":"Boquira","uf":"BA"},"geometry":{"type":"Point","coordinates":[-40.87,-12.7]}},{"type":"Feature","properties":{"id":"2904209","nome":"Botuporã","uf":"BA"},"geometry":{"type":"Point","coordinates":[-40.24,-12.399999999999999]}},{"type":"Feature","properties":{"id":"2904308","nome":"Brejões","uf":"BA"},"geometry":{"type":"Point","coordinates":[-39.61,-12.1]}},{"type":"Feature","properties":{"id":"2904407","nome":"Brejolândia","uf":"BA"},"geometry":{"type":"Point","coordinates":[-38.980000000000004,-11.8]}},{"type":"Feature","properties":{"id":"2904506","nome":"Brotas de Macaúbas","uf":"BA"},"geometry":{"type":"Point","coordinates":[-38.35,-11.5]}},{"type":"Feature","properties":{"id":"2904605","nome":"Brumado","uf":"BA"},"geometry":{"type":"Point","coordinates":[-37.72,-11.2]}},{"type":"Feature","properties":{"id":"2904704","nome":"Buerarema","uf":"BA"},"geometry":{"type":"Point","coordinates":[-37.09,-10.899999999999999]}},{"type":"Feature","properties":{"id":"2904753","nome":"Buritirama","uf":"BA"},"geometry":{"type":"Point","coordinates":[-45.46,-10.6]}},{"type":"Feature","properties":{"id":"2904803","nome":"Caatiba","uf":"BA"},"geometry":{"type":"Point","coordinates":[-44.83,-10.3]}},{"type":"Feature","properties":{"id":"2904852","nome":"Cabaceiras do Paraguaçu","uf":"BA"},"geometry":{"type":"Point","coordinates":[-44.2,-10]}},{"type":"Feature","properties":{"id":"2904902","nome":"Cachoeira","uf":"BA"},"geometry":{"type":"Point","coordinates":[-43.57,-9.7]}},{"type":"Feature","properties":{"id":"2905008","nome":"Caculé","uf":"BA"},"geometry":{"type":"Point","coordinates":[-42.94,-9.4]}},{"type":"Feature","properties":{"id":"2905107","nome":"Caém","uf":"BA"},"geometry":{"type":"Point","coordinates":[-42.31,-9.1]}},{"type":"Feature","properties":{"id":"2905156","nome":"Caetanos","uf":"BA"},"geometry":{"type":"Point","coordinates":[-41.68,-8.799999999999999]}},{"type":"Feature","properties":{"id":"2905206","nome":"Caetité","uf":"BA"},"geometry":{"type":"Point","coordinates":[-41.05,-8.5]}},{"type":"Feature","properties":{"id":"2905305","nome":"Cafarnaum","uf":"BA"},"geometry":{"type":"Point","coordinates":[-40.42,-8.2]}},{"type":"Feature","properties":{"id":"2905404","nome":"Cairu","uf":"BA"},"geometry":{"type":"Point","coordinates":[-39.79,-17.9]}},{"type":"Feature","properties":{"id":"2905503","nome":"Caldeirão Grande","uf":"BA"},"geometry":{"type":"Point","coordinates":[-39.16,-17.6]}},{"type":"Feature","properties":{"id":"2905602","nome":"Camacan","uf":"BA"},"geometry":{"type":"Point","coordinates":[-38.53,-17.3]}},{"type":"Feature","properties":{"id":"2905701","nome":"Camaçari","uf":"BA"},"geometry":{"type":"Point","coordinates":[-37.9,-17]}},{"type":"Feature","properties":{"id":"2905800","nome":"Camamu","uf":"BA"},"geometry":{"type":"Point","coordinates":[-37.269999999999996,-16.7]}},{"type":"Feature","properties":{"id":"2905909","nome":"Campo Alegre de Lourdes","uf":"BA"},"geometry":{"type":"Point","coordinates":[-45.64,-16.4]}},{"type":"Feature","properties":{"id":"2906006","nome":"Campo Formoso","uf":"BA"},"geometry":{"type":"Point","coordinates":[-45.01,-16.1]}},{"type":"Feature","properties":{"id":"2906105","nome":"Canápolis","uf":"BA"},"geometry":{"type":"Point","coordinates":[-44.38,-15.8]}},{"type":"Feature","properties":{"id":"2906204","nome":"Canarana","uf":"BA"},"geometry":{"type":"Point","coordinates":[-43.75,-15.5]}},{"type":"Feature","properties":{"id":"2906303","nome":"Canavieiras","uf":"BA"},"geometry":{"type":"Point","coordinates":[-43.12,-15.2]}},{"type":"Feature","properties":{"id":"2906402","nome":"Candeal","uf":"BA"},"geometry":{"type":"Point","coordinates":[-42.49,-14.9]}},{"type":"Feature","properties":{"id":"2906501","nome":"Candeias","uf":"BA"},"geometry":{"type":"Point","coordinates":[-41.86,-14.6]}},{"type":"Feature","properties":{"id":"2906600","nome":"Candiba","uf":"BA"},"geometry":{"type":"Point","coordinates":[-41.230000000000004,-14.3]}},{"type":"Feature","properties":{"id":"2906709","nome":"Cândido Sales","uf":"BA"},"geometry":{"type":"Point","coordinates":[-40.6,-14]}},{"type":"Feature","properties":{"id":"2906808","nome":"Cansanção","uf":"BA"},"geometry":{"type":"Point","coordinates":[-39.97,-13.7]}},{"type":"Feature","properties":{"id":"2906824","nome":"Canudos","uf":"BA"},"geometry":{"type":"Point","coordinates":[-39.34,-13.399999999999999]}},{"type":"Feature","properties":{"id":"2906857","nome":"Capela do Alto Alegre","uf":"BA"},"geometry":{"type":"Point","coordinates":[-38.71,-13.1]}},{"type":"Feature","properties":{"id":"2906873","nome":"Capim Grosso","uf":"BA"},"geometry":{"type":"Point","coordinates":[-38.08,-12.8]}},{"type":"Feature","properties":{"id":"2906899","nome":"Caraíbas","uf":"BA"},"geometry":{"type":"Point","coordinates":[-37.45,-12.5]}},{"type":"Feature","properties":{"id":"2906907","nome":"Caravelas","uf":"BA"},"geometry":{"type":"Point","coordinates":[-45.82,-12.2]}},{"type":"Feature","properties":{"id":"2907004","nome":"Cardeal da Silva","uf":"BA"},"geometry":{"type":"Point","coordinates":[-45.19,-11.899999999999999]}},{"type":"Feature","properties":{"id":"2907103","nome":"Carinhanha","uf":"BA"},"geometry":{"type":"Point","coordinates":[-44.56,-11.6]}},{"type":"Feature","properties":{"id":"2907202","nome":"Casa Nova","uf":"BA"},"geometry":{"type":"Point","coordinates":[-43.93,-11.3]}},{"type":"Feature","properties":{"id":"2907301","nome":"Castro Alves","uf":"BA"},"geometry":{"type":"Point","coordinates":[-43.3,-11]}},{"type":"Feature","properties":{"id":"2907400","nome":"Catolândia","uf":"BA"},"geometry":{"type":"Point","coordinates":[-42.67,-10.7]}},{"type":"Feature","properties":{"id":"2907509","nome":"Catu","uf":"BA"},"geometry":{"type":"Point","coordinates":[-42.04,-10.399999999999999]}},{"type":"Feature","properties":{"id":"2907558","nome":"Caturama","uf":"BA"},"geometry":{"type":"Point","coordinates":[-41.41,-10.1]}},{"type":"Feature","properties":{"id":"2907608","nome":"Central","uf":"BA"},"geometry":{"type":"Point","coordinates":[-40.78,-9.799999999999999]}},{"type":"Feature","properties":{"id":"2907707","nome":"Chorrochó","uf":"BA"},"geometry":{"type":"Point","coordinates":[-40.15,-9.5]}},{"type":"Feature","properties":{"id":"2907806","nome":"Cícero Dantas","uf":"BA"},"geometry":{"type":"Point","coordinates":[-39.52,-9.2]}},{"type":"Feature","properties":{"id":"2907905","nome":"Cipó","uf":"BA"},"geometry":{"type":"Point","coordinates":[-38.89,-8.9]}},{"type":"Feature","properties":{"id":"2908002","nome":"Coaraci","uf":"BA"},"geometry":{"type":"Point","coordinates":[-38.26,-8.6]}},{"type":"Feature","properties":{"id":"2908101","nome":"Cocos","uf":"BA"},"geometry":{"type":"Point","coordinates":[-37.63,-8.299999999999999]}},{"type":"Feature","properties":{"id":"2908200","nome":"Conceição da Feira","uf":"BA"},"geometry":{"type":"Point","coordinates":[-46,-18]}},{"type":"Feature","properties":{"id":"2908309","nome":"Conceição do Almeida","uf":"BA"},"geometry":{"type":"Point","coordinates":[-45.37,-17.7]}},{"type":"Feature","properties":{"id":"2908408","nome":"Conceição do Coité","uf":"BA"},"geometry":{"type":"Point","coordinates":[-44.74,-17.4]}},{"type":"Feature","properties":{"id":"2908507","nome":"Conceição do Jacuípe","uf":"BA"},"geometry":{"type":"Point","coordinates":[-44.11,-17.1]}},{"type":"Feature","properties":{"id":"2908606","nome":"Conde","uf":"BA"},"geometry":{"type":"Point","coordinates":[-43.48,-16.8]}},{"type":"Feature","properties":{"id":"2908705","nome":"Condeúba","uf":"BA"},"geometry":{"type":"Point","coordinates":[-42.85,-16.5]}},{"type":"Feature","properties":{"id":"2908804","nome":"Contendas do Sincorá","uf":"BA"},"geometry":{"type":"Point","coordinates":[-42.22,-16.2]}},{"type":"Feature","properties":{"id":"2908903","nome":"Coração de Maria","uf":"BA"},"geometry":{"type":"Point","coordinates":[-41.59,-15.9]}},{"type":"Feature","properties":{"id":"2909000","nome":"Cordeiros","uf":"BA"},"geometry":{"type":"Point","coordinates":[-40.96,-15.6]}},{"type":"Feature","properties":{"id":"2909109","nome":"Coribe","uf":"BA"},"geometry":{"type":"Point","coordinates":[-40.33,-15.3]}},{"type":"Feature","properties":{"id":"2909208","nome":"Coronel João Sá","uf":"BA"},"geometry":{"type":"Point","coordinates":[-39.7,-15]}},{"type":"Feature","properties":{"id":"2909307","nome":"Correntina","uf":"BA"},"geometry":{"type":"Point","coordinates":[-39.07,-14.7]}},{"type":"Feature","properties":{"id":"2909406","nome":"Cotegipe","uf":"BA"},"geometry":{"type":"Point","coordinates":[-38.44,-14.4]}},{"type":"Feature","properties":{"id":"2909505","nome":"Cravolândia","uf":"BA"},"geometry":{"type":"Point","coordinates":[-37.81,-14.1]}},{"type":"Feature","properties":{"id":"2909604","nome":"Crisópolis","uf":"BA"},"geometry":{"type":"Point","coordinates":[-37.18,-13.8]}},{"type":"Feature","properties":{"id":"2909703","nome":"Cristópolis","uf":"BA"},"geometry":{"type":"Point","coordinates":[-45.55,-13.5]}},{"type":"Feature","properties":{"id":"2909802","nome":"Cruz das Almas","uf":"BA"},"geometry":{"type":"Point","coordinates":[-44.92,-13.2]}},{"type":"Feature","properties":{"id":"2909901","nome":"Curaçá","uf":"BA"},"geometry":{"type":"Point","coordinates":[-44.29,-12.899999999999999]}},{"type":"Feature","properties":{"id":"2910008","nome":"Dário Meira","uf":"BA"},"geometry":{"type":"Point","coordinates":[-43.66,-12.6]}},{"type":"Feature","properties":{"id":"2910057","nome":"Dias d'Ávila","uf":"BA"},"geometry":{"type":"Point","coordinates":[-43.03,-12.3]}},{"type":"Feature","properties":{"id":"2910107","nome":"Dom Basílio","uf":"BA"},"geometry":{"type":"Point","coordinates":[-42.4,-12]}},{"type":"Feature","properties":{"id":"2910206","nome":"Dom Macedo Costa","uf":"BA"},"geometry":{"type":"Point","coordinates":[-41.77,-11.7]}},{"type":"Feature","properties":{"id":"2910305","nome":"Elísio Medrado","uf":"BA"},"geometry":{"type":"Point","coordinates":[-41.14,-11.399999999999999]}},{"type":"Feature","properties":{"id":"2910404","nome":"Encruzilhada","uf":"BA"},"geometry":{"type":"Point","coordinates":[-40.51,-11.1]}},{"type":"Feature","properties":{"id":"2910503","nome":"Entre Rios","uf":"BA"},"geometry":{"type":"Point","coordinates":[-39.88,-10.8]}},{"type":"Feature","properties":{"id":"2910602","nome":"Esplanada","uf":"BA"},"geometry":{"type":"Point","coordinates":[-39.25,-10.5]}},{"type":"Feature","properties":{"id":"2910701","nome":"Euclides da Cunha","uf":"BA"},"geometry":{"type":"Point","coordinates":[-38.62,-10.2]}},{"type":"Feature","properties":{"id":"2910727","nome":"Eunápolis","uf":"BA"},"geometry":{"type":"Point","coordinates":[-37.99,-9.9]}},{"type":"Feature","properties":{"id":"2910750","nome":"Fátima","uf":"BA"},"geometry":{"type":"Point","coordinates":[-37.36,-9.6]}},{"type":"Feature","properties":{"id":"2910776","nome":"Feira da Mata","uf":"BA"},"geometry":{"type":"Point","coordinates":[-45.73,-9.299999999999999]}},{"type":"Feature","properties":{"id":"2910800","nome":"Feira de Santana","uf":"BA"},"geometry":{"type":"Point","coordinates":[-45.1,-9]}},{"type":"Feature","properties":{"id":"2910859","nome":"Filadélfia","uf":"BA"},"geometry":{"type":"Point","coordinates":[-44.47,-8.7]}},{"type":"Feature","properties":{"id":"2910909","nome":"Firmino Alves","uf":"BA"},"geometry":{"type":"Point","coordinates":[-43.84,-8.399999999999999]}},{"type":"Feature","properties":{"id":"2911006","nome":"Floresta Azul","uf":"BA"},"geometry":{"type":"Point","coordinates":[-43.21,-8.1]}},{"type":"Feature","properties":{"id":"2911105","nome":"Formosa do Rio Preto","uf":"BA"},"geometry":{"type":"Point","coordinates":[-42.58,-17.8]}},{"type":"Feature","properties":{"id":"2911204","nome":"Gandu","uf":"BA"},"geometry":{"type":"Point","coordinates":[-41.95,-17.5]}},{"type":"Feature","properties":{"id":"2911253","nome":"Gavião","uf":"BA"},"geometry":{"type":"Point","coordinates":[-41.32,-17.2]}},{"type":"Feature","properties":{"id":"2911303","nome":"Gentio do Ouro","uf":"BA"},"geometry":{"type":"Point","coordinates":[-40.69,-16.9]}},{"type":"Feature","properties":{"id":"2911402","nome":"Glória","uf":"BA"},"geometry":{"type":"Point","coordinates":[-40.06,-16.6]}},{"type":"Feature","properties":{"id":"2911501","nome":"Gongogi","uf":"BA"},"geometry":{"type":"Point","coordinates":[-39.43,-16.3]}},{"type":"Feature","properties":{"id":"2911600","nome":"Governador Mangabeira","uf":"BA"},"geometry":{"type":"Point","coordinates":[-38.8,-16]}},{"type":"Feature","properties":{"id":"2911659","nome":"Guajeru","uf":"BA"},"geometry":{"type":"Point","coordinates":[-38.17,-15.7]}},{"type":"Feature","properties":{"id":"2911709","nome":"Guanambi","uf":"BA"},"geometry":{"type":"Point","coordinates":[-37.54,-15.4]}},{"type":"Feature","properties":{"id":"2911808","nome":"Guaratinga","uf":"BA"},"geometry":{"type":"Point","coordinates":[-45.91,-15.1]}},{"type":"Feature","properties":{"id":"2911857","nome":"Heliópolis","uf":"BA"},"geometry":{"type":"Point","coordinates":[-45.28,-14.8]}},{"type":"Feature","properties":{"id":"2911907","nome":"Iaçu","uf":"BA"},"geometry":{"type":"Point","coordinates":[-44.65,-14.5]}},{"type":"Feature","properties":{"id":"2912004","nome":"Ibiassucê","uf":"BA"},"geometry":{"type":"Point","coordinates":[-44.02,-14.2]}},{"type":"Feature","properties":{"id":"2912103","nome":"Ibicaraí","uf":"BA"},"geometry":{"type":"Point","coordinates":[-43.39,-13.899999999999999]}},{"type":"Feature","properties":{"id":"2912202","nome":"Ibicoara","uf":"BA"},"geometry":{"type":"Point","coordinates":[-42.76,-13.6]}},{"type":"Feature","properties":{"id":"2912301","nome":"Ibicuí","uf":"BA"},"geometry":{"type":"Point","coordinates":[-42.13,-13.3]}},{"type":"Feature","properties":{"id":"2912400","nome":"Ibipeba","uf":"BA"},"geometry":{"type":"Point","coordinates":[-41.5,-13]}},{"type":"Feature","properties":{"id":"2912509","nome":"Ibipitanga","uf":"BA"},"geometry":{"type":"Point","coordinates":[-40.87,-12.7]}},{"type":"Feature","properties":{"id":"2912608","nome":"Ibiquera","uf":"BA"},"geometry":{"type":"Point","coordinates":[-40.24,-12.399999999999999]}},{"type":"Feature","properties":{"id":"2912707","nome":"Ibirapitanga","uf":"BA"},"geometry":{"type":"Point","coordinates":[-39.61,-12.1]}},{"type":"Feature","properties":{"id":"2912806","nome":"Ibirapuã","uf":"BA"},"geometry":{"type":"Point","coordinates":[-38.980000000000004,-11.8]}},{"type":"Feature","properties":{"id":"2912905","nome":"Ibirataia","uf":"BA"},"geometry":{"type":"Point","coordinates":[-38.35,-11.5]}},{"type":"Feature","properties":{"id":"2913002","nome":"Ibitiara","uf":"BA"},"geometry":{"type":"Point","coordinates":[-37.72,-11.2]}},{"type":"Feature","properties":{"id":"2913101","nome":"Ibititá","uf":"BA"},"geometry":{"type":"Point","coordinates":[-37.09,-10.899999999999999]}},{"type":"Feature","properties":{"id":"2913200","nome":"Ibotirama","uf":"BA"},"geometry":{"type":"Point","coordinates":[-45.46,-10.6]}},{"type":"Feature","properties":{"id":"2913309","nome":"Ichu","uf":"BA"},"geometry":{"type":"Point","coordinates":[-44.83,-10.3]}},{"type":"Feature","properties":{"id":"2913408","nome":"Igaporã","uf":"BA"},"geometry":{"type":"Point","coordinates":[-44.2,-10]}},{"type":"Feature","properties":{"id":"2913457","nome":"Igrapiúna","uf":"BA"},"geometry":{"type":"Point","coordinates":[-43.57,-9.7]}},{"type":"Feature","properties":{"id":"2913507","nome":"Iguaí","uf":"BA"},"geometry":{"type":"Point","coordinates":[-42.94,-9.4]}},{"type":"Feature","properties":{"id":"2913606","nome":"Ilhéus","uf":"BA"},"geometry":{"type":"Point","coordinates":[-42.31,-9.1]}},{"type":"Feature","properties":{"id":"2913705","nome":"Inhambupe","uf":"BA"},"geometry":{"type":"Point","coordinates":[-41.68,-8.799999999999999]}},{"type":"Feature","properties":{"id":"2913804","nome":"Ipecaetá","uf":"BA"},"geometry":{"type":"Point","coordinates":[-41.05,-8.5]}},{"type":"Feature","properties":{"id":"2913903","nome":"Ipiaú","uf":"BA"},"geometry":{"type":"Point","coordinates":[-40.42,-8.2]}},{"type":"Feature","properties":{"id":"2914000","nome":"Ipirá","uf":"BA"},"geometry":{"type":"Point","coordinates":[-39.79,-17.9]}},{"type":"Feature","properties":{"id":"2914109","nome":"Ipupiara","uf":"BA"},"geometry":{"type":"Point","coordinates":[-39.16,-17.6]}},{"type":"Feature","properties":{"id":"2914208","nome":"Irajuba","uf":"BA"},"geometry":{"type":"Point","coordinates":[-38.53,-17.3]}},{"type":"Feature","properties":{"id":"2914307","nome":"Iramaia","uf":"BA"},"geometry":{"type":"Point","coordinates":[-37.9,-17]}},{"type":"Feature","properties":{"id":"2914406","nome":"Iraquara","uf":"BA"},"geometry":{"type":"Point","coordinates":[-37.269999999999996,-16.7]}},{"type":"Feature","properties":{"id":"2914505","nome":"Irará","uf":"BA"},"geometry":{"type":"Point","coordinates":[-45.64,-16.4]}},{"type":"Feature","properties":{"id":"2914604","nome":"Irecê","uf":"BA"},"geometry":{"type":"Point","coordinates":[-45.01,-16.1]}},{"type":"Feature","properties":{"id":"2914653","nome":"Itabela","uf":"BA"},"geometry":{"type":"Point","coordinates":[-44.38,-15.8]}},{"type":"Feature","properties":{"id":"2914703","nome":"Itaberaba","uf":"BA"},"geometry":{"type":"Point","coordinates":[-43.75,-15.5]}},{"type":"Feature","properties":{"id":"2914802","nome":"Itabuna","uf":"BA"},"geometry":{"type":"Point","coordinates":[-43.12,-15.2]}},{"type":"Feature","properties":{"id":"2914901","nome":"Itacaré","uf":"BA"},"geometry":{"type":"Point","coordinates":[-42.49,-14.9]}},{"type":"Feature","properties":{"id":"2915007","nome":"Itaeté","uf":"BA"},"geometry":{"type":"Point","coordinates":[-41.86,-14.6]}},{"type":"Feature","properties":{"id":"2915106","nome":"Itagi","uf":"BA"},"geometry":{"type":"Point","coordinates":[-41.230000000000004,-14.3]}},{"type":"Feature","properties":{"id":"2915205","nome":"Itagibá","uf":"BA"},"geometry":{"type":"Point","coordinates":[-40.6,-14]}},{"type":"Feature","properties":{"id":"2915304","nome":"Itagimirim","uf":"BA"},"geometry":{"type":"Point","coordinates":[-39.97,-13.7]}},{"type":"Feature","properties":{"id":"2915353","nome":"Itaguaçu da Bahia","uf":"BA"},"geometry":{"type":"Point","coordinates":[-39.34,-13.399999999999999]}},{"type":"Feature","properties":{"id":"2915403","nome":"Itaju do Colônia","uf":"BA"},"geometry":{"type":"Point","coordinates":[-38.71,-13.1]}},{"type":"Feature","properties":{"id":"2915502","nome":"Itajuípe","uf":"BA"},"geometry":{"type":"Point","coordinates":[-38.08,-12.8]}},{"type":"Feature","properties":{"id":"2915601","nome":"Itamaraju","uf":"BA"},"geometry":{"type":"Point","coordinates":[-37.45,-12.5]}},{"type":"Feature","properties":{"id":"2915700","nome":"Itamari","uf":"BA"},"geometry":{"type":"Point","coordinates":[-45.82,-12.2]}},{"type":"Feature","properties":{"id":"2915809","nome":"Itambé","uf":"BA"},"geometry":{"type":"Point","coordinates":[-45.19,-11.899999999999999]}},{"type":"Feature","properties":{"id":"2915908","nome":"Itanagra","uf":"BA"},"geometry":{"type":"Point","coordinates":[-44.56,-11.6]}},{"type":"Feature","properties":{"id":"2916005","nome":"Itanhém","uf":"BA"},"geometry":{"type":"Point","coordinates":[-43.93,-11.3]}},{"type":"Feature","properties":{"id":"2916104","nome":"Itaparica","uf":"BA"},"geometry":{"type":"Point","coordinates":[-43.3,-11]}},{"type":"Feature","properties":{"id":"2916203","nome":"Itapé","uf":"BA"},"geometry":{"type":"Point","coordinates":[-42.67,-10.7]}},{"type":"Feature","properties":{"id":"2916302","nome":"Itapebi","uf":"BA"},"geometry":{"type":"Point","coordinates":[-42.04,-10.399999999999999]}},{"type":"Feature","properties":{"id":"2916401","nome":"Itapetinga","uf":"BA"},"geometry":{"type":"Point","coordinates":[-41.41,-10.1]}},{"type":"Feature","properties":{"id":"2916500","nome":"Itapicuru","uf":"BA"},"geometry":{"type":"Point","coordinates":[-40.78,-9.799999999999999]}},{"type":"Feature","properties":{"id":"2916609","nome":"Itapitanga","uf":"BA"},"geometry":{"type":"Point","coordinates":[-40.15,-9.5]}},{"type":"Feature","properties":{"id":"2916708","nome":"Itaquara","uf":"BA"},"geometry":{"type":"Point","coordinates":[-39.52,-9.2]}},{"type":"Feature","properties":{"id":"2916807","nome":"Itarantim","uf":"BA"},"geometry":{"type":"Point","coordinates":[-38.89,-8.9]}},{"type":"Feature","properties":{"id":"2916856","nome":"Itatim","uf":"BA"},"geometry":{"type":"Point","coordinates":[-38.26,-8.6]}},{"type":"Feature","properties":{"id":"2916906","nome":"Itiruçu","uf":"BA"},"geometry":{"type":"Point","coordinates":[-37.63,-8.299999999999999]}},{"type":"Feature","properties":{"id":"2917003","nome":"Itiúba","uf":"BA"},"geometry":{"type":"Point","coordinates":[-46,-18]}},{"type":"Feature","properties":{"id":"2917102","nome":"Itororó","uf":"BA"},"geometry":{"type":"Point","coordinates":[-45.37,-17.7]}},{"type":"Feature","properties":{"id":"2917201","nome":"Ituaçu","uf":"BA"},"geometry":{"type":"Point","coordinates":[-44.74,-17.4]}},{"type":"Feature","properties":{"id":"2917300","nome":"Ituberá","uf":"BA"},"geometry":{"type":"Point","coordinates":[-44.11,-17.1]}},{"type":"Feature","properties":{"id":"2917334","nome":"Iuiu","uf":"BA"},"geometry":{"type":"Point","coordinates":[-43.48,-16.8]}},{"type":"Feature","properties":{"id":"2917359","nome":"Jaborandi","uf":"BA"},"geometry":{"type":"Point","coordinates":[-42.85,-16.5]}},{"type":"Feature","properties":{"id":"2917409","nome":"Jacaraci","uf":"BA"},"geometry":{"type":"Point","coordinates":[-42.22,-16.2]}},{"type":"Feature","properties":{"id":"2917508","nome":"Jacobina","uf":"BA"},"geometry":{"type":"Point","coordinates":[-41.59,-15.9]}},{"type":"Feature","properties":{"id":"2917607","nome":"Jaguaquara","uf":"BA"},"geometry":{"type":"Point","coordinates":[-40.96,-15.6]}},{"type":"Feature","properties":{"id":"2917706","nome":"Jaguarari","uf":"BA"},"geometry":{"type":"Point","coordinates":[-40.33,-15.3]}},{"type":"Feature","properties":{"id":"2917805","nome":"Jaguaripe","uf":"BA"},"geometry":{"type":"Point","coordinates":[-39.7,-15]}},{"type":"Feature","properties":{"id":"2917904","nome":"Jandaíra","uf":"BA"},"geometry":{"type":"Point","coordinates":[-39.07,-14.7]}},{"type":"Feature","properties":{"id":"2918001","nome":"Jequié","uf":"BA"},"geometry":{"type":"Point","coordinates":[-38.44,-14.4]}},{"type":"Feature","properties":{"id":"2918100","nome":"Jeremoabo","uf":"BA"},"geometry":{"type":"Point","coordinates":[-37.81,-14.1]}},{"type":"Feature","properties":{"id":"2918209","nome":"Jiquiriçá","uf":"BA"},"geometry":{"type":"Point","coordinates":[-37.18,-13.8]}},{"type":"Feature","properties":{"id":"2918308","nome":"Jitaúna","uf":"BA"},"geometry":{"type":"Point","coordinates":[-45.55,-13.5]}},{"type":"Feature","properties":{"id":"2918357","nome":"João Dourado","uf":"BA"},"geometry":{"type":"Point","coordinates":[-44.92,-13.2]}},{"type":"Feature","properties":{"id":"2918407","nome":"Juazeiro","uf":"BA"},"geometry":{"type":"Point","coordinates":[-44.29,-12.899999999999999]}},{"type":"Feature","properties":{"id":"2918456","nome":"Jucuruçu","uf":"BA"},"geometry":{"type":"Point","coordinates":[-43.66,-12.6]}},{"type":"Feature","properties":{"id":"2918506","nome":"Jussara","uf":"BA"},"geometry":{"type":"Point","coordinates":[-43.03,-12.3]}},{"type":"Feature","properties":{"id":"2918555","nome":"Jussari","uf":"BA"},"geometry":{"type":"Point","coordinates":[-42.4,-12]}},{"type":"Feature","properties":{"id":"2918605","nome":"Jussiape","uf":"BA"},"geometry":{"type":"Point","coordinates":[-41.77,-11.7]}},{"type":"Feature","properties":{"id":"2918704","nome":"Lafaiete Coutinho","uf":"BA"},"geometry":{"type":"Point","coordinates":[-41.14,-11.399999999999999]}},{"type":"Feature","properties":{"id":"2918753","nome":"Lagoa Real","uf":"BA"},"geometry":{"type":"Point","coordinates":[-40.51,-11.1]}},{"type":"Feature","properties":{"id":"2918803","nome":"Laje","uf":"BA"},"geometry":{"type":"Point","coordinates":[-39.88,-10.8]}},{"type":"Feature","properties":{"id":"2918902","nome":"Lajedão","uf":"BA"},"geometry":{"type":"Point","coordinates":[-39.25,-10.5]}},{"type":"Feature","properties":{"id":"2919009","nome":"Lajedinho","uf":"BA"},"geometry":{"type":"Point","coordinates":[-38.62,-10.2]}},{"type":"Feature","properties":{"id":"2919058","nome":"Lajedo do Tabocal","uf":"BA"},"geometry":{"type":"Point","coordinates":[-37.99,-9.9]}},{"type":"Feature","properties":{"id":"2919108","nome":"Lamarão","uf":"BA"},"geometry":{"type":"Point","coordinates":[-37.36,-9.6]}},{"type":"Feature","properties":{"id":"2919157","nome":"Lapão","uf":"BA"},"geometry":{"type":"Point","coordinates":[-45.73,-9.299999999999999]}},{"type":"Feature","properties":{"id":"2919207","nome":"Lauro de Freitas","uf":"BA"},"geometry":{"type":"Point","coordinates":[-45.1,-9]}},{"type":"Feature","properties":{"id":"2919306","nome":"Lençóis","uf":"BA"},"geometry":{"type":"Point","coordinates":[-44.47,-8.7]}},{"type":"Feature","properties":{"id":"2919405","nome":"Licínio de Almeida","uf":"BA"},"geometry":{"type":"Point","coordinates":[-43.84,-8.399999999999999]}},{"type":"Feature","properties":{"id":"2919504","nome":"Livramento de Nossa Senhora","uf":"BA"},"geometry":{"type":"Point","coordinates":[-43.21,-8.1]}},{"type":"Feature","properties":{"id":"2919553","nome":"Luís Eduardo Magalhães","uf":"BA"},"geometry":{"type":"Point","coordinates":[-42.58,-17.8]}},{"type":"Feature","properties":{"id":"2919603","nome":"Macajuba","uf":"BA"},"geometry":{"type":"Point","coordinates":[-41.95,-17.5]}},{"type":"Feature","properties":{"id":"2919702","nome":"Macarani","uf":"BA"},"geometry":{"type":"Point","coordinates":[-41.32,-17.2]}},{"type":"Feature","properties":{"id":"2919801","nome":"Macaúbas","uf":"BA"},"geometry":{"type":"Point","coordinates":[-40.69,-16.9]}},{"type":"Feature","properties":{"id":"2919900","nome":"Macururé","uf":"BA"},"geometry":{"type":"Point","coordinates":[-40.06,-16.6]}},{"type":"Feature","properties":{"id":"2919926","nome":"Madre de Deus","uf":"BA"},"geometry":{"type":"Point","coordinates":[-39.43,-16.3]}},{"type":"Feature","properties":{"id":"2919959","nome":"Maetinga","uf":"BA"},"geometry":{"type":"Point","coordinates":[-38.8,-16]}},{"type":"Feature","properties":{"id":"2920007","nome":"Maiquinique","uf":"BA"},"geometry":{"type":"Point","coordinates":[-38.17,-15.7]}},{"type":"Feature","properties":{"id":"2920106","nome":"Mairi","uf":"BA"},"geometry":{"type":"Point","coordinates":[-37.54,-15.4]}},{"type":"Feature","properties":{"id":"2920205","nome":"Malhada","uf":"BA"},"geometry":{"type":"Point","coordinates":[-45.91,-15.1]}},{"type":"Feature","properties":{"id":"2920304","nome":"Malhada de Pedras","uf":"BA"},"geometry":{"type":"Point","coordinates":[-45.28,-14.8]}},{"type":"Feature","properties":{"id":"2920403","nome":"Manoel Vitorino","uf":"BA"},"geometry":{"type":"Point","coordinates":[-44.65,-14.5]}},{"type":"Feature","properties":{"id":"2920452","nome":"Mansidão","uf":"BA"},"geometry":{"type":"Point","coordinates":[-44.02,-14.2]}},{"type":"Feature","properties":{"id":"2920502","nome":"Maracás","uf":"BA"},"geometry":{"type":"Point","coordinates":[-43.39,-13.899999999999999]}},{"type":"Feature","properties":{"id":"2920601","nome":"Maragogipe","uf":"BA"},"geometry":{"type":"Point","coordinates":[-42.76,-13.6]}},{"type":"Feature","properties":{"id":"2920700","nome":"Maraú","uf":"BA"},"geometry":{"type":"Point","coordinates":[-42.13,-13.3]}},{"type":"Feature","properties":{"id":"2920809","nome":"Marcionílio Souza","uf":"BA"},"geometry":{"type":"Point","coordinates":[-41.5,-13]}},{"type":"Feature","properties":{"id":"2920908","nome":"Mascote","uf":"BA"},"geometry":{"type":"Point","coordinates":[-40.87,-12.7]}},{"type":"Feature","properties":{"id":"2921005","nome":"Mata de São João","uf":"BA"},"geometry":{"type":"Point","coordinates":[-40.24,-12.399999999999999]}},{"type":"Feature","properties":{"id":"2921054","nome":"Matina","uf":"BA"},"geometry":{"type":"Point","coordinates":[-39.61,-12.1]}},{"type":"Feature","properties":{"id":"2921104","nome":"Medeiros Neto","uf":"BA"},"geometry":{"type":"Point","coordinates":[-38.980000000000004,-11.8]}},{"type":"Feature","properties":{"id":"2921203","nome":"Miguel Calmon","uf":"BA"},"geometry":{"type":"Point","coordinates":[-38.35,-11.5]}},{"type":"Feature","properties":{"id":"2921302","nome":"Milagres","uf":"BA"},"geometry":{"type":"Point","coordinates":[-37.72,-11.2]}},{"type":"Feature","properties":{"id":"2921401","nome":"Mirangaba","uf":"BA"},"geometry":{"type":"Point","coordinates":[-37.09,-10.899999999999999]}},{"type":"Feature","properties":{"id":"2921450","nome":"Mirante","uf":"BA"},"geometry":{"type":"Point","coordinates":[-45.46,-10.6]}},{"type":"Feature","properties":{"id":"2921500","nome":"Monte Santo","uf":"BA"},"geometry":{"type":"Point","coordinates":[-44.83,-10.3]}},{"type":"Feature","properties":{"id":"2921609","nome":"Morpará","uf":"BA"},"geometry":{"type":"Point","coordinates":[-44.2,-10]}},{"type":"Feature","properties":{"id":"2921708","nome":"Morro do Chapéu","uf":"BA"},"geometry":{"type":"Point","coordinates":[-43.57,-9.7]}},{"type":"Feature","properties":{"id":"2921807","nome":"Mortugaba","uf":"BA"},"geometry":{"type":"Point","coordinates":[-42.94,-9.4]}},{"type":"Feature","properties":{"id":"2921906","nome":"Mucugê","uf":"BA"},"geometry":{"type":"Point","coordinates":[-42.31,-9.1]}},{"type":"Feature","properties":{"id":"2922003","nome":"Mucuri","uf":"BA"},"geometry":{"type":"Point","coordinates":[-41.68,-8.799999999999999]}},{"type":"Feature","properties":{"id":"2922052","nome":"Mulungu do Morro","uf":"BA"},"geometry":{"type":"Point","coordinates":[-41.05,-8.5]}},{"type":"Feature","properties":{"id":"2922102","nome":"Mundo Novo","uf":"BA"},"geometry":{"type":"Point","coordinates":[-40.42,-8.2]}},{"type":"Feature","properties":{"id":"2922201","nome":"Muniz Ferreira","uf":"BA"},"geometry":{"type":"Point","coordinates":[-39.79,-17.9]}},{"type":"Feature","properties":{"id":"2922250","nome":"Muquém do São Francisco","uf":"BA"},"geometry":{"type":"Point","coordinates":[-39.16,-17.6]}},{"type":"Feature","properties":{"id":"2922300","nome":"Muritiba","uf":"BA"},"geometry":{"type":"Point","coordinates":[-38.53,-17.3]}},{"type":"Feature","properties":{"id":"2922409","nome":"Mutuípe","uf":"BA"},"geometry":{"type":"Point","coordinates":[-37.9,-17]}},{"type":"Feature","properties":{"id":"2922508","nome":"Nazaré","uf":"BA"},"geometry":{"type":"Point","coordinates":[-37.269999999999996,-16.7]}},{"type":"Feature","properties":{"id":"2922607","nome":"Nilo Peçanha","uf":"BA"},"geometry":{"type":"Point","coordinates":[-45.64,-16.4]}},{"type":"Feature","properties":{"id":"2922656","nome":"Nordestina","uf":"BA"},"geometry":{"type":"Point","coordinates":[-45.01,-16.1]}},{"type":"Feature","properties":{"id":"2922706","nome":"Nova Canaã","uf":"BA"},"geometry":{"type":"Point","coordinates":[-44.38,-15.8]}},{"type":"Feature","properties":{"id":"2922730","nome":"Nova Fátima","uf":"BA"},"geometry":{"type":"Point","coordinates":[-43.75,-15.5]}},{"type":"Feature","properties":{"id":"2922755","nome":"Nova Ibiá","uf":"BA"},"geometry":{"type":"Point","coordinates":[-43.12,-15.2]}},{"type":"Feature","properties":{"id":"2922805","nome":"Nova Itarana","uf":"BA"},"geometry":{"type":"Point","coordinates":[-42.49,-14.9]}},{"type":"Feature","properties":{"id":"2922854","nome":"Nova Redenção","uf":"BA"},"geometry":{"type":"Point","coordinates":[-41.86,-14.6]}},{"type":"Feature","properties":{"id":"2922904","nome":"Nova Soure","uf":"BA"},"geometry":{"type":"Point","coordinates":[-41.230000000000004,-14.3]}},{"type":"Feature","properties":{"id":"2923001","nome":"Nova Viçosa","uf":"BA"},"geometry":{"type":"Point","coordinates":[-40.6,-14]}},{"type":"Feature","properties":{"id":"2923035","nome":"Novo Horizonte","uf":"BA"},"geometry":{"type":"Point","coordinates":[-39.97,-13.7]}},{"type":"Feature","properties":{"id":"2923050","nome":"Novo Triunfo","uf":"BA"},"geometry":{"type":"Point","coordinates":[-39.34,-13.399999999999999]}},{"type":"Feature","properties":{"id":"2923100","nome":"Olindina","uf":"BA"},"geometry":{"type":"Point","coordinates":[-38.71,-13.1]}},{"type":"Feature","properties":{"id":"2923209","nome":"Oliveira dos Brejinhos","uf":"BA"},"geometry":{"type":"Point","coordinates":[-38.08,-12.8]}},{"type":"Feature","properties":{"id":"2923308","nome":"Ouriçangas","uf":"BA"},"geometry":{"type":"Point","coordinates":[-37.45,-12.5]}},{"type":"Feature","properties":{"id":"2923357","nome":"Ourolândia","uf":"BA"},"geometry":{"type":"Point","coordinates":[-45.82,-12.2]}},{"type":"Feature","properties":{"id":"2923407","nome":"Palmas de Monte Alto","uf":"BA"},"geometry":{"type":"Point","coordinates":[-45.19,-11.899999999999999]}},{"type":"Feature","properties":{"id":"2923506","nome":"Palmeiras","uf":"BA"},"geometry":{"type":"Point","coordinates":[-44.56,-11.6]}},{"type":"Feature","properties":{"id":"2923605","nome":"Paramirim","uf":"BA"},"geometry":{"type":"Point","coordinates":[-43.93,-11.3]}},{"type":"Feature","properties":{"id":"2923704","nome":"Paratinga","uf":"BA"},"geometry":{"type":"Point","coordinates":[-43.3,-11]}},{"type":"Feature","properties":{"id":"2923803","nome":"Paripiranga","uf":"BA"},"geometry":{"type":"Point","coordinates":[-42.67,-10.7]}},{"type":"Feature","properties":{"id":"2923902","nome":"Pau Brasil","uf":"BA"},"geometry":{"type":"Point","coordinates":[-42.04,-10.399999999999999]}},{"type":"Feature","properties":{"id":"2924009","nome":"Paulo Afonso","uf":"BA"},"geometry":{"type":"Point","coordinates":[-41.41,-10.1]}},{"type":"Feature","properties":{"id":"2924058","nome":"Pé de Serra","uf":"BA"},"geometry":{"type":"Point","coordinates":[-40.78,-9.799999999999999]}},{"type":"Feature","properties":{"id":"2924108","nome":"Pedrão","uf":"BA"},"geometry":{"type":"Point","coordinates":[-40.15,-9.5]}},{"type":"Feature","properties":{"id":"2924207","nome":"Pedro Alexandre","uf":"BA"},"geometry":{"type":"Point","coordinates":[-39.52,-9.2]}},{"type":"Feature","properties":{"id":"2924306","nome":"Piatã","uf":"BA"},"geometry":{"type":"Point","coordinates":[-38.89,-8.9]}},{"type":"Feature","properties":{"id":"2924405","nome":"Pilão Arcado","uf":"BA"},"geometry":{"type":"Point","coordinates":[-38.26,-8.6]}},{"type":"Feature","properties":{"id":"2924504","nome":"Pindaí","uf":"BA"},"geometry":{"type":"Point","coordinates":[-37.63,-8.299999999999999]}},{"type":"Feature","properties":{"id":"2924603","nome":"Pindobaçu","uf":"BA"},"geometry":{"type":"Point","coordinates":[-46,-18]}},{"type":"Feature","properties":{"id":"2924652","nome":"Pintadas","uf":"BA"},"geometry":{"type":"Point","coordinates":[-45.37,-17.7]}},{"type":"Feature","properties":{"id":"2924678","nome":"Piraí do Norte","uf":"BA"},"geometry":{"type":"Point","coordinates":[-44.74,-17.4]}},{"type":"Feature","properties":{"id":"2924702","nome":"Piripá","uf":"BA"},"geometry":{"type":"Point","coordinates":[-44.11,-17.1]}},{"type":"Feature","properties":{"id":"2924801","nome":"Piritiba","uf":"BA"},"geometry":{"type":"Point","coordinates":[-43.48,-16.8]}},{"type":"Feature","properties":{"id":"2924900","nome":"Planaltino","uf":"BA"},"geometry":{"type":"Point","coordinates":[-42.85,-16.5]}},{"type":"Feature","properties":{"id":"2925006","nome":"Planalto","uf":"BA"},"geometry":{"type":"Point","coordinates":[-42.22,-16.2]}},{"type":"Feature","properties":{"id":"2925105","nome":"Poções","uf":"BA"},"geometry":{"type":"Point","coordinates":[-41.59,-15.9]}},{"type":"Feature","properties":{"id":"2925204","nome":"Pojuca","uf":"BA"},"geometry":{"type":"Point","coordinates":[-40.96,-15.6]}},{"type":"Feature","properties":{"id":"2925253","nome":"Ponto Novo","uf":"BA"},"geometry":{"type":"Point","coordinates":[-40.33,-15.3]}},{"type":"Feature","properties":{"id":"2925303","nome":"Porto Seguro","uf":"BA"},"geometry":{"type":"Point","coordinates":[-39.7,-15]}},{"type":"Feature","properties":{"id":"2925402","nome":"Potiraguá","uf":"BA"},"geometry":{"type":"Point","coordinates":[-39.07,-14.7]}},{"type":"Feature","properties":{"id":"2925501","nome":"Prado","uf":"BA"},"geometry":{"type":"Point","coordinates":[-38.44,-14.4]}},{"type":"Feature","properties":{"id":"2925600","nome":"Presidente Dutra","uf":"BA"},"geometry":{"type":"Point","coordinates":[-37.81,-14.1]}},{"type":"Feature","properties":{"id":"2925709","nome":"Presidente Jânio Quadros","uf":"BA"},"geometry":{"type":"Point","coordinates":[-37.18,-13.8]}},{"type":"Feature","properties":{"id":"2925758","nome":"Presidente Tancredo Neves","uf":"BA"},"geometry":{"type":"Point","coordinates":[-45.55,-13.5]}},{"type":"Feature","properties":{"id":"2925808","nome":"Queimadas","uf":"BA"},"geometry":{"type":"Point","coordinates":[-44.92,-13.2]}},{"type":"Feature","properties":{"id":"2925907","nome":"Quijingue","uf":"BA"},"geometry":{"type":"Point","coordinates":[-44.29,-12.899999999999999]}},{"type":"Feature","properties":{"id":"2925931","nome":"Quixabeira","uf":"BA"},"geometry":{"type":"Point","coordinates":[-43.66,-12.6]}},{"type":"Feature","properties":{"id":"2925956","nome":"Rafael Jambeiro","uf":"BA"},"geometry":{"type":"Point","coordinates":[-43.03,-12.3]}},{"type":"Feature","properties":{"id":"2926004","nome":"Remanso","uf":"BA"},"geometry":{"type":"Point","coordinates":[-42.4,-12]}},{"type":"Feature","properties":{"id":"2926103","nome":"Retirolândia","uf":"BA"},"geometry":{"type":"Point","coordinates":[-41.77,-11.7]}},{"type":"Feature","properties":{"id":"2926202","nome":"Riachão das Neves","uf":"BA"},"geometry":{"type":"Point","coordinates":[-41.14,-11.399999999999999]}},{"type":"Feature","properties":{"id":"2926301","nome":"Riachão do Jacuípe","uf":"BA"},"geometry":{"type":"Point","coordinates":[-40.51,-11.1]}},{"type":"Feature","properties":{"id":"2926400","nome":"Riacho de Santana","uf":"BA"},"geometry":{"type":"Point","coordinates":[-39.88,-10.8]}},{"type":"Feature","properties":{"id":"2926509","nome":"Ribeira do Amparo","uf":"BA"},"geometry":{"type":"Point","coordinates":[-39.25,-10.5]}},{"type":"Feature","properties":{"id":"2926608","nome":"Ribeira do Pombal","uf":"BA"},"geometry":{"type":"Point","coordinates":[-38.62,-10.2]}},{"type":"Feature","properties":{"id":"2926657","nome":"Ribeirão do Largo","uf":"BA"},"geometry":{"type":"Point","coordinates":[-37.99,-9.9]}},{"type":"Feature","properties":{"id":"2926707","nome":"Rio de Contas","uf":"BA"},"geometry":{"type":"Point","coordinates":[-37.36,-9.6]}},{"type":"Feature","properties":{"id":"2926806","nome":"Rio do Antônio","uf":"BA"},"geometry":{"type":"Point","coordinates":[-45.73,-9.299999999999999]}},{"type":"Feature","properties":{"id":"2926905","nome":"Rio do Pires","uf":"BA"},"geometry":{"type":"Point","coordinates":[-45.1,-9]}},{"type":"Feature","properties":{"id":"2927002","nome":"Rio Real","uf":"BA"},"geometry":{"type":"Point","coordinates":[-44.47,-8.7]}},{"type":"Feature","properties":{"id":"2927101","nome":"Rodelas","uf":"BA"},"geometry":{"type":"Point","coordinates":[-43.84,-8.399999999999999]}},{"type":"Feature","properties":{"id":"2927200","nome":"Ruy Barbosa","uf":"BA"},"geometry":{"type":"Point","coordinates":[-43.21,-8.1]}},{"type":"Feature","properties":{"id":"2927309","nome":"Salinas da Margarida","uf":"BA"},"geometry":{"type":"Point","coordinates":[-42.58,-17.8]}},{"type":"Feature","properties":{"id":"2927408","nome":"Salvador","uf":"BA"},"geometry":{"type":"Point","coordinates":[-41.95,-17.5]}},{"type":"Feature","properties":{"id":"2927507","nome":"Santa Bárbara","uf":"BA"},"geometry":{"type":"Point","coordinates":[-41.32,-17.2]}},{"type":"Feature","properties":{"id":"2927606","nome":"Santa Brígida","uf":"BA"},"geometry":{"type":"Point","coordinates":[-40.69,-16.9]}},{"type":"Feature","properties":{"id":"2927705","nome":"Santa Cruz Cabrália","uf":"BA"},"geometry":{"type":"Point","coordinates":[-40.06,-16.6]}},{"type":"Feature","properties":{"id":"2927804","nome":"Santa Cruz da Vitória","uf":"BA"},"geometry":{"type":"Point","coordinates":[-39.43,-16.3]}},{"type":"Feature","properties":{"id":"2927903","nome":"Santa Inês","uf":"BA"},"geometry":{"type":"Point","coordinates":[-38.8,-16]}},{"type":"Feature","properties":{"id":"2928000","nome":"Santaluz","uf":"BA"},"geometry":{"type":"Point","coordinates":[-38.17,-15.7]}},{"type":"Feature","properties":{"id":"2928059","nome":"Santa Luzia","uf":"BA"},"geometry":{"type":"Point","coordinates":[-37.54,-15.4]}},{"type":"Feature","properties":{"id":"2928109","nome":"Santa Maria da Vitória","uf":"BA"},"geometry":{"type":"Point","coordinates":[-45.91,-15.1]}},{"type":"Feature","properties":{"id":"2928208","nome":"Santana","uf":"BA"},"geometry":{"type":"Point","coordinates":[-45.28,-14.8]}},{"type":"Feature","properties":{"id":"2928307","nome":"Santanópolis","uf":"BA"},"geometry":{"type":"Point","coordinates":[-44.65,-14.5]}},{"type":"Feature","properties":{"id":"2928406","nome":"Santa Rita de Cássia","uf":"BA"},"geometry":{"type":"Point","coordinates":[-44.02,-14.2]}},{"type":"Feature","properties":{"id":"2928505","nome":"Santa Terezinha","uf":"BA"},"geometry":{"type":"Point","coordinates":[-43.39,-13.899999999999999]}},{"type":"Feature","properties":{"id":"2928604","nome":"Santo Amaro","uf":"BA"},"geometry":{"type":"Point","coordinates":[-42.76,-13.6]}},{"type":"Feature","properties":{"id":"2928703","nome":"Santo Antônio de Jesus","uf":"BA"},"geometry":{"type":"Point","coordinates":[-42.13,-13.3]}},{"type":"Feature","properties":{"id":"2928802","nome":"Santo Estêvão","uf":"BA"},"geometry":{"type":"Point","coordinates":[-41.5,-13]}},{"type":"Feature","properties":{"id":"2928901","nome":"São Desidério","uf":"BA"},"geometry":{"type":"Point","coordinates":[-40.87,-12.7]}},{"type":"Feature","properties":{"id":"2928950","nome":"São Domingos","uf":"BA"},"geometry":{"type":"Point","coordinates":[-40.24,-12.399999999999999]}},{"type":"Feature","properties":{"id":"2929008","nome":"São Félix","uf":"BA"},"geometry":{"type":"Point","coordinates":[-39.61,-12.1]}},{"type":"Feature","properties":{"id":"2929057","nome":"São Félix do Coribe","uf":"BA"},"geometry":{"type":"Point","coordinates":[-38.980000000000004,-11.8]}},{"type":"Feature","properties":{"id":"2929107","nome":"São Felipe","uf":"BA"},"geometry":{"type":"Point","coordinates":[-38.35,-11.5]}},{"type":"Feature","properties":{"id":"2929206","nome":"São Francisco do Conde","uf":"BA"},"geometry":{"type":"Point","coordinates":[-37.72,-11.2]}},{"type":"Feature","properties":{"id":"2929255","nome":"São Gabriel","uf":"BA"},"geometry":{"type":"Point","coordinates":[-37.09,-10.899999999999999]}},{"type":"Feature","properties":{"id":"2929305","nome":"São Gonçalo dos Campos","uf":"BA"},"geometry":{"type":"Point","coordinates":[-45.46,-10.6]}},{"type":"Feature","properties":{"id":"2929354","nome":"São José da Vitória","uf":"BA"},"geometry":{"type":"Point","coordinates":[-44.83,-10.3]}},{"type":"Feature","properties":{"id":"2929370","nome":"São José do Jacuípe","uf":"BA"},"geometry":{"type":"Point","coordinates":[-44.2,-10]}},{"type":"Feature","properties":{"id":"2929404","nome":"São Miguel das Matas","uf":"BA"},"geometry":{"type":"Point","coordinates":[-43.57,-9.7]}},{"type":"Feature","properties":{"id":"2929503","nome":"São Sebastião do Passé","uf":"BA"},"geometry":{"type":"Point","coordinates":[-42.94,-9.4]}},{"type":"Feature","properties":{"id":"2929602","nome":"Sapeaçu","uf":"BA"},"geometry":{"type":"Point","coordinates":[-42.31,-9.1]}},{"type":"Feature","properties":{"id":"2929701","nome":"Sátiro Dias","uf":"BA"},"geometry":{"type":"Point","coordinates":[-41.68,-8.799999999999999]}},{"type":"Feature","properties":{"id":"2929750","nome":"Saubara","uf":"BA"},"geometry":{"type":"Point","coordinates":[-41.05,-8.5]}},{"type":"Feature","properties":{"id":"2929800","nome":"Saúde","uf":"BA"},"geometry":{"type":"Point","coordinates":[-40.42,-8.2]}},{"type":"Feature","properties":{"id":"2929909","nome":"Seabra","uf":"BA"},"geometry":{"type":"Point","coordinates":[-39.79,-17.9]}},{"type":"Feature","properties":{"id":"2930006","nome":"Sebastião Laranjeiras","uf":"BA"},"geometry":{"type":"Point","coordinates":[-39.16,-17.6]}},{"type":"Feature","properties":{"id":"2930105","nome":"Senhor do Bonfim","uf":"BA"},"geometry":{"type":"Point","coordinates":[-38.53,-17.3]}},{"type":"Feature","properties":{"id":"2930154","nome":"Serra do Ramalho","uf":"BA"},"geometry":{"type":"Point","coordinates":[-37.9,-17]}},{"type":"Feature","properties":{"id":"2930204","nome":"Sento Sé","uf":"BA"},"geometry":{"type":"Point","coordinates":[-37.269999999999996,-16.7]}},{"type":"Feature","properties":{"id":"2930303","nome":"Serra Dourada","uf":"BA"},"geometry":{"type":"Point","coordinates":[-45.64,-16.4]}},{"type":"Feature","properties":{"id":"2930402","nome":"Serra Preta","uf":"BA"},"geometry":{"type":"Point","coordinates":[-45.01,-16.1]}},{"type":"Feature","properties":{"id":"2930501","nome":"Serrinha","uf":"BA"},"geometry":{"type":"Point","coordinates":[-44.38,-15.8]}},{"type":"Feature","properties":{"id":"2930600","nome":"Serrolândia","uf":"BA"},"geometry":{"type":"Point","coordinates":[-43.75,-15.5]}},{"type":"Feature","properties":{"id":"2930709","nome":"Simões Filho","uf":"BA"},"geometry":{"type":"Point","coordinates":[-43.12,-15.2]}},{"type":"Feature","properties":{"id":"2930758","nome":"Sítio do Mato","uf":"BA"},"geometry":{"type":"Point","coordinates":[-42.49,-14.9]}},{"type":"Feature","properties":{"id":"2930766","nome":"Sítio do Quinto","uf":"BA"},"geometry":{"type":"Point","coordinates":[-41.86,-14.6]}},{"type":"Feature","properties":{"id":"2930774","nome":"Sobradinho","uf":"BA"},"geometry":{"type":"Point","coordinates":[-41.230000000000004,-14.3]}},{"type":"Feature","properties":{"id":"2930808","nome":"Souto Soares","uf":"BA"},"geometry":{"type":"Point","coordinates":[-40.6,-14]}},{"type":"Feature","properties":{"id":"2930907","nome":"Tabocas do Brejo Velho","uf":"BA"},"geometry":{"type":"Point","coordinates":[-39.97,-13.7]}},{"type":"Feature","properties":{"id":"2931004","nome":"Tanhaçu","uf":"BA"},"geometry":{"type":"Point","coordinates":[-39.34,-13.399999999999999]}},{"type":"Feature","properties":{"id":"2931053","nome":"Tanque Novo","uf":"BA"},"geometry":{"type":"Point","coordinates":[-38.71,-13.1]}},{"type":"Feature","properties":{"id":"2931103","nome":"Tanquinho","uf":"BA"},"geometry":{"type":"Point","coordinates":[-38.08,-12.8]}},{"type":"Feature","properties":{"id":"2931202","nome":"Taperoá","uf":"BA"},"geometry":{"type":"Point","coordinates":[-37.45,-12.5]}},{"type":"Feature","properties":{"id":"2931301","nome":"Tapiramutá","uf":"BA"},"geometry":{"type":"Point","coordinates":[-45.82,-12.2]}},{"type":"Feature","properties":{"id":"2931350","nome":"Teixeira de Freitas","uf":"BA"},"geometry":{"type":"Point","coordinates":[-45.19,-11.899999999999999]}},{"type":"Feature","properties":{"id":"2931400","nome":"Teodoro Sampaio","uf":"BA"},"geometry":{"type":"Point","coordinates":[-44.56,-11.6]}},{"type":"Feature","properties":{"id":"2931509","nome":"Teofilândia","uf":"BA"},"geometry":{"type":"Point","coordinates":[-43.93,-11.3]}},{"type":"Feature","properties":{"id":"2931608","nome":"Teolândia","uf":"BA"},"geometry":{"type":"Point","coordinates":[-43.3,-11]}},{"type":"Feature","properties":{"id":"2931707","nome":"Terra Nova","uf":"BA"},"geometry":{"type":"Point","coordinates":[-42.67,-10.7]}},{"type":"Feature","properties":{"id":"2931806","nome":"Tremedal","uf":"BA"},"geometry":{"type":"Point","coordinates":[-42.04,-10.399999999999999]}},{"type":"Feature","properties":{"id":"2931905","nome":"Tucano","uf":"BA"},"geometry":{"type":"Point","coordinates":[-41.41,-10.1]}},{"type":"Feature","properties":{"id":"2932002","nome":"Uauá","uf":"BA"},"geometry":{"type":"Point","coordinates":[-40.78,-9.799999999999999]}},{"type":"Feature","properties":{"id":"2932101","nome":"Ubaíra","uf":"BA"},"geometry":{"type":"Point","coordinates":[-40.15,-9.5]}},{"type":"Feature","properties":{"id":"2932200","nome":"Ubaitaba","uf":"BA"},"geometry":{"type":"Point","coordinates":[-39.52,-9.2]}},{"type":"Feature","properties":{"id":"2932309","nome":"Ubatã","uf":"BA"},"geometry":{"type":"Point","coordinates":[-38.89,-8.9]}},{"type":"Feature","properties":{"id":"2932408","nome":"Uibaí","uf":"BA"},"geometry":{"type":"Point","coordinates":[-38.26,-8.6]}},{"type":"Feature","properties":{"id":"2932457","nome":"Umburanas","uf":"BA"},"geometry":{"type":"Point","coordinates":[-37.63,-8.299999999999999]}},{"type":"Feature","properties":{"id":"2932507","nome":"Una","uf":"BA"},"geometry":{"type":"Point","coordinates":[-46,-18]}},{"type":"Feature","properties":{"id":"2932606","nome":"Urandi","uf":"BA"},"geometry":{"type":"Point","coordinates":[-45.37,-17.7]}},{"type":"Feature","properties":{"id":"2932705","nome":"Uruçuca","uf":"BA"},"geometry":{"type":"Point","coordinates":[-44.74,-17.4]}},{"type":"Feature","properties":{"id":"2932804","nome":"Utinga","uf":"BA"},"geometry":{"type":"Point","coordinates":[-44.11,-17.1]}},{"type":"Feature","properties":{"id":"2932903","nome":"Valença","uf":"BA"},"geometry":{"type":"Point","coordinates":[-43.48,-16.8]}},{"type":"Feature","properties":{"id":"2933000","nome":"Valente","uf":"BA"},"geometry":{"type":"Point","coordinates":[-42.85,-16.5]}},{"type":"Feature","properties":{"id":"2933059","nome":"Várzea da Roça","uf":"BA"},"geometry":{"type":"Point","coordinates":[-42.22,-16.2]}},{"type":"Feature","properties":{"id":"2933109","nome":"Várzea do Poço","uf":"BA"},"geometry":{"type":"Point","coordinates":[-41.59,-15.9]}},{"type":"Feature","properties":{"id":"2933158","nome":"Várzea Nova","uf":"BA"},"geometry":{"type":"Point","coordinates":[-40.96,-15.6]}},{"type":"Feature","properties":{"id":"2933174","nome":"Varzedo","uf":"BA"},"geometry":{"type":"Point","coordinates":[-40.33,-15.3]}},{"type":"Feature","properties":{"id":"2933208","nome":"Vera Cruz","uf":"BA"},"geometry":{"type":"Point","coordinates":[-39.7,-15]}},{"type":"Feature","properties":{"id":"2933257","nome":"Vereda","uf":"BA"},"geometry":{"type":"Point","coordinates":[-39.07,-14.7]}},{"type":"Feature","properties":{"id":"2933307","nome":"Vitória da Conquista","uf":"BA"},"geometry":{"type":"Point","coordinates":[-38.44,-14.4]}},{"type":"Feature","properties":{"id":"2933406","nome":"Wagner","uf":"BA"},"geometry":{"type":"Point","coordinates":[-37.81,-14.1]}},{"type":"Feature","properties":{"id":"2933455","nome":"Wanderley","uf":"BA"},"geometry":{"type":"Point","coordinates":[-37.18,-13.8]}},{"type":"Feature","properties":{"id":"2933505","nome":"Wenceslau Guimarães","uf":"BA"},"geometry":{"type":"Point","coordinates":[-45.55,-13.5]}},{"type":"Feature","properties":{"id":"2933604","nome":"Xique-Xique","uf":"BA"},"geometry":{"type":"Point","coordinates":[-44.92,-13.2]}}]}