{"type":"FeatureCollection","features":[{"type":"Feature","properties":{"id":"4100103","nome":"Abatiá","uf":"PR"},"geometry":{"type":"Point","coordinates":[-54,-27]}},{"type":"Feature","properties":{"id":"4100202","nome":"Adrianópolis","uf":"PR"},"geometry":{"type":"Point","coordinates":[-53.58,-26.85]}},{"type":"Feature","properties":{"id":"4100301","nome":"Agudos do Sul","uf":"PR"},"geometry":{"type":"Point","coordinates":[-53.16,-26.7]}},{"type":"Feature","properties":{"id":"4100400","nome":"Almirante Tamandaré","uf":"PR"},"geometry":{"type":"Point","coordinates":[-52.74,-26.55]}},{"type":"Feature","properties":{"id":"4100459","nome":"Altamira do Paraná","uf":"PR"},"geometry":{"type":"Point","coordinates":[-52.32,-26.4]}},{"type":"Feature","properties":{"id":"4100509","nome":"Altônia","uf":"PR"},"geometry":{"type":"Point","coordinates":[-51.9,-26.25]}},{"type":"Feature","properties":{"id":"4100608","nome":"Alto Paraná","uf":"PR"},"geometry":{"type":"Point","coordinates":[-51.48,-26.1]}},{"type":"Feature","properties":{"id":"4100707","nome":"Alto Piquiri","uf":"PR"},"geometry":{"type":"Point","coordinates":[-51.06,-25.95]}},{"type":"Feature","properties":{"id":"4100806","nome":"Alvorada do Sul","uf":"PR"},"geometry":{"type":"Point","coordinates":[-50.64,-25.8]}},{"type":"Feature","properties":{"id":"4100905","nome":"Amaporã","uf":"PR"},"geometry":{"type":"Point","coordinates":[-50.22,-25.65]}},{"type":"Feature","properties":{"id":"4101002","nome":"Ampére","uf":"PR"},"geometry":{"type":"Point","coordinates":[-49.8,-25.5]}},{"type":"Feature","properties":{"id":"4101051","nome":"Anahy","uf":"PR"},"geometry":{"type":"Point","coordinates":[-49.38,-25.35]}},{"type":"Feature","properties":{"id":"4101101","nome":"Andirá","uf":"PR"},"geometry":{"type":"Point","coordinates":[-48.96,-25.2]}},{"type":"Feature","properties":{"id":"4101150","nome":"Ângulo","uf":"PR"},"geometry":{"type":"Point","coordinates":[-48.54,-25.05]}},{"type":"Feature","properties":{"id":"4101200","nome":"Antonina","uf":"PR"},"geometry":{"type":"Point","coordinates":[-48.12,-24.9]}},{"type":"Feature","properties":{"id":"4101309","nome":"Antônio Olinto","uf":"PR"},"geometry":{"type":"Point","coordinates":[-53.7,-24.75]}},{"type":"Feature","properties":{"id":"4101408","nome":"Apucarana","uf":"PR"},"geometry":{"type":"Point","coordinates":[-53.28,-24.6]}},{"type":"Feature","properties":{"id":"4101507","nome":"Arapongas","uf":"PR"},"geometry":{"type":"Point","coordinates":[-52.86,-24.45]}},{"type":"Feature","properties":{"id":"4101606","nome":"Arapoti","uf":"PR"},"geometry":{"type":"Point","coordinates":[-52.44,-24.3]}},{"type":"Feature","properties":{"id":"4101655","nome":"Arapuã","uf":"PR"},"geometry":{"type":"Point","coordinates":[-52.02,-24.15]}},{"type":"Feature","properties":{"id":"4101705","nome":"Araruna","uf":"PR"},"geometry":{"type":"Point","coordinates":[-51.6,-24]}},{"type":"Feature","properties":{"id":"4101804","nome":"Araucária","uf":"PR"},"geometry":{"type":"Point","coordinates":[-51.18,-23.85]}},{"type":"Feature","properties":{"id":"4101853","nome":"Ariranha do Ivaí","uf":"PR"},"geometry":{"type":"Point","coordinates":[-50.76,-23.7]}},{"type":"Feature","properties":{"id":"4101903","nome":"Assaí","uf":"PR"},"geometry":{"type":"Point","coordinates":[-50.34,-23.55]}},{"type":"Feature","properties":{"id":"4102000","nome":"Assis Chateaubriand","uf":"PR"},"geometry":{"type":"Point","coordinates":[-49.92,-23.4]}},{"type":"Feature","properties":{"id":"4102109","nome":"Astorga","uf":"PR"},"geometry":{"type":"Point","coordinates":[-49.5,-23.25]}},{"type":"Feature","properties":{"id":"4102208","nome":"Atalaia","uf":"PR"},"geometry":{"type":"Point","coordinates":[-49.08,-23.1]}},{"type":"Feature","properties":{"id":"4102307","nome":"Balsa Nova","uf":"PR"},"geometry":{"type":"Point","coordinates":[-48.66,-22.95]}},{"type":"Feature","properties":{"id":"4102406","nome":"Bandeirantes","uf":"PR"},"geometry":{"type":"Point","coordinates":[-48.24,-22.8]}},{"type":"Feature","properties":{"id":"4102505","nome":"Barbosa Ferraz","uf":"PR"},"geometry":{"type":"Point","coordinates":[-53.82,-22.65]}},{"type":"Feature","properties":{"id":"4102604","nome":"Barracão","uf":"PR"},"geometry":{"type":"Point","coordinates":[-53.4,-22.5]}},{"type":"Feature","properties":{"id":"4102703","nome":"Barra do Jacaré","uf":"PR"},"geometry":{"type":"Point","coordinates":[-52.98,-22.35]}},{"type":"Feature","properties":{"id":"4102752","nome":"Bela Vista da Caroba","uf":"PR"},"geometry":{"type":"Point","coordinates":[-52.56,-22.2]}},{"type":"Feature","properties":{"id":"4102802","nome":"Bela Vista do Paraíso","uf":"PR"},"geometry":{"type":"Point","coordinates":[-52.14,-22.05]}},{"type":"Feature","properties":{"id":"4102901","nome":"Bituruna","uf":"PR"},"geometry":{"type":"Point","coordinates":[-51.72,-26.9]}},{"type":"Feature","properties":{"id":"4103008","nome":"Boa Esperança","uf":"PR"},"geometry":{"type":"Point","coordinates":[-51.3,-26.75]}},{"type":"Feature","properties":{"id":"4103024","nome":"Boa Esperança do Iguaçu","uf":"PR"},"geometry":{"type":"Point","coordinates":[-50.88,-26.6]}},{"type":"Feature","properties":{"id":"4103040","nome":"Boa Ventura de São Roque","uf":"PR"},"geometry":{"type":"Point","coordinates":[-50.46,-26.45]}},{"type":"Feature","properties":{"id":"4103057","nome":"Boa Vista da Aparecida","uf":"PR"},"geometry":{"type":"Point","coordinates":[-50.04,-26.3]}},{"type":"Feature","properties":{"id":"4103107","nome":"Bocaiúva do Sul","uf":"PR"},"geometry":{"type":"Point","coordinates":[-49.62,-26.15]}},{"type":"Feature","properties":{"id":"4103156","nome":"Bom Jesus do Sul","uf":"PR"},"geometry":{"type":"Point","coordinates":[-49.2,-26]}},{"type":"Feature","properties":{"id":"4103206","nome":"Bom Sucesso","uf":"PR"},"geometry":{"type":"Point","coordinates":[-48.78,-25.85]}},{"type":"Feature","properties":{"id":"4103222","nome":"Bom Sucesso do Sul","uf":"PR"},"geometry":{"type":"Point","coordinates":[-48.36,-25.7]}},{"type":"Feature","properties":{"id":"4103305","nome":"Borrazópolis","uf":"PR"},"geometry":{"type":"Point","coordinates":[-53.94,-25.55]}},{"type":"Feature","properties":{"id":"4103354","nome":"Braganey","uf":"PR"},"geometry":{"type":"Point","coordinates":[-53.52,-25.4]}},{"type":"Feature","properties":{"id":"4103370","nome":"Brasilândia do Sul","uf":"PR"},"geometry":{"type":"Point","coordinates":[-53.1,-25.25]}},{"type":"Feature","properties":{"id":"4103404","nome":"Cafeara","uf":"PR"},"geometry":{"type":"Point","coordinates":[-52.68,-25.1]}},{"type":"Feature","properties":{"id":"4103453","nome":"Cafelândia","uf":"PR"},"geometry":{"type":"Point","coordinates":[-52.26,-24.95]}},{"type":"Feature","properties":{"id":"4103479","nome":"Cafezal do Sul","uf":"PR"},"geometry":{"type":"Point","coordinates":[-51.84,-24.8]}},{"type":"Feature","properties":{"id":"4103503","nome":"Califórnia","uf":"PR"},"geometry":{"type":"Point","coordinates":[-51.42,-24.65]}},{"type":"Feature","properties":{"id":"4103602","nome":"Cambará","uf":"PR"},"geometry":{"type":"Point","coordinates":[-51,-24.5]}},{"type":"Feature","properties":{"id":"4103701","nome":"Cambé","uf":"PR"},"geometry":{"type":"Point","coordinates":[-50.58,-24.35]}},{"type":"Feature","properties":{"id":"4103800","nome":"Cambira","uf":"PR"},"geometry":{"type":"Point","coordinates":[-50.16,-24.2]}},{"type":"Feature","properties":{"id":"4103909","nome":"Campina da Lagoa","uf":"PR"},"geometry":{"type":"Point","coordinates":[-49.74,-24.05]}},{"type":"Feature","properties":{"id":"4103958","nome":"Campina do Simão","uf":"PR"},"geometry":{"type":"Point","coordinates":[-49.32,-23.9]}},{"type":"Feature","properties":{"id":"4104006","nome":"Campina Grande do Sul","uf":"PR"},"geometry":{"type":"Point","coordinates":[-48.9,-23.75]}},{"type":"Feature","properties":{"id":"4104055","nome":"Campo Bonito","uf":"PR"},"geometry":{"type":"Point","coordinates":[-48.480000000000004,-23.6]}},{"type":"Feature","properties":{"id":"4104105","nome":"Campo do Tenente","uf":"PR"},"geometry":{"type":"Point","coordinates":[-48.06,-23.45]}},{"type":"Feature","properties":{"id":"4104204","nome":"Campo Largo","uf":"PR"},"geometry":{"type":"Point","coordinates":[-53.64,-23.3]}},{"type":"Feature","properties":{"id":"4104253","nome":"Campo Magro","uf":"PR"},"geometry":{"type":"Point","coordinates":[-53.22,-23.15]}},{"type":"Feature","properties":{"id":"4104303","nome":"Campo Mourão","uf":"PR"},"geometry":{"type":"Point","coordinates":[-52.8,-23]}},{"type":"Feature","properties":{"id":"4104402","nome":"Cândido de Abreu","uf":"PR"},"geometry":{"type":"Point","coordinates":[-52.38,-22.85]}},{"type":"Feature","properties":{"id":"4104428","nome":"Candói","uf":"PR"},"geometry":{"type":"Point","coordinates":[-51.96,-22.7]}},{"type":"Feature","properties":{"id":"4104451","nome":"Cantagalo","uf":"PR"},"geometry":{"type":"Point","coordinates":[-51.54,-22.55]}},{"type":"Feature","properties":{"id":"4104501","nome":"Capanema","uf":"PR"},"geometry":{"type":"Point","coordinates":[-51.12,-22.4]}},{"type":"Feature","properties":{"id":"4104600","nome":"Capitão Leônidas Marques","uf":"PR"},"geometry":{"type":"Point","coordinates":[-50.7,-22.25]}},{"type":"Feature","properties":{"id":"4104659","nome":"Carambeí","uf":"PR"},"geometry":{"type":"Point","coordinates":[-50.28,-22.1]}},{"type":"Feature","properties":{"id":"4104709","nome":"Carlópolis","uf":"PR"},"geometry":{"type":"Point","coordinates":[-49.86,-26.95]}},{"type":"Feature","properties":{"id":"4104808","nome":"Cascavel","uf":"PR"},"geometry":{"type":"Point","coordinates":[-49.44,-26.8]}},{"type":"Feature","properties":{"id":"4104907","nome":"Castro","uf":"PR"},"geometry":{"type":"Point","coordinates":[-49.02,-26.65]}},{"type":"Feature","properties":{"id":"4105003","nome":"Catanduvas","uf":"PR"},"geometry":{"type":"Point","coordinates":[-48.6,-26.5]}},{"type":"Feature","properties":{"id":"4105102","nome":"Centenário do Sul","uf":"PR"},"geometry":{"type":"Point","coordinates":[-48.18,-26.35]}},{"type":"Feature","properties":{"id":"4105201","nome":"Cerro Azul","uf":"PR"},"geometry":{"type":"Point","coordinates":[-53.76,-26.2]}},{"type":"Feature","properties":{"id":"4105300","nome":"Céu Azul","uf":"PR"},"geometry":{"type":"Point","coordinates":[-53.34,-26.05]}},{"type":"Feature","properties":{"id":"4105409","nome":"Chopinzinho","uf":"PR"},"geometry":{"type":"Point","coordinates":[-52.92,-25.9]}},{"type":"Feature","properties":{"id":"4105508","nome":"Cianorte","uf":"PR"},"geometry":{"type":"Point","coordinates":[-52.5,-25.75]}},{"type":"Feature","properties":{"id":"4105607","nome":"Cidade Gaúcha","uf":"PR"},"geometry":{"type":"Point","coordinates":[-52.08,-25.6]}},{"type":"Feature","properties":{"id":"4105706","nome":"Clevelândia","uf":"PR"},"geometry":{"type":"Point","coordinates":[-51.66,-25.45]}},{"type":"Feature","properties":{"id":"4105805","nome":"Colombo","uf":"PR"},"geometry":{"type":"Point","coordinates":[-51.24,-25.3]}},{"type":"Feature","properties":{"id":"4105904","nome":"Colorado","uf":"PR"},"geometry":{"type":"Point","coordinates":[-50.82,-25.15]}},{"type":"Feature","properties":{"id":"4106001","nome":"Congonhinhas","uf":"PR"},"geometry":{"type":"Point","coordinates":[-50.4,-25]}},{"type":"Feature","properties":{"id":"4106100","nome":"Conselheiro Mairinck","uf":"PR"},"geometry":{"type":"Point","coordinates":[-49.980000000000004,-24.85]}},{"type":"Feature","properties":{"id":"4106209","nome":"Contenda","uf":"PR"},"geometry":{"type":"Point","coordinates":[-49.56,-24.7]}},{"type":"Feature","properties":{"id":"4106308","nome":"Corbélia","uf":"PR"},"geometry":{"type":"Point","coordinates":[-49.14,-24.55]}},{"type":"Feature","properties":{"id":"4106407","nome":"Cornélio Procópio","uf":"PR"},"geometry":{"type":"Point","coordinates":[-48.72,-24.4]}},{"type":"Feature","properties":{"id":"4106456","nome":"Coronel Domingos Soares","uf":"PR"},"geometry":{"type":"Point","coordinates":[-48.3,-24.25]}},{"type":"Feature","properties":{"id":"4106506","nome":"Coronel Vivida","uf":"PR"},"geometry":{"type":"Point","coordinates":[-53.88,-24.1]}},{"type":"Feature","properties":{"id":"4106555","nome":"Corumbataí do Sul","uf":"PR"},"geometry":{"type":"Point","coordinates":[-53.46,-23.95]}},{"type":"Feature","properties":{"id":"4106571","nome":"Cruzeiro do Iguaçu","uf":"PR"},"geometry":{"type":"Point","coordinates":[-53.04,-23.8]}},{"type":"Feature","properties":{"id":"4106605","nome":"Cruzeiro do Oeste","uf":"PR"},"geometry":{"type":"Point","coordinates":[-52.62,-23.65]}},{"type":"Feature","properties":{"id":"4106704","nome":"Cruzeiro do Sul","uf":"PR"},"geometry":{"type":"Point","coordinates":[-52.2,-23.5]}},{"type":"Feature","properties":{"id":"4106803","nome":"Cruz Machado","uf":"PR"},"geometry":{"type":"Point","coordinates":[-51.78,-23.35]}},{"type":"Feature","properties":{"id":"4106852","nome":"Cruzmaltina","uf":"PR"},"geometry":{"type":"Point","coordinates":[-51.36,-23.2]}},{"type":"Feature","properties":{"id":"4106902","nome":"Curitiba","uf":"PR"},"geometry":{"type":"Point","coordinates":[-50.94,-23.05]}},{"type":"Feature","properties":{"id":"4107009","nome":"Curiúva","uf":"PR"},"geometry":{"type":"Point","coordinates":[-50.52,-22.9]}},{"type":"Feature","properties":{"id":"4107108","nome":"Diamante do Norte","uf":"PR"},"geometry":{"type":"Point","coordinates":[-50.1,-22.75]}},{"type":"Feature","properties":{"id":"4107124","nome":"Diamante do Sul","uf":"PR"},"geometry":{"type":"Point","coordinates":[-49.68,-22.6]}},{"type":"Feature","properties":{"id":"4107157","nome":"Diamante D'Oeste","uf":"PR"},"geometry":{"type":"Point","coordinates":[-49.26,-22.45]}},{"type":"Feature","properties":{"id":"4107207","nome":"Dois Vizinhos","uf":"PR"},"geometry":{"type":"Point","coordinates":[-48.84,-22.3]}},{"type":"Feature","properties":{"id":"4107256","nome":"Douradina","uf":"PR"},"geometry":{"type":"Point","coordinates":[-48.42,-22.15]}},{"type":"Feature","properties":{"id":"4107306","nome":"Doutor Camargo","uf":"PR"},"geometry":{"type":"Point","coordinates":[-54,-27]}},{"type":"Feature","properties":{"id":"4107405","nome":"Enéas Marques","uf":"PR"},"geometry":{"type":"Point","coordinates":[-53.58,-26.85]}},{"type":"Feature","properties":{"id":"4107504","nome":"Engenheiro Beltrão","uf":"PR"},"geometry":{"type":"Point","coordinates":[-53.16,-26.7]}},{"type":"Feature","properties":{"id":"4107520","nome":"Esperança Nova","uf":"PR"},"geometry":{"type":"Point","coordinates":[-52.74,-26.55]}},{"type":"Feature","properties":{"id":"4107538","nome":"Entre Rios do Oeste","uf":"PR"},"geometry":{"type":"Point","coordinates":[-52.32,-26.4]}},{"type":"Feature","properties":{"id":"4107546","nome":"Espigão Alto do Iguaçu","uf":"PR"},"geometry":{"type":"Point","coordinates":[-51.9,-26.25]}},{"type":"Feature","properties":{"id":"4107553","nome":"Farol","uf":"PR"},"geometry":{"type":"Point","coordinates":[-51.48,-26.1]}},{"type":"Feature","properties":{"id":"4107603","nome":"Faxinal","uf":"PR"},"geometry":{"type":"Point","coordinates":[-51.06,-25.95]}},{"type":"Feature","properties":{"id":"4107652","nome":"Fazenda Rio Grande","uf":"PR"},"geometry":{"type":"Point","coordinates":[-50.64,-25.8]}},{"type":"Feature","properties":{"id":"4107702","nome":"Fênix","uf":"PR"},"geometry":{"type":"Point","coordinates":[-50.22,-25.65]}},{"type":"Feature","properties":{"id":"4107736","nome":"Fernandes Pinheiro","uf":"PR"},"geometry":{"type":"Point","coordinates":[-49.8,-25.5]}},{"type":"Feature","properties":{"id":"4107751","nome":"Figueira","uf":"PR"},"geometry":{"type":"Point","coordinates":[-49.38,-25.35]}},{"type":"Feature","properties":{"id":"4107801","nome":"Floraí","uf":"PR"},"geometry":{"type":"Point","coordinates":[-48.96,-25.2]}},{"type":"Feature","properties":{"id":"4107850","nome":"Flor da Serra do Sul","uf":"PR"},"geometry":{"type":"Point","coordinates":[-48.54,-25.05]}},{"type":"Feature","properties":{"id":"4107900","nome":"Floresta","uf":"PR"},"geometry":{"type":"Point","coordinates":[-48.12,-24.9]}},{"type":"Feature","properties":{"id":"4108007","nome":"Florestópolis","uf":"PR"},"geometry":{"type":"Point","coordinates":[-53.7,-24.75]}},{"type":"Feature","properties":{"id":"4108106","nome":"Flórida","uf":"PR"},"geometry":{"type":"Point","coordinates":[-53.28,-24.6]}},{"type":"Feature","properties":{"id":"4108205","nome":"Formosa do Oeste","uf":"PR"},"geometry":{"type":"Point","coordinates":[-52.86,-24.45]}},{"type":"Feature","properties":{"id":"4108304","nome":"Foz do Iguaçu","uf":"PR"},"geometry":{"type":"Point","coordinates":[-52.44,-24.3]}},{"type":"Feature","properties":{"id":"4108320","nome":"Francisco Alves","uf":"PR"},"geometry":{"type":"Point","coordinates":[-52.02,-24.15]}},{"type":"Feature","properties":{"id":"4108403","nome":"Francisco Beltrão","uf":"PR"},"geometry":{"type":"Point","coordinates":[-51.6,-24]}},{"type":"Feature","properties":{"id":"4108452","nome":"Foz do Jordão","uf":"PR"},"geometry":{"type":"Point","coordinates":[-51.18,-23.85]}},{"type":"Feature","properties":{"id":"4108502","nome":"General Carneiro","uf":"PR"},"geometry":{"type":"Point","coordinates":[-50.76,-23.7]}},{"type":"Feature","properties":{"id":"4108551","nome":"Godoy Moreira","uf":"PR"},"geometry":{"type":"Point","coordinates":[-50.34,-23.55]}},{"type":"Feature","properties":{"id":"4108601","nome":"Goioerê","uf":"PR"},"geometry":{"type":"Point","coordinates":[-49.92,-23.4]}},{"type":"Feature","properties":{"id":"4108650","nome":"Goioxim","uf":"PR"},"geometry":{"type":"Point","coordinates":[-49.5,-23.25]}},{"type":"Feature","properties":{"id":"4108700","nome":"Grandes Rios","uf":"PR"},"geometry":{"type":"Point","coordinates":[-49.08,-23.1]}},{"type":"Feature","properties":{"id":"4108809","nome":"Guaíra","uf":"PR"},"geometry":{"type":"Point","coordinates":[-48.66,-22.95]}},{"type":"Feature","properties":{"id":"4108908","nome":"Guairaçá","uf":"PR"},"geometry":{"type":"Point","coordinates":[-48.24,-22.8]}},{"type":"Feature","properties":{"id":"4108957","nome":"Guamiranga","uf":"PR"},"geometry":{"type":"Point","coordinates":[-53.82,-22.65]}},{"type":"Feature","properties":{"id":"4109005","nome":"Guapirama","uf":"PR"},"geometry":{"type":"Point","coordinates":[-53.4,-22.5]}},{"type":"Feature","properties":{"id":"4109104","nome":"Guaporema","uf":"PR"},"geometry":{"type":"Point","coordinates":[-52.98,-22.35]}},{"type":"Feature","properties":{"id":"4109203","nome":"Guaraci","uf":"PR"},"geometry":{"type":"Point","coordinates":[-52.56,-22.2]}},{"type":"Feature","properties":{"id":"4109302","nome":"Guaraniaçu","uf":"PR"},"geometry":{"type":"Point","coordinates":[-52.14,-22.05]}},{"type":"Feature","properties":{"id":"4109401","nome":"Guarapuava","uf":"PR"},"geometry":{"type":"Point","coordinates":[-51.72,-26.9]}},{"type":"Feature","properties":{"id":"4109500","nome":"Guaraqueçaba","uf":"PR"},"geometry":{"type":"Point","coordinates":[-51.3,-26.75]}},{"type":"Feature","properties":{"id":"4109609","nome":"Guaratuba","uf":"PR"},"geometry":{"type":"Point","coordinates":[-50.88,-26.6]}},{"type":"Feature","properties":{"id":"4109658","nome":"Honório Serpa","uf":"PR"},"geometry":{"type":"Point","coordinates":[-50.46,-26.45]}},{"type":"Feature","properties":{"id":"4109708","nome":"Ibaiti","uf":"PR"},"geometry":{"type":"Point","coordinates":[-50.04,-26.3]}},{"type":"Feature","properties":{"id":"4109757","nome":"Ibema","uf":"PR"},"geometry":{"type":"Point","coordinates":[-49.62,-26.15]}},{"type":"Feature","properties":{"id":"4109807","nome":"Ibiporã","uf":"PR"},"geometry":{"type":"Point","coordinates":[-49.2,-26]}},{"type":"Feature","properties":{"id":"4109906","nome":"Icaraíma","uf":"PR"},"geometry":{"type":"Point","coordinates":[-48.78,-25.85]}},{"type":"Feature","properties":{"id":"4110003","nome":"Iguaraçu","uf":"PR"},"geometry":{"type":"Point","coordinates":[-48.36,-25.7]}},{"type":"Feature","properties":{"id":"4110052","nome":"Iguatu","uf":"PR"},"geometry":{"type":"Point","coordinates":[-53.94,-25.55]}},{"type":"Feature","properties":{"id":"4110078","nome":"Imbaú","uf":"PR"},"geometry":{"type":"Point","coordinates":[-53.52,-25.4]}},{"type":"Feature","properties":{"id":"4110102","nome":"Imbituva","uf":"PR"},"geometry":{"type":"Point","coordinates":[-53.1,-25.25]}},{"type":"Feature","properties":{"id":"4110201","nome":"Inácio Martins","uf":"PR"},"geometry":{"type":"Point","coordinates":[-52.68,-25.1]}},{"type":"Feature","properties":{"id":"4110300","nome":"Inajá","uf":"PR"},"geometry":{"type":"Point","coordinates":[-52.26,-24.95]}},{"type":"Feature","properties":{"id":"4110409","nome":"Indianópolis","uf":"PR"},"geometry":{"type":"Point","coordinates":[-51.84,-24.8]}},{"type":"Feature","properties":{"id":"4110508","nome":"Ipiranga","uf":"PR"},"geometry":{"type":"Point","coordinates":[-51.42,-24.65]}},{"type":"Feature","properties":{"id":"4110607","nome":"Iporã","uf":"PR"},"geometry":{"type":"Point","coordinates":[-51,-24.5]}},{"type":"Feature","properties":{"id":"4110656","nome":"Iracema do Oeste","uf":"PR"},"geometry":{"type":"Point","coordinates":[-50.58,-24.35]}},{"type":"Feature","properties":{"id":"4110706","nome":"Irati","uf":"PR"},"geometry":{"type":"Point","coordinates":[-50.16,-24.2]}},{"type":"Feature","properties":{"id":"4110805","nome":"Iretama","uf":"PR"},"geometry":{"type":"Point","coordinates":[-49.74,-24.05]}},{"type":"Feature","properties":{"id":"4110904","nome":"Itaguajé","uf":"PR"},"geometry":{"type":"Point","coordinates":[-49.32,-23.9]}},{"type":"Feature","properties":{"id":"4110953","nome":"Itaipulândia","uf":"PR"},"geometry":{"type":"Point","coordinates":[-48.9,-23.75]}},{"type":"Feature","properties":{"id":"4111001","nome":"Itambaracá","uf":"PR"},"geometry":{"type":"Point","coordinates":[-48.480000000000004,-23.6]}},{"type":"Feature","properties":{"id":"4111100","nome":"Itambé","uf":"PR"},"geometry":{"type":"Point","coordinates":[-48.06,-23.45]}},{"type":"Feature","properties":{"id":"4111209","nome":"Itapejara d'Oeste","uf":"PR"},"geometry":{"type":"Point","coordinates":[-53.64,-23.3]}},{"type":"Feature","properties":{"id":"4111258","nome":"Itaperuçu","uf":"PR"},"geometry":{"type":"Point","coordinates":[-53.22,-23.15]}},{"type":"Feature","properties":{"id":"4111308","nome":"Itaúna do Sul","uf":"PR"},"geometry":{"type":"Point","coordinates":[-52.8,-23]}},{"type":"Feature","properties":{"id":"4111407","nome":"Ivaí","uf":"PR"},"geometry":{"type":"Point","coordinates":[-52.38,-22.85]}},{"type":"Feature","properties":{"id":"4111506","nome":"Ivaiporã","uf":"PR"},"geometry":{"type":"Point","coordinates":[-51.96,-22.7]}},{"type":"Feature","properties":{"id":"4111555","nome":"Ivaté","uf":"PR"},"geometry":{"type":"Point","coordinates":[-51.54,-22.55]}},{"type":"Feature","properties":{"id":"4111605","nome":"Ivatuba","uf":"PR"},"geometry":{"type":"Point","coordinates":[-51.12,-22.4]}},{"type":"Feature","properties":{"id":"4111704","nome":"Jaboti","uf":"PR"},"geometry":{"type":"Point","coordinates":[-50.7,-22.25]}},{"type":"Feature","properties":{"id":"4111803","nome":"Jacarezinho","uf":"PR"},"geometry":{"type":"Point","coordinates":[-50.28,-22.1]}},{"type":"Feature","properties":{"id":"4111902","nome":"Jaguapitã","uf":"PR"},"geometry":{"type":"Point","coordinates":[-49.86,-26.95]}},{"type":"Feature","properties":{"id":"4112009","nome":"Jaguariaíva","uf":"PR"},"geometry":{"type":"Point","coordinates":[-49.44,-26.8]}},{"type":"Feature","properties":{"id":"4112108","nome":"Jandaia do Sul","uf":"PR"},"geometry":{"type":"Point","coordinates":[-49.02,-26.65]}},{"type":"Feature","properties":{"id":"4112207","nome":"Janiópolis","uf":"PR"},"geometry":{"type":"Point","coordinates":[-48.6,-26.5]}},{"type":"Feature","properties":{"id":"4112306","nome":"Japira","uf":"PR"},"geometry":{"type":"Point","coordinates":[-48.18,-26.35]}},{"type":"Feature","properties":{"id":"4112405","nome":"Japurá","uf":"PR"},"geometry":{"type":"Point","coordinates":[-53.76,-26.2]}},{"type":"Feature","properties":{"id":"4112504","nome":"Jardim Alegre","uf":"PR"},"geometry":{"type":"Point","coordinates":[-53.34,-26.05]}},{"type":"Feature","properties":{"id":"4112603","nome":"Jardim Olinda","uf":"PR"},"geometry":{"type":"Point","coordinates":[-52.92,-25.9]}},{"type":"Feature","properties":{"id":"4112702","nome":"Jataizinho","uf":"PR"},"geometry":{"type":"Point","coordinates":[-52.5,-25.75]}},{"type":"Feature","properties":{"id":"4112751","nome":"Jesuítas","uf":"PR"},"geometry":{"type":"Point","coordinates":[-52.08,-25.6]}},{"type":"Feature","properties":{"id":"4112801","nome":"Joaquim Távora","uf":"PR"},"geometry":{"type":"Point","coordinates":[-51.66,-25.45]}},{"type":"Feature","properties":{"id":"4112900","nome":"Jundiaí do Sul","uf":"PR"},"geometry":{"type":"Point","coordinates":[-51.24,-25.3]}},{"type":"Feature","properties":{"id":"4112959","nome":"Juranda","uf":"PR"},"geometry":{"type":"Point","coordinates":[-50.82,-25.15]}},{"type":"Feature","properties":{"id":"4113007","nome":"Jussara","uf":"PR"},"geometry":{"type":"Point","coordinates":[-50.4,-25]}},{"type":"Feature","properties":{"id":"4113106","nome":"Kaloré","uf":"PR"},"geometry":{"type":"Point","coordinates":[-49.980000000000004,-24.85]}},{"type":"Feature","properties":{"id":"4113205","nome":"Lapa","uf":"PR"},"geometry":{"type":"Point","coordinates":[-49.56,-24.7]}},{"type":"Feature","properties":{"id":"4113254","nome":"Laranjal","uf":"PR"},"geometry":{"type":"Point","coordinates":[-49.14,-24.55]}},{"type":"Feature","properties":{"id":"4113304","nome":"Laranjeiras do Sul","uf":"PR"},"geometry":{"type":"Point","coordinates":[-48.72,-24.4]}},{"type":"Feature","properties":{"id":"4113403","nome":"Leópolis","uf":"PR"},"geometry":{"type":"Point","coordinates":[-48.3,-24.25]}},{"type":"Feature","properties":{"id":"4113429","nome":"Lidianópolis","uf":"PR"},"geometry":{"type":"Point","coordinates":[-53.88,-24.1]}},{"type":"Feature","properties":{"id":"4113452","nome":"Lindoeste","uf":"PR"},"geometry":{"type":"Point","coordinates":[-53.46,-23.95]}},{"type":"Feature","properties":{"id":"4113502","nome":"Loanda","uf":"PR"},"geometry":{"type":"Point","coordinates":[-53.04,-23.8]}},{"type":"Feature","properties":{"id":"4113601","nome":"Lobato","uf":"PR"},"geometry":{"type":"Point","coordinates":[-52.62,-23.65]}},{"type":"Feature","properties":{"id":"4113700","nome":"Londrina","uf":"PR"},"geometry":{"type":"Point","coordinates":[-52.2,-23.5]}},{"type":"Feature","properties":{"id":"4113734","nome":"Luiziana","uf":"PR"},"geometry":{"type":"Point","coordinates":[-51.78,-23.35]}},{"type":"Feature","properties":{"id":"4113759","nome":"Lunardelli","uf":"PR"},"geometry":{"type":"Point","coordinates":[-51.36,-23.2]}},{"type":"Feature","properties":{"id":"4113809","nome":"Lupionópolis","uf":"PR"},"geometry":{"type":"Point","coordinates":[-50.94,-23.05]}},{"type":"Feature","properties":{"id":"4113908","nome":"Mallet","uf":"PR"},"geometry":{"type":"Point","coordinates":[-50.52,-22.9]}},{"type":"Feature","properties":{"id":"4114005","nome":"Mamborê","uf":"PR"},"geometry":{"type":"Point","coordinates":[-50.1,-22.75]}},{"type":"Feature","properties":{"id":"4114104","nome":"Mandaguaçu","uf":"PR"},"geometry":{"type":"Point","coordinates":[-49.68,-22.6]}},{"type":"Feature","properties":{"id":"4114203","nome":"Mandaguari","uf":"PR"},"geometry":{"type":"Point","coordinates":[-49.26,-22.45]}},{"type":"Feature","properties":{"id":"4114302","nome":"Mandirituba","uf":"PR"},"geometry":{"type":"Point","coordinates":[-48.84,-22.3]}},{"type":"Feature","properties":{"id":"4114351","nome":"Manfrinópolis","uf":"PR"},"geometry":{"type":"Point","coordinates":[-48.42,-22.15]}},{"type":"Feature","properties":{"id":"4114401","nome":"Mangueirinha","uf":"PR"},"geometry":{"type":"Point","coordinates":[-54,-27]}},{"type":"Feature","properties":{"id":"4114500","nome":"Manoel Ribas","uf":"PR"},"geometry":{"type":"Point","coordinates":[-53.58,-26.85]}},{"type":"Feature","properties":{"id":"4114609","nome":"Marechal Cândido Rondon","uf":"PR"},"geometry":{"type":"Point","coordinates":[-53.16,-26.7]}},{"type":"Feature","properties":{"id":"4114708","nome":"Maria Helena","uf":"PR"},"geometry":{"type":"Point","coordinates":[-52.74,-26.55]}},{"type":"Feature","properties":{"id":"4114807","nome":"Marialva","uf":"PR"},"geometry":{"type":"Point","coordinates":[-52.32,-26.4]}},{"type":"Feature","properties":{"id":"4114906","nome":"Marilândia do Sul","uf":"PR"},"geometry":{"type":"Point","coordinates":[-51.9,-26.25]}},{"type":"Feature","properties":{"id":"4115002","nome":"Marilena","uf":"PR"},"geometry":{"type":"Point","coordinates":[-51.48,-26.1]}},{"type":"Feature","properties":{"id":"4115101","nome":"Mariluz","uf":"PR"},"geometry":{"type":"Point","coordinates":[-51.06,-25.95]}},{"type":"Feature","properties":{"id":"4115200","nome":"Maringá","uf":"PR"},"geometry":{"type":"Point","coordinates":[-50.64,-25.8]}},{"type":"Feature","properties":{"id":"4115309","nome":"Mariópolis","uf":"PR"},"geometry":{"type":"Point","coordinates":[-50.22,-25.65]}},{"type":"Feature","properties":{"id":"4115358","nome":"Maripá","uf":"PR"},"geometry":{"type":"Point","coordinates":[-49.8,-25.5]}},{"type":"Feature","properties":{"id":"4115408","nome":"Marmeleiro","uf":"PR"},"geometry":{"type":"Point","coordinates":[-49.38,-25.35]}},{"type":"Feature","properties":{"id":"4115457","nome":"Marquinho","uf":"PR"},"geometry":{"type":"Point","coordinates":[-48.96,-25.2]}},{"type":"Feature","properties":{"id":"4115507","nome":"Marumbi","uf":"PR"},"geometry":{"type":"Point","coordinates":[-48.54,-25.05]}},{"type":"Feature","properties":{"id":"4115606","nome":"Matelândia","uf":"PR"},"geometry":{"type":"Point","coordinates":[-48.12,-24.9]}},{"type":"Feature","properties":{"id":"4115705","nome":"Matinhos","uf":"PR"},"geometry":{"type":"Point","coordinates":[-53.7,-24.75]}},{"type":"Feature","properties":{"id":"4115739","nome":"Mato Rico","uf":"PR"},"geometry":{"type":"Point","coordinates":[-53.28,-24.6]}},{"type":"Feature","properties":{"id":"4115754","nome":"Mauá da Serra","uf":"PR"},"geometry":{"type":"Point","coordinates":[-52.86,-24.45]}},{"type":"Feature","properties":{"id":"4115804","nome":"Medianeira","uf":"PR"},"geometry":{"type":"Point","coordinates":[-52.44,-24.3]}},{"type":"Feature","properties":{"id":"4115853","nome":"Mercedes","uf":"PR"},"geometry":{"type":"Point","coordinates":[-52.02,-24.15]}},{"type":"Feature","properties":{"id":"4115903","nome":"Mirador","uf":"PR"},"geometry":{"type":"Point","coordinates":[-51.6,-24]}},{"type":"Feature","properties":{"id":"4116000","nome":"Miraselva","uf":"PR"},"geometry":{"type":"Point","coordinates":[-51.18,-23.85]}},{"type":"Feature","properties":{"id":"4116059","nome":"Missal","uf":"PR"},"geometry":{"type":"Point","coordinates":[-50.76,-23.7]}},{"type":"Feature","properties":{"id":"4116109","nome":"Moreira Sales","uf":"PR"},"geometry":{"type":"Point","coordinates":[-50.34,-23.55]}},{"type":"Feature","properties":{"id":"4116208","nome":"Morretes","uf":"PR"},"geometry":{"type":"Point","coordinates":[-49.92,-23.4]}},{"type":"Feature","properties":{"id":"4116307","nome":"Munhoz de Melo","uf":"PR"},"geometry":{"type":"Point","coordinates":[-49.5,-23.25]}},{"type":"Feature","properties":{"id":"4116406","nome":"Nossa Senhora das Graças","uf":"PR"},"geometry":{"type":"Point","coordinates":[-49.08,-23.1]}},{"type":"Feature","properties":{"id":"4116505","nome":"Nova Aliança do Ivaí","uf":"PR"},"geometry":{"type":"Point","coordinates":[-48.66,-22.95]}},{"type":"Feature","properties":{"id":"4116604","nome":"Nova América da Colina","uf":"PR"},"geometry":{"type":"Point","coordinates":[-48.24,-22.8]}},{"type":"Feature","properties":{"id":"4116703","nome":"Nova Aurora","uf":"PR"},"geometry":{"type":"Point","coordinates":[-53.82,-22.65]}},{"type":"Feature","properties":{"id":"4116802","nome":"Nova Cantu","uf":"PR"},"geometry":{"type":"Point","coordinates":[-53.4,-22.5]}},{"type":"Feature","properties":{"id":"4116901","nome":"Nova Esperança","uf":"PR"},"geometry":{"type":"Point","coordinates":[-52.98,-22.35]}},{"type":"Feature","properties":{"id":"4116950","nome":"Nova Esperança do Sudoeste","uf":"PR"},"geometry":{"type":"Point","coordinates":[-52.56,-22.2]}},{"type":"Feature","properties":{"id":"4117008","nome":"Nova Fátima","uf":"PR"},"geometry":{"type":"Point","coordinates":[-52.14,-22.05]}},{"type":"Feature","properties":{"id":"4117057","nome":"Nova Laranjeiras","uf":"PR"},"geometry":{"type":"Point","coordinates":[-51.72,-26.9]}},{"type":"Feature","properties":{"id":"4117107","nome":"Nova Londrina","uf":"PR"},"geometry":{"type":"Point","coordinates":[-51.3,-26.75]}},{"type":"Feature","properties":{"id":"4117206","nome":"Nova Olímpia","uf":"PR"},"geometry":{"type":"Point","coordinates":[-50.88,-26.6]}},{"type":"Feature","properties":{"id":"4117214","nome":"Nova Santa Bárbara","uf":"PR"},"geometry":{"type":"Point","coordinates":[-50.46,-26.45]}},{"type":"Feature","properties":{"id":"4117222","nome":"Nova Santa Rosa","uf":"PR"},"geometry":{"type":"Point","coordinates":[-50.04,-26.3]}},{"type":"Feature","properties":{"id":"4117255","nome":"Nova Prata do Iguaçu","uf":"PR"},"geometry":{"type":"Point","coordinates":[-49.62,-26.15]}},{"type":"Feature","properties":{"id":"4117271","nome":"Nova Tebas","uf":"PR"},"geometry":{"type":"Point","coordinates":[-49.2,-26]}},{"type":"Feature","properties":{"id":"4117297","nome":"Novo Itacolomi","uf":"PR"},"geometry":{"type":"Point","coordinates":[-48.78,-25.85]}},{"type":"Feature","properties":{"id":"4117305","nome":"Ortigueira","uf":"PR"},"geometry":{"type":"Point","coordinates":[-48.36,-25.7]}},{"type":"Feature","properties":{"id":"4117404","nome":"Ourizona","uf":"PR"},"geometry":{"type":"Point","coordinates":[-53.94,-25.55]}},{"type":"Feature","properties":{"id":"4117453","nome":"Ouro Verde do Oeste","uf":"PR"},"geometry":{"type":"Point","coordinates":[-53.52,-25.4]}},{"type":"Feature","properties":{"id":"4117503","nome":"Paiçandu","uf":"PR"},"geometry":{"type":"Point","coordinates":[-53.1,-25.25]}},{"type":"Feature","properties":{"id":"4117602","nome":"Palmas","uf":"PR"},"geometry":{"type":"Point","coordinates":[-52.68,-25.1]}},{"type":"Feature","properties":{"id":"4117701","nome":"Palmeira","uf":"PR"},"geometry":{"type":"Point","coordinates":[-52.26,-24.95]}},{"type":"Feature","properties":{"id":"4117800","nome":"Palmital","uf":"PR"},"geometry":{"type":"Point","coordinates":[-51.84,-24.8]}},{"type":"Feature","properties":{"id":"4117909","nome":"Palotina","uf":"PR"},"geometry":{"type":"Point","coordinates":[-51.42,-24.65]}},{"type":"Feature","properties":{"id":"4118006","nome":"Paraíso do Norte","uf":"PR"},"geometry":{"type":"Point","coordinates":[-51,-24.5]}},{"type":"Feature","properties":{"id":"4118105","nome":"Paranacity","uf":"PR"},"geometry":{"type":"Point","coordinates":[-50.58,-24.35]}},{"type":"Feature","properties":{"id":"4118204","nome":"Paranaguá","uf":"PR"},"geometry":{"type":"Point","coordinates":[-50.16,-24.2]}},{"type":"Feature","properties":{"id":"4118303","nome":"Paranapoema","uf":"PR"},"geometry":{"type":"Point","coordinates":[-49.74,-24.05]}},{"type":"Feature","properties":{"id":"4118402","nome":"Paranavaí","uf":"PR"},"geometry":{"type":"Point","coordinates":[-49.32,-23.9]}},{"type":"Feature","properties":{"id":"4118451","nome":"Pato Bragado","uf":"PR"},"geometry":{"type":"Point","coordinates":[-48.9,-23.75]}},{"type":"Feature","properties":{"id":"4118501","nome":"Pato Branco","uf":"PR"},"geometry":{"type":"Point","coordinates":[-48.480000000000004,-23.6]}},{"type":"Feature","properties":{"id":"4118600","nome":"Paula Freitas","uf":"PR"},"geometry":{"type":"Point","coordinates":[-48.06,-23.45]}},{"type":"Feature","properties":{"id":"4118709","nome":"Paulo Frontin","uf":"PR"},"geometry":{"type":"Point","coordinates":[-53.64,-23.3]}},{"type":"Feature","properties":{"id":"4118808","nome":"Peabiru","uf":"PR"},"geometry":{"type":"Point","coordinates":[-53.22,-23.15]}},{"type":"Feature","properties":{"id":"4118857","nome":"Perobal","uf":"PR"},"geometry":{"type":"Point","coordinates":[-52.8,-23]}},{"type":"Feature","properties":{"id":"4118907","nome":"Pérola","uf":"PR"},"geometry":{"type":"Point","coordinates":[-52.38,-22.85]}},{"type":"Feature","properties":{"id":"4119004","nome":"Pérola d'Oeste","uf":"PR"},"geometry":{"type":"Point","coordinates":[-51.96,-22.7]}},{"type":"Feature","properties":{"id":"4119103","nome":"Piên","uf":"PR"},"geometry":{"type":"Point","coordinates":[-51.54,-22.55]}},{"type":"Feature","properties":{"id":"4119152","nome":"Pinhais","uf":"PR"},"geometry":{"type":"Point","coordinates":[-51.12,-22.4]}},{"type":"Feature","properties":{"id":"4119202","nome":"Pinhalão","uf":"PR"},"geometry":{"type":"Point","coordinates":[-50.7,-22.25]}},{"type":"Feature","properties":{"id":"4119251","nome":"Pinhal de São Bento","uf":"PR"},"geometry":{"type":"Point","coordinates":[-50.28,-22.1]}},{"type":"Feature","properties":{"id":"4119301","nome":"Pinhão","uf":"PR"},"geometry":{"type":"Point","coordinates":[-49.86,-26.95]}},{"type":"Feature","properties":{"id":"4119400","nome":"Piraí do Sul","uf":"PR"},"geometry":{"type":"Point","coordinates":[-49.44,-26.8]}},{"type":"Feature","properties":{"id":"4119509","nome":"Piraquara","uf":"PR"},"geometry":{"type":"Point","coordinates":[-49.02,-26.65]}},{"type":"Feature","properties":{"id":"4119608","nome":"Pitanga","uf":"PR"},"geometry":{"type":"Point","coordinates":[-48.6,-26.5]}},{"type":"Feature","properties":{"id":"4119657","nome":"Pitangueiras","uf":"PR"},"geometry":{"type":"Point","coordinates":[-48.18,-26.35]}},{"type":"Feature","properties":{"id":"4119707","nome":"Planaltina do Paraná","uf":"PR"},"geometry":{"type":"Point","coordinates":[-53.76,-26.2]}},{"type":"Feature","properties":{"id":"4119806","nome":"Planalto","uf":"PR"},"geometry":{"type":"Point","coordinates":[-53.34,-26.05]}},{"type":"Feature","properties":{"id":"4119905","nome":"Ponta Grossa","uf":"PR"},"geometry":{"type":"Point","coordinates":[-52.92,-25.9]}},{"type":"Feature","properties":{"id":"4119954","nome":"Pontal do Paraná","uf":"PR"},"geometry":{"type":"Point","coordinates":[-52.5,-25.75]}},{"type":"Feature","properties":{"id":"4120002","nome":"Porecatu","uf":"PR"},"geometry":{"type":"Point","coordinates":[-52.08,-25.6]}},{"type":"Feature","properties":{"id":"4120101","nome":"Porto Amazonas","uf":"PR"},"geometry":{"type":"Point","coordinates":[-51.66,-25.45]}},{"type":"Feature","properties":{"id":"4120150","nome":"Porto Barreiro","uf":"PR"},"geometry":{"type":"Point","coordinates":[-51.24,-25.3]}},{"type":"Feature","properties":{"id":"4120200","nome":"Porto Rico","uf":"PR"},"geometry":{"type":"Point","coordinates":[-50.82,-25.15]}},{"type":"Feature","properties":{"id":"4120309","nome":"Porto Vitória","uf":"PR"},"geometry":{"type":"Point","coordinates":[-50.4,-25]}},{"type":"Feature","properties":{"id":"4120333","nome":"Prado Ferreira","uf":"PR"},"geometry":{"type":"Point","coordinates":[-49.980000000000004,-24.85]}},{"type":"Feature","properties":{"id":"4120358","nome":"Pranchita","uf":"PR"},"geometry":{"type":"Point","coordinates":[-49.56,-24.7]}},{"type":"Feature","properties":{"id":"4120408","nome":"Presidente Castelo Branco","uf":"PR"},"geometry":{"type":"Point","coordinates":[-49.14,-24.55]}},{"type":"Feature","properties":{"id":"4120507","nome":"Primeiro de Maio","uf":"PR"},"geometry":{"type":"Point","coordinates":[-48.72,-24.4]}},{"type":"Feature","properties":{"id":"4120606","nome":"Prudentópolis","uf":"PR"},"geometry":{"type":"Point","coordinates":[-48.3,-24.25]}},{"type":"Feature","properties":{"id":"4120655","nome":"Quarto Centenário","uf":"PR"},"geometry":{"type":"Point","coordinates":[-53.88,-24.1]}},{"type":"Feature","properties":{"id":"4120705","nome":"Quatiguá","uf":"PR"},"geometry":{"type":"Point","coordinates":[-53.46,-23.95]}},{"type":"Feature","properties":{"id":"4120804","nome":"Quatro Barras","uf":"PR"},"geometry":{"type":"Point","coordinates":[-53.04,-23.8]}},{"type":"Feature","properties":{"id":"4120853","nome":"Quatro Pontes","uf":"PR"},"geometry":{"type":"Point","coordinates":[-52.62,-23.65]}},{"type":"Feature","properties":{"id":"4120903","nome":"Quedas do Iguaçu","uf":"PR"},"geometry":{"type":"Point","coordinates":[-52.2,-23.5]}},{"type":"Feature","properties":{"id":"4121000","nome":"Querência do Norte","uf":"PR"},"geometry":{"type":"Point","coordinates":[-51.78,-23.35]}},{"type":"Feature","properties":{"id":"4121109","nome":"Quinta do Sol","uf":"PR"},"geometry":{"type":"Point","coordinates":[-51.36,-23.2]}},{"type":"Feature","properties":{"id":"4121208","nome":"Quitandinha","uf":"PR"},"geometry":{"type":"Point","coordinates":[-50.94,-23.05]}},{"type":"Feature","properties":{"id":"4121257","nome":"Ramilândia","uf":"PR"},"geometry":{"type":"Point","coordinates":[-50.52,-22.9]}},{"type":"Feature","properties":{"id":"4121307","nome":"Rancho Alegre","uf":"PR"},"geometry":{"type":"Point","coordinates":[-50.1,-22.75]}},{"type":"Feature","properties":{"id":"4121356","nome":"Rancho Alegre D'Oeste","uf":"PR"},"geometry":{"type":"Point","coordinates":[-49.68,-22.6]}},{"type":"Feature","properties":{"id":"4121406","nome":"Realeza","uf":"PR"},"geometry":{"type":"Point","coordinates":[-49.26,-22.45]}},{"type":"Feature","properties":{"id":"4121505","nome":"Rebouças","uf":"PR"},"geometry":{"type":"Point","coordinates":[-48.84,-22.3]}},{"type":"Feature","properties":{"id":"4121604","nome":"Renascença","uf":"PR"},"geometry":{"type":"Point","coordinates":[-48.42,-22.15]}},{"type":"Feature","properties":{"id":"4121703","nome":"Reserva","uf":"PR"},"geometry":{"type":"Point","coordinates":[-54,-27]}},{"type":"Feature","properties":{"id":"4121752","nome":"Reserva do Iguaçu","uf":"PR"},"geometry":{"type":"Point","coordinates":[-53.58,-26.85]}},{"type":"Feature","properties":{"id":"4121802","nome":"Ribeirão Claro","uf":"PR"},"geometry":{"type":"Point","coordinates":[-53.16,-26.7]}},{"type":"Feature","properties":{"id":"4121901","nome":"Ribeirão do Pinhal","uf":"PR"},"geometry":{"type":"Point","coordinates":[-52.74,-26.55]}},{"type":"Feature","properties":{"id":"4122008","nome":"Rio Azul","uf":"PR"},"geometry":{"type":"Point","coordinates":[-52.32,-26.4]}},{"type":"Feature","properties":{"id":"4122107","nome":"Rio Bom","uf":"PR"},"geometry":{"type":"Point","coordinates":[-51.9,-26.25]}},{"type":"Feature","properties":{"id":"4122156","nome":"Rio Bonito do Iguaçu","uf":"PR"},"geometry":{"type":"Point","coordinates":[-51.48,-26.1]}},{"type":"Feature","properties":{"id":"4122172","nome":"Rio Branco do Ivaí","uf":"PR"},"geometry":{"type":"Point","coordinates":[-51.06,-25.95]}},{"type":"Feature","properties":{"id":"4122206","nome":"Rio Branco do Sul","uf":"PR"},"geometry":{"type":"Point","coordinates":[-50.64,-25.8]}},{"type":"Feature","properties":{"id":"4122305","nome":"Rio Negro","uf":"PR"},"geometry":{"type":"Point","coordinates":[-50.22,-25.65]}},{"type":"Feature","properties":{"id":"4122404","nome":"Rolândia","uf":"PR"},"geometry":{"type":"Point","coordinates":[-49.8,-25.5]}},{"type":"Feature","properties":{"id":"4122503","nome":"Roncador","uf":"PR"},"geometry":{"type":"Point","coordinates":[-49.38,-25.35]}},{"type":"Feature","properties":{"id":"4122602","nome":"Rondon","uf":"PR"},"geometry":{"type":"Point","coordinates":[-48.96,-25.2]}},{"type":"Feature","properties":{"id":"4122651","nome":"Rosário do Ivaí","uf":"PR"},"geometry":{"type":"Point","coordinates":[-48.54,-25.05]}},{"type":"Feature","properties":{"id":"4122701","nome":"Sabáudia","uf":"PR"},"geometry":{"type":"Point","coordinates":[-48.12,-24.9]}},{"type":"Feature","properties":{"id":"4122800","nome":"Salgado Filho","uf":"PR"},"geometry":{"type":"Point","coordinates":[-53.7,-24.75]}},{"type":"Feature","properties":{"id":"4122909","nome":"Salto do Itararé","uf":"PR"},"geometry":{"type":"Point","coordinates":[-53.28,-24.6]}},{"type":"Feature","properties":{"id":"4123006","nome":"Salto do Lontra","uf":"PR"},"geometry":{"type":"Point","coordinates":[-52.86,-24.45]}},{"type":"Feature","properties":{"id":"4123105","nome":"Santa Amélia","uf":"PR"},"geometry":{"type":"Point","coordinates":[-52.44,-24.3]}},{"type":"Feature","properties":{"id":"4123204","nome":"Santa Cecília do Pavão","uf":"PR"},"geometry":{"type":"Point","coordinates":[-52.02,-24.15]}},{"type":"Feature","properties":{"id":"4123303","nome":"Santa Cruz de Monte Castelo","uf":"PR"},"geometry":{"type":"Point","coordinates":[-51.6,-24]}},{"type":"Feature","properties":{"id":"4123402","nome":"Santa Fé","uf":"PR"},"geometry":{"type":"Point","coordinates":[-51.18,-23.85]}},{"type":"Feature","properties":{"id":"4123501","nome":"Santa Helena","uf":"PR"},"geometry":{"type":"Point","coordinates":[-50.76,-23.7]}},{"type":"Feature","properties":{"id":"4123600","nome":"Santa Inês","uf":"PR"},"geometry":{"type":"Point","coordinates":[-50.34,-23.55]}},{"type":"Feature","properties":{"id":"4123709","nome":"Santa Isabel do Ivaí","uf":"PR"},"geometry":{"type":"Point","coordinates":[-49.92,-23.4]}},{"type":"Feature","properties":{"id":"4123808","nome":"Santa Izabel do Oeste","uf":"PR"},"geometry":{"type":"Point","coordinates":[-49.5,-23.25]}},{"type":"Feature","properties":{"id":"4123824","nome":"Santa Lúcia","uf":"PR"},"geometry":{"type":"Point","coordinates":[-49.08,-23.1]}},{"type":"Feature","properties":{"id":"4123857","nome":"Santa Maria do Oeste","uf":"PR"},"geometry":{"type":"Point","coordinates":[-48.66,-22.95]}},{"type":"Feature","properties":{"id":"4123907","nome":"Santa Mariana","uf":"PR"},"geometry":{"type":"Point","coordinates":[-48.24,-22.8]}},{"type":"Feature","properties":{"id":"4123956","nome":"Santa Mônica","uf":"PR"},"geometry":{"type":"Point","coordinates":[-53.82,-22.65]}},{"type":"Feature","properties":{"id":"4124004","nome":"Santana do Itararé","uf":"PR"},"geometry":{"type":"Point","coordinates":[-53.4,-22.5]}},{"type":"Feature","properties":{"id":"4124020","nome":"Santa Tereza do Oeste","uf":"PR"},"geometry":{"type":"Point","coordinates":[-52.98,-22.35]}},{"type":"Feature","properties":{"id":"4124053","nome":"Santa Terezinha de Itaipu","uf":"PR"},"geometry":{"type":"Point","coordinates":[-52.56,-22.2]}},{"type":"Feature","properties":{"id":"4124103","nome":"Santo Antônio da Platina","uf":"PR"},"geometry":{"type":"Point","coordinates":[-52.14,-22.05]}},{"type":"Feature","properties":{"id":"4124202","nome":"Santo Antônio do Caiuá","uf":"PR"},"geometry":{"type":"Point","coordinates":[-51.72,-26.9]}},{"type":"Feature","properties":{"id":"4124301","nome":"Santo Antônio do Paraíso","uf":"PR"},"geometry":{"type":"Point","coordinates":[-51.3,-26.75]}},{"type":"Feature","properties":{"id":"4124400","nome":"Santo Antônio do Sudoeste","uf":"PR"},"geometry":{"type":"Point","coordinates":[-50.88,-26.6]}},{"type":"Feature","properties":{"id":"4124509","nome":"Santo Inácio","uf":"PR"},"geometry":{"type":"Point","coordinates":[-50.46,-26.45]}},{"type":"Feature","properties":{"id":"4124608","nome":"São Carlos do Ivaí","uf":"PR"},"geometry":{"type":"Point","coordinates":[-50.04,-26.3]}},{"type":"Feature","properties":{"id":"4124707","nome":"São Jerônimo da Serra","uf":"PR"},"geometry":{"type":"Point","coordinates":[-49.62,-26.15]}},{"type":"Feature","properties":{"id":"4124806","nome":"São João","uf":"PR"},"geometry":{"type":"Point","coordinates":[-49.2,-26]}},{"type":"Feature","properties":{"id":"4124905","nome":"São João do Caiuá","uf":"PR"},"geometry":{"type":"Point","coordinates":[-48.78,-25.85]}},{"type":"Feature","properties":{"id":"4125001","nome":"São João do Ivaí","uf":"PR"},"geometry":{"type":"Point","coordinates":[-48.36,-25.7]}},{"type":"Feature","properties":{"id":"4125100","nome":"São João do Triunfo","uf":"PR"},"geometry":{"type":"Point","coordinates":[-53.94,-25.55]}},{"type":"Feature","properties":{"id":"4125209","nome":"São Jorge d'Oeste","uf":"PR"},"geometry":{"type":"Point","coordinates":[-53.52,-25.4]}},{"type":"Feature","properties":{"id":"4125308","nome":"São Jorge do Ivaí","uf":"PR"},"geometry":{"type":"Point","coordinates":[-53.1,-25.25]}},{"type":"Feature","properties":{"id":"4125357","nome":"São Jorge do Patrocínio","uf":"PR"},"geometry":{"type":"Point","coordinates":[-52.68,-25.1]}},{"type":"Feature","properties":{"id":"4125407","nome":"São José da Boa Vista","uf":"PR"},"geometry":{"type":"Point","coordinates":[-52.26,-24.95]}},{"type":"Feature","properties":{"id":"4125456","nome":"São José das Palmeiras","uf":"PR"},"geometry":{"type":"Point","coordinates":[-51.84,-24.8]}},{"type":"Feature","properties":{"id":"4125506","nome":"São José dos Pinhais","uf":"PR"},"geometry":{"type":"Point","coordinates":[-51.42,-24.65]}},{"type":"Feature","properties":{"id":"4125555","nome":"São Manoel do Paraná","uf":"PR"},"geometry":{"type":"Point","coordinates":[-51,-24.5]}},{"type":"Feature","properties":{"id":"4125605","nome":"São Mateus do Sul","uf":"PR"},"geometry":{"type":"Point","coordinates":[-50.58,-24.35]}},{"type":"Feature","properties":{"id":"4125704","nome":"São Miguel do Iguaçu","uf":"PR"},"geometry":{"type":"Point","coordinates":[-50.16,-24.2]}},{"type":"Feature","properties":{"id":"4125753","nome":"São Pedro do Iguaçu","uf":"PR"},"geometry":{"type":"Point","coordinates":[-49.74,-24.05]}},{"type":"Feature","properties":{"id":"4125803","nome":"São Pedro do Ivaí","uf":"PR"},"geometry":{"type":"Point","coordinates":[-49.32,-23.9]}},{"type":"Feature","properties":{"id":"4125902","nome":"São Pedro do Paraná","uf":"PR"},"geometry":{"type":"Point","coordinates":[-48.9,-23.75]}},{"type":"Feature","properties":{"id":"4126009","nome":"São Sebastião da Amoreira","uf":"PR"},"geometry":{"type":"Point","coordinates":[-48.480000000000004,-23.6]}},{"type":"Feature","properties":{"id":"4126108","nome":"São Tomé","uf":"PR"},"geometry":{"type":"Point","coordinates":[-48.06,-23.45]}},{"type":"Feature","properties":{"id":"4126207","nome":"Sapopema","uf":"PR"},"geometry":{"type":"Point","coordinates":[-53.64,-23.3]}},{"type":"Feature","properties":{"id":"4126256","nome":"Sarandi","uf":"PR"},"geometry":{"type":"Point","coordinates":[-53.22,-23.15]}},{"type":"Feature","properties":{"id":"4126272","nome":"Saudade do Iguaçu","uf":"PR"},"geometry":{"type":"Point","coordinates":[-52.8,-23]}},{"type":"Feature","properties":{"id":"4126306","nome":"Sengés","uf":"PR"},"geometry":{"type":"Point","coordinates":[-52.38,-22.85]}},{"type":"Feature","properties":{"id":"4126355","nome":"Serranópolis do Iguaçu","uf":"PR"},"geometry":{"type":"Point","coordinates":[-51.96,-22.7]}},{"type":"Feature","properties":{"id":"4126405","nome":"Sertaneja","uf":"PR"},"geometry":{"type":"Point","coordinates":[-51.54,-22.55]}},{"type":"Feature","properties":{"id":"4126504","nome":"Sertanópolis","uf":"PR"},"geometry":{"type":"Point","coordinates":[-51.12,-22.4]}},{"type":"Feature","properties":{"id":"4126603","nome":"Siqueira Campos","uf":"PR"},"geometry":{"type":"Point","coordinates":[-50.7,-22.25]}},{"type":"Feature","properties":{"id":"4126652","nome":"Sulina","uf":"PR"},"geometry":{"type":"Point","coordinates":[-50.28,-22.1]}},{"type":"Feature","properties":{"id":"4126678","nome":"Tamarana","uf":"PR"},"geometry":{"type":"Point","coordinates":[-49.86,-26.95]}},{"type":"Feature","properties":{"id":"4126702","nome":"Tamboara","uf":"PR"},"geometry":{"type":"Point","coordinates":[-49.44,-26.8]}},{"type":"Feature","properties":{"id":"4126801","nome":"Tapejara","uf":"PR"},"geometry":{"type":"Point","coordinates":[-49.02,-26.65]}},{"type":"Feature","properties":{"id":"4126900","nome":"Tapira","uf":"PR"},"geometry":{"type":"Point","coordinates":[-48.6,-26.5]}},{"type":"Feature","properties":{"id":"4127007","nome":"Teixeira Soares","uf":"PR"},"geometry":{"type":"Point","coordinates":[-48.18,-26.35]}},{"type":"Feature","properties":{"id":"4127106","nome":"Telêmaco Borba","uf":"PR"},"geometry":{"type":"Point","coordinates":[-53.76,-26.2]}},{"type":"Feature","properties":{"id":"4127205","nome":"Terra Boa","uf":"PR"},"geometry":{"type":"Point","coordinates":[-53.34,-26.05]}},{"type":"Feature","properties":{"id":"4127304","nome":"Terra Rica","uf":"PR"},"geometry":{"type":"Point","coordinates":[-52.92,-25.9]}},{"type":"Feature","properties":{"id":"4127403","nome":"Terra Roxa","uf":"PR"},"geometry":{"type":"Point","coordinates":[-52.5,-25.75]}},{"type":"Feature","properties":{"id":"4127502","nome":"Tibagi","uf":"PR"},"geometry":{"type":"Point","coordinates":[-52.08,-25.6]}},{"type":"Feature","properties":{"id":"4127601","nome":"Tijucas do Sul","uf":"PR"},"geometry":{"type":"Point","coordinates":[-51.66,-25.45]}},{"type":"Feature","properties":{"id":"4127700","nome":"Toledo","uf":"PR"},"geometry":{"type":"Point","coordinates":[-51.24,-25.3]}},{"type":"Feature","properties":{"id":"4127809","nome":"Tomazina","uf":"PR"},"geometry":{"type":"Point","coordinates":[-50.82,-25.15]}},{"type":"Feature","properties":{"id":"4127858","nome":"Três Barras do Paraná","uf":"PR"},"geometry":{"type":"Point","coordinates":[-50.4,-25]}},{"type":"Feature","properties":{"id":"4127882","nome":"Tunas do Paraná","uf":"PR"},"geometry":{"type":"Point","coordinates":[-49.980000000000004,-24.85]}},{"type":"Feature","properties":{"id":"4127908","nome":"Tuneiras do Oeste","uf":"PR"},"geometry":{"type":"Point","coordinates":[-49.56,-24.7]}},{"type":"Feature","properties":{"id":"4127957","nome":"Tupãssi","uf":"PR"},"geometry":{"type":"Point","coordinates":[-49.14,-24.55]}},{"type":"Feature","properties":{"id":"4127965","nome":"Turvo","uf":"PR"},"geometry":{"type":"Point","coordinates":[-48.72,-24.4]}},{"type":"Feature","properties":{"id":"4128005","nome":"Ubiratã","uf":"PR"},"geometry":{"type":"Point","coordinates":[-48.3,-24.25]}},{"type":"Feature","properties":{"id":"4128104","nome":"Umuarama","uf":"PR"},"geometry":{"type":"Point","coordinates":[-53.88,-24.1]}},{"type":"Feature","properties":{"id":"4128203","nome":"União da Vitória","uf":"PR"},"geometry":{"type":"Point","coordinates":[-53.46,-23.95]}},{"type":"Feature","properties":{"id":"4128302","nome":"Uniflor","uf":"PR"},"geometry":{"type":"Point","coordinates":[-53.04,-23.8]}},{"type":"Feature","properties":{"id":"4128401","nome":"Uraí","uf":"PR"},"geometry":{"type":"Point","coordinates":[-52.62,-23.65]}},{"type":"Feature","properties":{"id":"4128500","nome":"Wenceslau Braz","uf":"PR"},"geometry":{"type":"Point","coordinates":[-52.2,-23.5]}},{"type":"Feature","properties":{"id":"4128534","nome":"Ventania","uf":"PR"},"geometry":{"type":"Point","coordinates":[-51.78,-23.35]}},{"type":"Feature","properties":{"id":"4128559","nome":"Vera Cruz do Oeste","uf":"PR"},"geometry":{"type":"Point","coordinates":[-51.36,-23.2]}},{"type":"Feature","properties":{"id":"4128609","nome":"Verê","uf":"PR"},"geometry":{"type":"Point","coordinates":[-50.94,-23.05]}},{"type":"Feature","properties":{"id":"4128625","nome":"Alto Paraíso","uf":"PR"},"geometry":{"type":"Point","coordinates":[-50.52,-22.9]}},{"type":"Feature","properties":{"id":"4128633","nome":"Doutor Ulysses","uf":"PR"},"geometry":{"type":"Point","coordinates":[-50.1,-22.75]}},{"type":"Feature","properties":{"id":"4128658","nome":"Virmond","uf":"PR"},"geometry":{"type":"Point","coordinates":[-49.68,-22.6]}},{"type":"Feature","properties":{"id":"4128708","nome":"Vitorino","uf":"PR"},"geometry":{"type":"Point","coordinates":[-49.26,-22.45]}},{"type":"Feature","properties":{"id":"4128807","nome":"Xambrê","uf":"PR"},"geometry":{"type":"Point","coordinates":[-48.84,-22.3]}}]}