{"type":"FeatureCollection","features":[{"type":"Feature","properties":{"id":"5000203","nome":"Água Clara","uf":"MS"},"geometry":{"type":"Point","coordinates":[-58,-24]}},{"type":"Feature","properties":{"id":"5000252","nome":"Alcinópolis","uf":"MS"},"geometry":{"type":"Point","coordinates":[-57.44,-23.79]}},{"type":"Feature","properties":{"id":"5000609","nome":"Amambai","uf":"MS"},"geometry":{"type":"Point","coordinates":[-56.88,-23.58]}},{"type":"Feature","properties":{"id":"5000708","nome":"Anastácio","uf":"MS"},"geometry":{"type":"Point","coordinates":[-56.32,-23.37]}},{"type":"Feature","properties":{"id":"5000807","nome":"Anaurilândia","uf":"MS"},"geometry":{"type":"Point","coordinates":[-55.76,-23.16]}},{"type":"Feature","properties":{"id":"5000856","nome":"Angélica","uf":"MS"},"geometry":{"type":"Point","coordinates":[-55.2,-22.95]}},{"type":"Feature","properties":{"id":"5000906","nome":"Antônio João","uf":"MS"},"geometry":{"type":"Point","coordinates":[-54.64,-22.74]}},{"type":"Feature","properties":{"id":"5001003","nome":"Aparecida do Taboado","uf":"MS"},"geometry":{"type":"Point","coordinates":[-54.08,-22.53]}},{"type":"Feature","properties":{"id":"5001102","nome":"Aquidauana","uf":"MS"},"geometry":{"type":"Point","coordinates":[-53.519999999999996,-22.32]}},{"type":"Feature","properties":{"id":"5001243","nome":"Aral Moreira","uf":"MS"},"geometry":{"type":"Point","coordinates":[-52.96,-22.11]}},{"type":"Feature","properties":{"id":"5001508","nome":"Bandeirantes","uf":"MS"},"geometry":{"type":"Point","coordinates":[-52.4,-21.9]}},{"type":"Feature","properties":{"id":"5001904","nome":"Bataguassu","uf":"MS"},"geometry":{"type":"Point","coordinates":[-51.84,-21.69]}},{"type":"Feature","properties":{"id":"5002001","nome":"Batayporã","uf":"MS"},"geometry":{"type":"Point","coordinates":[-51.28,-21.48]}},{"type":"Feature","properties":{"id":"5002100","nome":"Bela Vista","uf":"MS"},"geometry":{"type":"Point","coordinates":[-50.72,-21.27]}},{"type":"Feature","properties":{"id":"5002159","nome":"Bodoquena","uf":"MS"},"geometry":{"type":"Point","coordinates":[-50.16,-21.06]}},{"type":"Feature","properties":{"id":"5002209","nome":"Bonito","uf":"MS"},"geometry":{"type":"Point","coordinates":[-57.6,-20.85]}},{"type":"Feature","properties":{"id":"5002308","nome":"Brasilândia","uf":"MS"},"geometry":{"type":"Point","coordinates":[-57.04,-20.64]}},{"type":"Feature","properties":{"id":"5002407","nome":"Caarapó","uf":"MS"},"geometry":{"type":"Point","coordinates":[-56.48,-20.43]}},{"type":"Feature","properties":{"id":"5002605","nome":"Camapuã","uf":"MS"},"geometry":{"type":"Point","coordinates":[-55.92,-20.22]}},{"type":"Feature","properties":{"id":"5002704","nome":"Campo Grande","uf":"MS"},"geometry":{"type":"Point","coordinates":[-55.36,-20.009999999999998]}},{"type":"Feature","properties":{"id":"5002803","nome":"Caracol","uf":"MS"},"geometry":{"type":"Point","coordinates":[-54.8,-19.8]}},{"type":"Feature","properties":{"id":"5002902","nome":"Cassilândia","uf":"MS"},"geometry":{"type":"Point","coordinates":[-54.24,-19.59]}},{"type":"Feature","properties":{"id":"5002951","nome":"Chapadão do Sul","uf":"MS"},"geometry":{"type":"Point","coordinates":[-53.68,-19.38]}},{"type":"Feature","properties":{"id":"5003108","nome":"Corguinho","uf":"MS"},"geometry":{"type":"Point","coordinates":[-53.12,-19.17]}},{"type":"Feature","properties":{"id":"5003157","nome":"Coronel Sapucaia","uf":"MS"},"geometry":{"type":"Point","coordinates":[-52.56,-18.96]}},{"type":"Feature","properties":{"id":"5003207","nome":"Corumbá","uf":"MS"},"geometry":{"type":"Point","coordinates":[-52,-18.75]}},{"type":"Feature","properties":{"id":"5003256","nome":"Costa Rica","uf":"MS"},"geometry":{"type":"Point","coordinates":[-51.44,-18.54]}},{"type":"Feature","properties":{"id":"5003306","nome":"Coxim","uf":"MS"},"geometry":{"type":"Point","coordinates":[-50.88,-18.33]}},{"type":"Feature","properties":{"id":"5003454","nome":"Deodápolis","uf":"MS"},"geometry":{"type":"Point","coordinates":[-50.32,-18.119999999999997]}},{"type":"Feature","properties":{"id":"5003488","nome":"Dois Irmãos do Buriti","uf":"MS"},"geometry":{"type":"Point","coordinates":[-57.76,-17.91]}},{"type":"Feature","properties":{"id":"5003504","nome":"Douradina","uf":"MS"},"geometry":{"type":"Point","coordinates":[-57.2,-17.7]}},{"type":"Feature","properties":{"id":"5003702","nome":"Dourados","uf":"MS"},"geometry":{"type":"Point","coordinates":[-56.64,-17.49]}},{"type":"Feature","properties":{"id":"5003751","nome":"Eldorado","uf":"MS"},"geometry":{"type":"Point","coordinates":[-56.08,-17.28]}},{"type":"Feature","properties":{"id":"5003801","nome":"Fátima do Sul","uf":"MS"},"geometry":{"type":"Point","coordinates":[-55.52,-17.07]}},{"type":"Feature","properties":{"id":"5003900","nome":"Figueirão","uf":"MS"},"geometry":{"type":"Point","coordinates":[-54.96,-23.86]}},{"type":"Feature","properties":{"id":"5004007","nome":"Glória de Dourados","uf":"MS"},"geometry":{"type":"Point","coordinates":[-54.4,-23.65]}},{"type":"Feature","properties":{"id":"5004106","nome":"Guia Lopes da Laguna","uf":"MS"},"geometry":{"type":"Point","coordinates":[-53.84,-23.44]}},{"type":"Feature","properties":{"id":"5004304","nome":"Iguatemi","uf":"MS"},"geometry":{"type":"Point","coordinates":[-53.28,-23.23]}},{"type":"Feature","properties":{"id":"5004403","nome":"Inocência","uf":"MS"},"geometry":{"type":"Point","coordinates":[-52.72,-23.02]}},{"type":"Feature","properties":{"id":"5004502","nome":"Itaporã","uf":"MS"},"geometry":{"type":"Point","coordinates":[-52.16,-22.81]}},{"type":"Feature","properties":{"id":"5004601","nome":"Itaquiraí","uf":"MS"},"geometry":{"type":"Point","coordinates":[-51.6,-22.6]}},{"type":"Feature","properties":{"id":"5004700","nome":"Ivinhema","uf":"MS"},"geometry":{"type":"Point","coordinates":[-51.04,-22.39]}},{"type":"Feature","properties":{"id":"5004809","nome":"Japorã","uf":"MS"},"geometry":{"type":"Point","coordinates":[-50.48,-22.18]}},{"type":"Feature","properties":{"id":"5004908","nome":"Jaraguari","uf":"MS"},"geometry":{"type":"Point","coordinates":[-57.92,-21.97]}},{"type":"Feature","properties":{"id":"5005004","nome":"Jardim","uf":"MS"},"geometry":{"type":"Point","coordinates":[-57.36,-21.759999999999998]}},{"type":"Feature","properties":{"id":"5005103","nome":"Jateí","uf":"MS"},"geometry":{"type":"Point","coordinates":[-56.8,-21.55]}},{"type":"Feature","properties":{"id":"5005152","nome":"Juti","uf":"MS"},"geometry":{"type":"Point","coordinates":[-56.24,-21.34]}},{"type":"Feature","properties":{"id":"5005202","nome":"Ladário","uf":"MS"},"geometry":{"type":"Point","coordinates":[-55.68,-21.13]}},{"type":"Feature","properties":{"id":"5005251","nome":"Laguna Carapã","uf":"MS"},"geometry":{"type":"Point","coordinates":[-55.12,-20.92]}},{"type":"Feature","properties":{"id":"5005400","nome":"Maracaju","uf":"MS"},"geometry":{"type":"Point","coordinates":[-54.56,-20.71]}},{"type":"Feature","properties":{"id":"5005608","nome":"Miranda","uf":"MS"},"geometry":{"type":"Point","coordinates":[-54,-20.5]}},{"type":"Feature","properties":{"id":"5005681","nome":"Mundo Novo","uf":"MS"},"geometry":{"type":"Point","coordinates":[-53.44,-20.29]}},{"type":"Feature","properties":{"id":"5005707","nome":"Naviraí","uf":"MS"},"geometry":{"type":"Point","coordinates":[-52.88,-20.08]}},{"type":"Feature","properties":{"id":"5005806","nome":"Nioaque","uf":"MS"},"geometry":{"type":"Point","coordinates":[-52.32,-19.869999999999997]}},{"type":"Feature","properties":{"id":"5006002","nome":"Nova Alvorada do Sul","uf":"MS"},"geometry":{"type":"Point","coordinates":[-51.76,-19.66]}},{"type":"Feature","properties":{"id":"5006200","nome":"Nova Andradina","uf":"MS"},"geometry":{"type":"Point","coordinates":[-51.2,-19.45]}},{"type":"Feature","properties":{"id":"5006259","nome":"Novo Horizonte do Sul","uf":"MS"},"geometry":{"type":"Point","coordinates":[-50.64,-19.24]}},{"type":"Feature","properties":{"id":"5006275","nome":"Paraíso das Águas","uf":"MS"},"geometry":{"type":"Point","coordinates":[-50.08,-19.03]}},{"type":"Feature","properties":{"id":"5006309","nome":"Paranaíba","uf":"MS"},"geometry":{"type":"Point","coordinates":[-57.52,-18.82]}},{"type":"Feature","properties":{"id":"5006358","nome":"Paranhos","uf":"MS"},"geometry":{"type":"Point","coordinates":[-56.96,-18.61]}},{"type":"Feature","properties":{"id":"5006408","nome":"Pedro Gomes","uf":"MS"},"geometry":{"type":"Point","coordinates":[-56.4,-18.4]}},{"type":"Feature","properties":{"id":"5006606","nome":"Ponta Porã","uf":"MS"},"geometry":{"type":"Point","coordinates":[-55.84,-18.189999999999998]}},{"type":"Feature","properties":{"id":"5006903","nome":"Porto Murtinho","uf":"MS"},"geometry":{"type":"Point","coordinates":[-55.28,-17.98]}},{"type":"Feature","properties":{"id":"5007109","nome":"Ribas do Rio Pardo","uf":"MS"},"geometry":{"type":"Point","coordinates":[-54.72,-17.77]}},{"type":"Feature","properties":{"id":"5007208","nome":"Rio Brilhante","uf":"MS"},"geometry":{"type":"Point","coordinates":[-54.16,-17.56]}},{"type":"Feature","properties":{"id":"5007307","nome":"Rio Negro","uf":"MS"},"geometry":{"type":"Point","coordinates":[-53.6,-17.35]}},{"type":"Feature","properties":{"id":"5007406","nome":"Rio Verde de Mato Grosso","uf":"MS"},"geometry":{"type":"Point","coordinates":[-53.04,-17.14]}},{"type":"Feature","properties":{"id":"5007505","nome":"Rochedo","uf":"MS"},"geometry":{"type":"Point","coordinates":[-52.48,-23.93]}},{"type":"Feature","properties":{"id":"5007554","nome":"Santa Rita do Pardo","uf":"MS"},"geometry":{"type":"Point","coordinates":[-51.92,-23.72]}},{"type":"Feature","properties":{"id":"5007695","nome":"São Gabriel do Oeste","uf":"MS"},"geometry":{"type":"Point","coordinates":[-51.36,-23.51]}},{"type":"Feature","properties":{"id":"5007703","nome":"Sete Quedas","uf":"MS"},"geometry":{"type":"Point","coordinates":[-50.8,-23.3]}},{"type":"Feature","properties":{"id":"5007802","nome":"Selvíria","uf":"MS"},"geometry":{"type":"Point","coordinates":[-50.24,-23.09]}},{"type":"Feature","properties":{"id":"5007901","nome":"Sidrolândia","uf":"MS"},"geometry":{"type":"Point","coordinates":[-57.68,-22.88]}},{"type":"Feature","properties":{"id":"5007935","nome":"Sonora","uf":"MS"},"geometry":{"type":"Point","coordinates":[-57.12,-22.67]}},{"type":"Feature","properties":{"id":"5007950","nome":"Tacuru","uf":"MS"},"geometry":{"type":"Point","coordinates":[-56.56,-22.46]}},{"type":"Feature","properties":{"id":"5007976","nome":"Taquarussu","uf":"MS"},"geometry":{"type":"Point","coordinates":[-56,-22.25]}},{"type":"Feature","properties":{"id":"5008008","nome":"Terenos","uf":"MS"},"geometry":{"type":"Point","coordinates":[-55.44,-22.04]}},{"type":"Feature","properties":{"id":"5008305","nome":"Três Lagoas","uf":"MS"},"geometry":{"type":"Point","coordinates":[-54.88,-21.83]}},{"type":"Feature","properties":{"id":"5008404","nome":"Vicentina","uf":"MS"},"geometry":{"type":"Point","coordinates":[-54.32,-21.62]}}]}