{"type":"FeatureCollection","features":[{"type":"Feature","properties":{"id":"5100102","nome":"Acorizal","uf":"MT"},"geometry":{"type":"Point","coordinates":[-61,-18]}},{"type":"Feature","properties":{"id":"5100201","nome":"Água Boa","uf":"MT"},"geometry":{"type":"Point","coordinates":[-60.23,-17.67]}},{"type":"Feature","properties":{"id":"5100250","nome":"Alta Floresta","uf":"MT"},"geometry":{"type":"Point","coordinates":[-59.46,-17.34]}},{"type":"Feature","properties":{"id":"5100300","nome":"Alto Araguaia","uf":"MT"},"geometry":{"type":"Point","coordinates":[-58.69,-17.01]}},{"type":"Feature","properties":{"id":"5100359","nome":"Alto Boa Vista","uf":"MT"},"geometry":{"type":"Point","coordinates":[-57.92,-16.68]}},{"type":"Feature","properties":{"id":"5100409","nome":"Alto Garças","uf":"MT"},"geometry":{"type":"Point","coordinates":[-57.15,-16.35]}},{"type":"Feature","properties":{"id":"5100508","nome":"Alto Paraguai","uf":"MT"},"geometry":{"type":"Point","coordinates":[-56.38,-16.02]}},{"type":"Feature","properties":{"id":"5100607","nome":"Alto Taquari","uf":"MT"},"geometry":{"type":"Point","coordinates":[-55.61,-15.69]}},{"type":"Feature","properties":{"id":"5100805","nome":"Apiacás","uf":"MT"},"geometry":{"type":"Point","coordinates":[-54.84,-15.36]}},{"type":"Feature","properties":{"id":"5101001","nome":"Araguaiana","uf":"MT"},"geometry":{"type":"Point","coordinates":[-54.07,-15.03]}},{"type":"Feature","properties":{"id":"5101209","nome":"Araguainha","uf":"MT"},"geometry":{"type":"Point","coordinates":[-53.3,-14.7]}},{"type":"Feature","properties":{"id":"5101258","nome":"Araputanga","uf":"MT"},"geometry":{"type":"Point","coordinates":[-52.53,-14.370000000000001]}},{"type":"Feature","properties":{"id":"5101308","nome":"Arenápolis","uf":"MT"},"geometry":{"type":"Point","coordinates":[-51.76,-14.04]}},{"type":"Feature","properties":{"id":"5101407","nome":"Aripuanã","uf":"MT"},"geometry":{"type":"Point","coordinates":[-50.99,-13.71]}},{"type":"Feature","properties":{"id":"5101605","nome":"Barão de Melgaço","uf":"MT"},"geometry":{"type":"Point","coordinates":[-50.22,-13.379999999999999]}},{"type":"Feature","properties":{"id":"5101704","nome":"Barra do Bugres","uf":"MT"},"geometry":{"type":"Point","coordinates":[-60.45,-13.05]}},{"type":"Feature","properties":{"id":"5101803","nome":"Barra do Garças","uf":"MT"},"geometry":{"type":"Point","coordinates":[-59.68,-12.719999999999999]}},{"type":"Feature","properties":{"id":"5101837","nome":"Boa Esperança do Norte","uf":"MT"},"geometry":{"type":"Point","coordinates":[-58.91,-12.39]}},{"type":"Feature","properties":{"id":"5101852","nome":"Bom Jesus do Araguaia","uf":"MT"},"geometry":{"type":"Point","coordinates":[-58.14,-12.059999999999999]}},{"type":"Feature","properties":{"id":"5101902","nome":"Brasnorte","uf":"MT"},"geometry":{"type":"Point","coordinates":[-57.37,-11.73]}},{"type":"Feature","properties":{"id":"5102504","nome":"Cáceres","uf":"MT"},"geometry":{"type":"Point","coordinates":[-56.6,-11.4]}},{"type":"Feature","properties":{"id":"5102603","nome":"Campinápolis","uf":"MT"},"geometry":{"type":"Point","coordinates":[-55.83,-11.07]}},{"type":"Feature","properties":{"id":"5102637","nome":"Campo Novo do Parecis","uf":"MT"},"geometry":{"type":"Point","coordinates":[-55.06,-10.74]}},{"type":"Feature","properties":{"id":"5102678","nome":"Campo Verde","uf":"MT"},"geometry":{"type":"Point","coordinates":[-54.29,-10.41]}},{"type":"Feature","properties":{"id":"5102686","nome":"Campos de Júlio","uf":"MT"},"geometry":{"type":"Point","coordinates":[-53.519999999999996,-10.08]}},{"type":"Feature","properties":{"id":"5102694","nome":"Canabrava do Norte","uf":"MT"},"geometry":{"type":"Point","coordinates":[-52.75,-9.75]}},{"type":"Feature","properties":{"id":"5102702","nome":"Canarana","uf":"MT"},"geometry":{"type":"Point","coordinates":[-51.980000000000004,-9.42]}},{"type":"Feature","properties":{"id":"5102793","nome":"Carlinda","uf":"MT"},"geometry":{"type":"Point","coordinates":[-51.21,-9.09]}},{"type":"Feature","properties":{"id":"5102850","nome":"Castanheira","uf":"MT"},"geometry":{"type":"Point","coordinates":[-50.44,-8.76]}},{"type":"Feature","properties":{"id":"5103007","nome":"Chapada dos Guimarães","uf":"MT"},"geometry":{"type":"Point","coordinates":[-60.67,-8.43]}},{"type":"Feature","properties":{"id":"5103056","nome":"Cláudia","uf":"MT"},"geometry":{"type":"Point","coordinates":[-59.9,-8.1]}},{"type":"Feature","properties":{"id":"5103106","nome":"Cocalinho","uf":"MT"},"geometry":{"type":"Point","coordinates":[-59.13,-7.77]}},{"type":"Feature","properties":{"id":"5103205","nome":"Colíder","uf":"MT"},"geometry":{"type":"Point","coordinates":[-58.36,-7.4399999999999995]}},{"type":"Feature","properties":{"id":"5103254","nome":"Colniza","uf":"MT"},"geometry":{"type":"Point","coordinates":[-57.59,-7.109999999999999]}},{"type":"Feature","properties":{"id":"5103304","nome":"Comodoro","uf":"MT"},"geometry":{"type":"Point","coordinates":[-56.82,-17.78]}},{"type":"Feature","properties":{"id":"5103353","nome":"Confresa","uf":"MT"},"geometry":{"type":"Point","coordinates":[-56.05,-17.45]}},{"type":"Feature","properties":{"id":"5103361","nome":"Conquista D'Oeste","uf":"MT"},"geometry":{"type":"Point","coordinates":[-55.28,-17.12]}},{"type":"Feature","properties":{"id":"5103379","nome":"Cotriguaçu","uf":"MT"},"geometry":{"type":"Point","coordinates":[-54.51,-16.79]}},{"type":"Feature","properties":{"id":"5103403","nome":"Cuiabá","uf":"MT"},"geometry":{"type":"Point","coordinates":[-53.74,-16.46]}},{"type":"Feature","properties":{"id":"5103437","nome":"Curvelândia","uf":"MT"},"geometry":{"type":"Point","coordinates":[-52.97,-16.13]}},{"type":"Feature","properties":{"id":"5103452","nome":"Denise","uf":"MT"},"geometry":{"type":"Point","coordinates":[-52.2,-15.8]}},{"type":"Feature","properties":{"id":"5103502","nome":"Diamantino","uf":"MT"},"geometry":{"type":"Point","coordinates":[-51.43,-15.47]}},{"type":"Feature","properties":{"id":"5103601","nome":"Dom Aquino","uf":"MT"},"geometry":{"type":"Point","coordinates":[-50.66,-15.14]}},{"type":"Feature","properties":{"id":"5103700","nome":"Feliz Natal","uf":"MT"},"geometry":{"type":"Point","coordinates":[-60.89,-14.81]}},{"type":"Feature","properties":{"id":"5103809","nome":"Figueirópolis D'Oeste","uf":"MT"},"geometry":{"type":"Point","coordinates":[-60.12,-14.48]}},{"type":"Feature","properties":{"id":"5103858","nome":"Gaúcha do Norte","uf":"MT"},"geometry":{"type":"Point","coordinates":[-59.35,-14.15]}},{"type":"Feature","properties":{"id":"5103908","nome":"General Carneiro","uf":"MT"},"geometry":{"type":"Point","coordinates":[-58.58,-13.82]}},{"type":"Feature","properties":{"id":"5103957","nome":"Glória D'Oeste","uf":"MT"},"geometry":{"type":"Point","coordinates":[-57.81,-13.49]}},{"type":"Feature","properties":{"id":"5104104","nome":"Guarantã do Norte","uf":"MT"},"geometry":{"type":"Point","coordinates":[-57.04,-13.16]}},{"type":"Feature","properties":{"id":"5104203","nome":"Guiratinga","uf":"MT"},"geometry":{"type":"Point","coordinates":[-56.269999999999996,-12.83]}},{"type":"Feature","properties":{"id":"5104500","nome":"Indiavaí","uf":"MT"},"geometry":{"type":"Point","coordinates":[-55.5,-12.5]}},{"type":"Feature","properties":{"id":"5104526","nome":"Ipiranga do Norte","uf":"MT"},"geometry":{"type":"Point","coordinates":[-54.73,-12.17]}},{"type":"Feature","properties":{"id":"5104542","nome":"Itanhangá","uf":"MT"},"geometry":{"type":"Point","coordinates":[-53.96,-11.84]}},{"type":"Feature","properties":{"id":"5104559","nome":"Itaúba","uf":"MT"},"geometry":{"type":"Point","coordinates":[-53.19,-11.51]}},{"type":"Feature","properties":{"id":"5104609","nome":"Itiquira","uf":"MT"},"geometry":{"type":"Point","coordinates":[-52.42,-11.18]}},{"type":"Feature","properties":{"id":"5104807","nome":"Jaciara","uf":"MT"},"geometry":{"type":"Point","coordinates":[-51.65,-10.85]}},{"type":"Feature","properties":{"id":"5104906","nome":"Jangada","uf":"MT"},"geometry":{"type":"Point","coordinates":[-50.88,-10.52]}},{"type":"Feature","properties":{"id":"5105002","nome":"Jauru","uf":"MT"},"geometry":{"type":"Point","coordinates":[-50.11,-10.190000000000001]}},{"type":"Feature","properties":{"id":"5105101","nome":"Juara","uf":"MT"},"geometry":{"type":"Point","coordinates":[-60.34,-9.86]}},{"type":"Feature","properties":{"id":"5105150","nome":"Juína","uf":"MT"},"geometry":{"type":"Point","coordinates":[-59.57,-9.53]}},{"type":"Feature","properties":{"id":"5105176","nome":"Juruena","uf":"MT"},"geometry":{"type":"Point","coordinates":[-58.8,-9.2]}},{"type":"Feature","properties":{"id":"5105200","nome":"Juscimeira","uf":"MT"},"geometry":{"type":"Point","coordinates":[-58.03,-8.87]}},{"type":"Feature","properties":{"id":"5105234","nome":"Lambari D'Oeste","uf":"MT"},"geometry":{"type":"Point","coordinates":[-57.26,-8.54]}},{"type":"Feature","properties":{"id":"5105259","nome":"Lucas do Rio Verde","uf":"MT"},"geometry":{"type":"Point","coordinates":[-56.49,-8.209999999999999]}},{"type":"Feature","properties":{"id":"5105309","nome":"Luciara","uf":"MT"},"geometry":{"type":"Point","coordinates":[-55.72,-7.880000000000001]}},{"type":"Feature","properties":{"id":"5105507","nome":"Vila Bela da Santíssima Trindade","uf":"MT"},"geometry":{"type":"Point","coordinates":[-54.95,-7.550000000000001]}},{"type":"Feature","properties":{"id":"5105580","nome":"Marcelândia","uf":"MT"},"geometry":{"type":"Point","coordinates":[-54.18,-7.220000000000001]}},{"type":"Feature","properties":{"id":"5105606","nome":"Matupá","uf":"MT"},"geometry":{"type":"Point","coordinates":[-53.41,-17.89]}},{"type":"Feature","properties":{"id":"5105622","nome":"Mirassol d'Oeste","uf":"MT"},"geometry":{"type":"Point","coordinates":[-52.64,-17.56]}},{"type":"Feature","properties":{"id":"5105903","nome":"Nobres","uf":"MT"},"geometry":{"type":"Point","coordinates":[-51.87,-17.23]}},{"type":"Feature","properties":{"id":"5106000","nome":"Nortelândia","uf":"MT"},"geometry":{"type":"Point","coordinates":[-51.1,-16.9]}},{"type":"Feature","properties":{"id":"5106109","nome":"Nossa Senhora do Livramento","uf":"MT"},"geometry":{"type":"Point","coordinates":[-50.33,-16.57]}},{"type":"Feature","properties":{"id":"5106158","nome":"Nova Bandeirantes","uf":"MT"},"geometry":{"type":"Point","coordinates":[-60.56,-16.24]}},{"type":"Feature","properties":{"id":"5106174","nome":"Nova Nazaré","uf":"MT"},"geometry":{"type":"Point","coordinates":[-59.79,-15.91]}},{"type":"Feature","properties":{"id":"5106182","nome":"Nova Lacerda","uf":"MT"},"geometry":{"type":"Point","coordinates":[-59.02,-15.58]}},{"type":"Feature","properties":{"id":"5106190","nome":"Nova Santa Helena","uf":"MT"},"geometry":{"type":"Point","coordinates":[-58.25,-15.25]}},{"type":"Feature","properties":{"id":"5106208","nome":"Nova Brasilândia","uf":"MT"},"geometry":{"type":"Point","coordinates":[-57.48,-14.92]}},{"type":"Feature","properties":{"id":"5106216","nome":"Nova Canaã do Norte","uf":"MT"},"geometry":{"type":"Point","coordinates":[-56.71,-14.59]}},{"type":"Feature","properties":{"id":"5106224","nome":"Nova Mutum","uf":"MT"},"geometry":{"type":"Point","coordinates":[-55.94,-14.26]}},{"type":"Feature","properties":{"id":"5106232","nome":"Nova Olímpia","uf":"MT"},"geometry":{"type":"Point","coordinates":[-55.17,-13.93]}},{"type":"Feature","properties":{"id":"5106240","nome":"Nova Ubiratã","uf":"MT"},"geometry":{"type":"Point","coordinates":[-54.4,-13.6]}},{"type":"Feature","properties":{"id":"5106257","nome":"Nova Xavantina","uf":"MT"},"geometry":{"type":"Point","coordinates":[-53.63,-13.27]}},{"type":"Feature","properties":{"id":"5106265","nome":"Novo Mundo","uf":"MT"},"geometry":{"type":"Point","coordinates":[-52.86,-12.940000000000001]}},{"type":"Feature","properties":{"id":"5106273","nome":"Novo Horizonte do Norte","uf":"MT"},"geometry":{"type":"Point","coordinates":[-52.09,-12.61]}},{"type":"Feature","properties":{"id":"5106281","nome":"Novo São Joaquim","uf":"MT"},"geometry":{"type":"Point","coordinates":[-51.32,-12.280000000000001]}},{"type":"Feature","properties":{"id":"5106299","nome":"Paranaíta","uf":"MT"},"geometry":{"type":"Point","coordinates":[-50.55,-11.95]}},{"type":"Feature","properties":{"id":"5106307","nome":"Paranatinga","uf":"MT"},"geometry":{"type":"Point","coordinates":[-60.78,-11.620000000000001]}},{"type":"Feature","properties":{"id":"5106315","nome":"Novo Santo Antônio","uf":"MT"},"geometry":{"type":"Point","coordinates":[-60.01,-11.29]}},{"type":"Feature","properties":{"id":"5106372","nome":"Pedra Preta","uf":"MT"},"geometry":{"type":"Point","coordinates":[-59.24,-10.96]}},{"type":"Feature","properties":{"id":"5106422","nome":"Peixoto de Azevedo","uf":"MT"},"geometry":{"type":"Point","coordinates":[-58.47,-10.629999999999999]}},{"type":"Feature","properties":{"id":"5106455","nome":"Planalto da Serra","uf":"MT"},"geometry":{"type":"Point","coordinates":[-57.7,-10.3]}},{"type":"Feature","properties":{"id":"5106505","nome":"Poconé","uf":"MT"},"geometry":{"type":"Point","coordinates":[-56.93,-9.97]}},{"type":"Feature","properties":{"id":"5106653","nome":"Pontal do Araguaia","uf":"MT"},"geometry":{"type":"Point","coordinates":[-56.16,-9.64]}},{"type":"Feature","properties":{"id":"5106703","nome":"Ponte Branca","uf":"MT"},"geometry":{"type":"Point","coordinates":[-55.39,-9.31]}},{"type":"Feature","properties":{"id":"5106752","nome":"Pontes e Lacerda","uf":"MT"},"geometry":{"type":"Point","coordinates":[-54.62,-8.98]}},{"type":"Feature","properties":{"id":"5106778","nome":"Porto Alegre do Norte","uf":"MT"},"geometry":{"type":"Point","coordinates":[-53.85,-8.65]}},{"type":"Feature","properties":{"id":"5106802","nome":"Porto dos Gaúchos","uf":"MT"},"geometry":{"type":"Point","coordinates":[-53.08,-8.32]}},{"type":"Feature","properties":{"id":"5106828","nome":"Porto Esperidião","uf":"MT"},"geometry":{"type":"Point","coordinates":[-52.31,-7.99]}},{"type":"Feature","properties":{"id":"5106851","nome":"Porto Estrela","uf":"MT"},"geometry":{"type":"Point","coordinates":[-51.54,-7.66]}},{"type":"Feature","properties":{"id":"5107008","nome":"Poxoréu","uf":"MT"},"geometry":{"type":"Point","coordinates":[-50.769999999999996,-7.33]}},{"type":"Feature","properties":{"id":"5107040","nome":"Primavera do Leste","uf":"MT"},"geometry":{"type":"Point","coordinates":[-61,-18]}},{"type":"Feature","properties":{"id":"5107065","nome":"Querência","uf":"MT"},"geometry":{"type":"Point","coordinates":[-60.23,-17.67]}},{"type":"Feature","properties":{"id":"5107107","nome":"São José dos Quatro Marcos","uf":"MT"},"geometry":{"type":"Point","coordinates":[-59.46,-17.34]}},{"type":"Feature","properties":{"id":"5107156","nome":"Reserva do Cabaçal","uf":"MT"},"geometry":{"type":"Point","coordinates":[-58.69,-17.01]}},{"type":"Feature","properties":{"id":"5107180","nome":"Ribeirão Cascalheira","uf":"MT"},"geometry":{"type":"Point","coordinates":[-57.92,-16.68]}},{"type":"Feature","properties":{"id":"5107198","nome":"Ribeirãozinho","uf":"MT"},"geometry":{"type":"Point","coordinates":[-57.15,-16.35]}},{"type":"Feature","properties":{"id":"5107206","nome":"Rio Branco","uf":"MT"},"geometry":{"type":"Point","coordinates":[-56.38,-16.02]}},{"type":"Feature","properties":{"id":"5107248","nome":"Santa Carmem","uf":"MT"},"geometry":{"type":"Point","coordinates":[-55.61,-15.69]}},{"type":"Feature","properties":{"id":"5107263","nome":"Santo Afonso","uf":"MT"},"geometry":{"type":"Point","coordinates":[-54.84,-15.36]}},{"type":"Feature","properties":{"id":"5107297","nome":"São José do Povo","uf":"MT"},"geometry":{"type":"Point","coordinates":[-54.07,-15.03]}},{"type":"Feature","properties":{"id":"5107305","nome":"São José do Rio Claro","uf":"MT"},"geometry":{"type":"Point","coordinates":[-53.3,-14.7]}},{"type":"Feature","properties":{"id":"5107354","nome":"São José do Xingu","uf":"MT"},"geometry":{"type":"Point","coordinates":[-52.53,-14.370000000000001]}},{"type":"Feature","properties":{"id":"5107404","nome":"São Pedro da Cipa","uf":"MT"},"geometry":{"type":"Point","coordinates":[-51.76,-14.04]}},{"type":"Feature","properties":{"id":"5107578","nome":"Rondolândia","uf":"MT"},"geometry":{"type":"Point","coordinates":[-50.99,-13.71]}},{"type":"Feature","properties":{"id":"5107602","nome":"Rondonópolis","uf":"MT"},"geometry":{"type":"Point","coordinates":[-50.22,-13.379999999999999]}},{"type":"Feature","properties":{"id":"5107701","nome":"Rosário Oeste","uf":"MT"},"geometry":{"type":"Point","coordinates":[-60.45,-13.05]}},{"type":"Feature","properties":{"id":"5107743","nome":"Santa Cruz do Xingu","uf":"MT"},"geometry":{"type":"Point","coordinates":[-59.68,-12.719999999999999]}},{"type":"Feature","properties":{"id":"5107750","nome":"Salto do Céu","uf":"MT"},"geometry":{"type":"Point","coordinates":[-58.91,-12.39]}},{"type":"Feature","properties":{"id":"5107768","nome":"Santa Rita do Trivelato","uf":"MT"},"geometry":{"type":"Point","coordinates":[-58.14,-12.059999999999999]}},{"type":"Feature","properties":{"id":"5107776","nome":"Santa Terezinha","uf":"MT"},"geometry":{"type":"Point","coordinates":[-57.37,-11.73]}},{"type":"Feature","properties":{"id":"5107792","nome":"Santo Antônio do Leste","uf":"MT"},"geometry":{"type":"Point","coordinates":[-56.6,-11.4]}},{"type":"Feature","properties":{"id":"5107800","nome":"Santo Antônio de Leverger","uf":"MT"},"geometry":{"type":"Point","coordinates":[-55.83,-11.07]}},{"type":"Feature","properties":{"id":"5107859","nome":"São Félix do Araguaia","uf":"MT"},"geometry":{"type":"Point","coordinates":[-55.06,-10.74]}},{"type":"Feature","properties":{"id":"5107875","nome":"Sapezal","uf":"MT"},"geometry":{"type":"Point","coordinates":[-54.29,-10.41]}},{"type":"Feature","properties":{"id":"5107883","nome":"Serra Nova Dourada","uf":"MT"},"geometry":{"type":"Point","coordinates":[-53.519999999999996,-10.08]}},{"type":"Feature","properties":{"id":"5107909","nome":"Sinop","uf":"MT"},"geometry":{"type":"Point","coordinates":[-52.75,-9.75]}},{"type":"Feature","properties":{"id":"5107925","nome":"Sorriso","uf":"MT"},"geometry":{"type":"Point","coordinates":[-51.980000000000004,-9.42]}},{"type":"Feature","properties":{"id":"5107941","nome":"Tabaporã","uf":"MT"},"geometry":{"type":"Point","coordinates":[-51.21,-9.09]}},{"type":"Feature","properties":{"id":"5107958","nome":"Tangará da Serra","uf":"MT"},"geometry":{"type":"Point","coordinates":[-50.44,-8.76]}},{"type":"Feature","properties":{"id":"5108006","nome":"Tapurah","uf":"MT"},"geometry":{"type":"Point","coordinates":[-60.67,-8.43]}},{"type":"Feature","properties":{"id":"5108055","nome":"Terra Nova do Norte","uf":"MT"},"geometry":{"type":"Point","coordinates":[-59.9,-8.1]}},{"type":"Feature","properties":{"id":"5108105","nome":"Tesouro","uf":"MT"},"geometry":{"type":"Point","coordinates":[-59.13,-7.77]}},{"type":"Feature","properties":{"id":"5108204","nome":"Torixoréu","uf":"MT"},"geometry":{"type":"Point","coordinates":[-58.36,-7.4399999999999995]}},{"type":"Feature","properties":{"id":"5108303","nome":"União do Sul","uf":"MT"},"geometry":{"type":"Point","coordinates":[-57.59,-7.109999999999999]}},{"type":"Feature","properties":{"id":"5108352","nome":"Vale de São Domingos","uf":"MT"},"geometry":{"type":"Point","coordinates":[-56.82,-17.78]}},{"type":"Feature","properties":{"id":"5108402","nome":"Várzea Grande","uf":"MT"},"geometry":{"type":"Point","coordinates":[-56.05,-17.45]}},{"type":"Feature","properties":{"id":"5108501","nome":"Vera","uf":"MT"},"geometry":{"type":"Point","coordinates":[-55.28,-17.12]}},{"type":"Feature","properties":{"id":"5108600","nome":"Vila Rica","uf":"MT"},"geometry":{"type":"Point","coordinates":[-54.51,-16.79]}},{"type":"Feature","properties":{"id":"5108808","nome":"Nova Guarita","uf":"MT"},"geometry":{"type":"Point","coordinates":[-53.74,-16.46]}},{"type":"Feature","properties":{"id":"5108857","nome":"Nova Marilândia","uf":"MT"},"geometry":{"type":"Point","coordinates":[-52.97,-16.13]}},{"type":"Feature","properties":{"id":"5108907","nome":"Nova Maringá","uf":"MT"},"geometry":{"type":"Point","coordinates":[-52.2,-15.8]}},{"type":"Feature","properties":{"id":"5108956","nome":"Nova Monte Verde","uf":"MT"},"geometry":{"type":"Point","coordinates":[-51.43,-15.47]}}]}