{"type":"FeatureCollection","features":[{"type":"Feature","properties":{"id":"5200050","nome":"Abadia de Goiás","uf":"GO"},"geometry":{"type":"Point","coordinates":[-53,-19]}},{"type":"Feature","properties":{"id":"5200100","nome":"Abadiânia","uf":"GO"},"geometry":{"type":"Point","coordinates":[-52.44,-18.79]}},{"type":"Feature","properties":{"id":"5200134","nome":"Acreúna","uf":"GO"},"geometry":{"type":"Point","coordinates":[-51.88,-18.58]}},{"type":"Feature","properties":{"id":"5200159","nome":"Adelândia","uf":"GO"},"geometry":{"type":"Point","coordinates":[-51.32,-18.37]}},{"type":"Feature","properties":{"id":"5200175","nome":"Água Fria de Goiás","uf":"GO"},"geometry":{"type":"Point","coordinates":[-50.76,-18.16]}},{"type":"Feature","properties":{"id":"5200209","nome":"Água Limpa","uf":"GO"},"geometry":{"type":"Point","coordinates":[-50.2,-17.95]}},{"type":"Feature","properties":{"id":"5200258","nome":"Águas Lindas de Goiás","uf":"GO"},"geometry":{"type":"Point","coordinates":[-49.64,-17.74]}},{"type":"Feature","properties":{"id":"5200308","nome":"Alexânia","uf":"GO"},"geometry":{"type":"Point","coordinates":[-49.08,-17.53]}},{"type":"Feature","properties":{"id":"5200506","nome":"Aloândia","uf":"GO"},"geometry":{"type":"Point","coordinates":[-48.519999999999996,-17.32]}},{"type":"Feature","properties":{"id":"5200555","nome":"Alto Horizonte","uf":"GO"},"geometry":{"type":"Point","coordinates":[-47.96,-17.11]}},{"type":"Feature","properties":{"id":"5200605","nome":"Alto Paraíso de Goiás","uf":"GO"},"geometry":{"type":"Point","coordinates":[-47.4,-16.9]}},{"type":"Feature","properties":{"id":"5200803","nome":"Alvorada do Norte","uf":"GO"},"geometry":{"type":"Point","coordinates":[-46.84,-16.69]}},{"type":"Feature","properties":{"id":"5200829","nome":"Amaralina","uf":"GO"},"geometry":{"type":"Point","coordinates":[-46.28,-16.48]}},{"type":"Feature","properties":{"id":"5200852","nome":"Americano do Brasil","uf":"GO"},"geometry":{"type":"Point","coordinates":[-45.72,-16.27]}},{"type":"Feature","properties":{"id":"5200902","nome":"Amorinópolis","uf":"GO"},"geometry":{"type":"Point","coordinates":[-45.16,-16.06]}},{"type":"Feature","properties":{"id":"5201108","nome":"Anápolis","uf":"GO"},"geometry":{"type":"Point","coordinates":[-52.6,-15.85]}},{"type":"Feature","properties":{"id":"5201207","nome":"Anhanguera","uf":"GO"},"geometry":{"type":"Point","coordinates":[-52.04,-15.64]}},{"type":"Feature","properties":{"id":"5201306","nome":"Anicuns","uf":"GO"},"geometry":{"type":"Point","coordinates":[-51.48,-15.43]}},{"type":"Feature","properties":{"id":"5201405","nome":"Aparecida de Goiânia","uf":"GO"},"geometry":{"type":"Point","coordinates":[-50.92,-15.219999999999999]}},{"type":"Feature","properties":{"id":"5201454","nome":"Aparecida do Rio Doce","uf":"GO"},"geometry":{"type":"Point","coordinates":[-50.36,-15.01]}},{"type":"Feature","properties":{"id":"5201504","nome":"Aporé","uf":"GO"},"geometry":{"type":"Point","coordinates":[-49.8,-14.8]}},{"type":"Feature","properties":{"id":"5201603","nome":"Araçu","uf":"GO"},"geometry":{"type":"Point","coordinates":[-49.24,-14.59]}},{"type":"Feature","properties":{"id":"5201702","nome":"Aragarças","uf":"GO"},"geometry":{"type":"Point","coordinates":[-48.68,-14.379999999999999]}},{"type":"Feature","properties":{"id":"5201801","nome":"Aragoiânia","uf":"GO"},"geometry":{"type":"Point","coordinates":[-48.12,-14.17]}},{"type":"Feature","properties":{"id":"5202155","nome":"Araguapaz","uf":"GO"},"geometry":{"type":"Point","coordinates":[-47.56,-13.959999999999999]}},{"type":"Feature","properties":{"id":"5202353","nome":"Arenópolis","uf":"GO"},"geometry":{"type":"Point","coordinates":[-47,-13.75]}},{"type":"Feature","properties":{"id":"5202502","nome":"Aruanã","uf":"GO"},"geometry":{"type":"Point","coordinates":[-46.44,-13.54]}},{"type":"Feature","properties":{"id":"5202601","nome":"Aurilândia","uf":"GO"},"geometry":{"type":"Point","coordinates":[-45.88,-13.329999999999998]}},{"type":"Feature","properties":{"id":"5202809","nome":"Avelinópolis","uf":"GO"},"geometry":{"type":"Point","coordinates":[-45.32,-13.12]}},{"type":"Feature","properties":{"id":"5203104","nome":"Baliza","uf":"GO"},"geometry":{"type":"Point","coordinates":[-52.76,-12.91]}},{"type":"Feature","properties":{"id":"5203203","nome":"Barro Alto","uf":"GO"},"geometry":{"type":"Point","coordinates":[-52.2,-12.7]}},{"type":"Feature","properties":{"id":"5203302","nome":"Bela Vista de Goiás","uf":"GO"},"geometry":{"type":"Point","coordinates":[-51.64,-12.489999999999998]}},{"type":"Feature","properties":{"id":"5203401","nome":"Bom Jardim de Goiás","uf":"GO"},"geometry":{"type":"Point","coordinates":[-51.08,-12.28]}},{"type":"Feature","properties":{"id":"5203500","nome":"Bom Jesus de Goiás","uf":"GO"},"geometry":{"type":"Point","coordinates":[-50.52,-12.07]}},{"type":"Feature","properties":{"id":"5203559","nome":"Bonfinópolis","uf":"GO"},"geometry":{"type":"Point","coordinates":[-49.96,-18.86]}},{"type":"Feature","properties":{"id":"5203575","nome":"Bonópolis","uf":"GO"},"geometry":{"type":"Point","coordinates":[-49.4,-18.65]}},{"type":"Feature","properties":{"id":"5203609","nome":"Brazabrantes","uf":"GO"},"geometry":{"type":"Point","coordinates":[-48.84,-18.44]}},{"type":"Feature","properties":{"id":"5203807","nome":"Britânia","uf":"GO"},"geometry":{"type":"Point","coordinates":[-48.28,-18.23]}},{"type":"Feature","properties":{"id":"5203906","nome":"Buriti Alegre","uf":"GO"},"geometry":{"type":"Point","coordinates":[-47.72,-18.02]}},{"type":"Feature","properties":{"id":"5203939","nome":"Buriti de Goiás","uf":"GO"},"geometry":{"type":"Point","coordinates":[-47.16,-17.81]}},{"type":"Feature","properties":{"id":"5203962","nome":"Buritinópolis","uf":"GO"},"geometry":{"type":"Point","coordinates":[-46.6,-17.6]}},{"type":"Feature","properties":{"id":"5204003","nome":"Cabeceiras","uf":"GO"},"geometry":{"type":"Point","coordinates":[-46.04,-17.39]}},{"type":"Feature","properties":{"id":"5204102","nome":"Cachoeira Alta","uf":"GO"},"geometry":{"type":"Point","coordinates":[-45.48,-17.18]}},{"type":"Feature","properties":{"id":"5204201","nome":"Cachoeira de Goiás","uf":"GO"},"geometry":{"type":"Point","coordinates":[-52.92,-16.97]}},{"type":"Feature","properties":{"id":"5204250","nome":"Cachoeira Dourada","uf":"GO"},"geometry":{"type":"Point","coordinates":[-52.36,-16.759999999999998]}},{"type":"Feature","properties":{"id":"5204300","nome":"Caçu","uf":"GO"},"geometry":{"type":"Point","coordinates":[-51.8,-16.55]}},{"type":"Feature","properties":{"id":"5204409","nome":"Caiapônia","uf":"GO"},"geometry":{"type":"Point","coordinates":[-51.24,-16.34]}},{"type":"Feature","properties":{"id":"5204508","nome":"Caldas Novas","uf":"GO"},"geometry":{"type":"Point","coordinates":[-50.68,-16.13]}},{"type":"Feature","properties":{"id":"5204557","nome":"Caldazinha","uf":"GO"},"geometry":{"type":"Point","coordinates":[-50.12,-15.92]}},{"type":"Feature","properties":{"id":"5204607","nome":"Campestre de Goiás","uf":"GO"},"geometry":{"type":"Point","coordinates":[-49.56,-15.709999999999999]}},{"type":"Feature","properties":{"id":"5204656","nome":"Campinaçu","uf":"GO"},"geometry":{"type":"Point","coordinates":[-49,-15.5]}},{"type":"Feature","properties":{"id":"5204706","nome":"Campinorte","uf":"GO"},"geometry":{"type":"Point","coordinates":[-48.44,-15.29]}},{"type":"Feature","properties":{"id":"5204805","nome":"Campo Alegre de Goiás","uf":"GO"},"geometry":{"type":"Point","coordinates":[-47.88,-15.08]}},{"type":"Feature","properties":{"id":"5204854","nome":"Campo Limpo de Goiás","uf":"GO"},"geometry":{"type":"Point","coordinates":[-47.32,-14.87]}},{"type":"Feature","properties":{"id":"5204904","nome":"Campos Belos","uf":"GO"},"geometry":{"type":"Point","coordinates":[-46.76,-14.66]}},{"type":"Feature","properties":{"id":"5204953","nome":"Campos Verdes","uf":"GO"},"geometry":{"type":"Point","coordinates":[-46.2,-14.45]}},{"type":"Feature","properties":{"id":"5205000","nome":"Carmo do Rio Verde","uf":"GO"},"geometry":{"type":"Point","coordinates":[-45.64,-14.239999999999998]}},{"type":"Feature","properties":{"id":"5205059","nome":"Castelândia","uf":"GO"},"geometry":{"type":"Point","coordinates":[-45.08,-14.03]}},{"type":"Feature","properties":{"id":"5205109","nome":"Catalão","uf":"GO"},"geometry":{"type":"Point","coordinates":[-52.52,-13.82]}},{"type":"Feature","properties":{"id":"5205208","nome":"Caturaí","uf":"GO"},"geometry":{"type":"Point","coordinates":[-51.96,-13.61]}},{"type":"Feature","properties":{"id":"5205307","nome":"Cavalcante","uf":"GO"},"geometry":{"type":"Point","coordinates":[-51.4,-13.399999999999999]}},{"type":"Feature","properties":{"id":"5205406","nome":"Ceres","uf":"GO"},"geometry":{"type":"Point","coordinates":[-50.84,-13.19]}},{"type":"Feature","properties":{"id":"5205455","nome":"Cezarina","uf":"GO"},"geometry":{"type":"Point","coordinates":[-50.28,-12.98]}},{"type":"Feature","properties":{"id":"5205471","nome":"Chapadão do Céu","uf":"GO"},"geometry":{"type":"Point","coordinates":[-49.72,-12.77]}},{"type":"Feature","properties":{"id":"5205497","nome":"Cidade Ocidental","uf":"GO"},"geometry":{"type":"Point","coordinates":[-49.16,-12.559999999999999]}},{"type":"Feature","properties":{"id":"5205513","nome":"Cocalzinho de Goiás","uf":"GO"},"geometry":{"type":"Point","coordinates":[-48.6,-12.35]}},{"type":"Feature","properties":{"id":"5205521","nome":"Colinas do Sul","uf":"GO"},"geometry":{"type":"Point","coordinates":[-48.04,-12.14]}},{"type":"Feature","properties":{"id":"5205703","nome":"Córrego do Ouro","uf":"GO"},"geometry":{"type":"Point","coordinates":[-47.48,-18.93]}},{"type":"Feature","properties":{"id":"5205802","nome":"Corumbá de Goiás","uf":"GO"},"geometry":{"type":"Point","coordinates":[-46.92,-18.72]}},{"type":"Feature","properties":{"id":"5205901","nome":"Corumbaíba","uf":"GO"},"geometry":{"type":"Point","coordinates":[-46.36,-18.51]}},{"type":"Feature","properties":{"id":"5206206","nome":"Cristalina","uf":"GO"},"geometry":{"type":"Point","coordinates":[-45.8,-18.3]}},{"type":"Feature","properties":{"id":"5206305","nome":"Cristianópolis","uf":"GO"},"geometry":{"type":"Point","coordinates":[-45.24,-18.09]}},{"type":"Feature","properties":{"id":"5206404","nome":"Crixás","uf":"GO"},"geometry":{"type":"Point","coordinates":[-52.68,-17.88]}},{"type":"Feature","properties":{"id":"5206503","nome":"Cromínia","uf":"GO"},"geometry":{"type":"Point","coordinates":[-52.12,-17.67]}},{"type":"Feature","properties":{"id":"5206602","nome":"Cumari","uf":"GO"},"geometry":{"type":"Point","coordinates":[-51.56,-17.46]}},{"type":"Feature","properties":{"id":"5206701","nome":"Damianópolis","uf":"GO"},"geometry":{"type":"Point","coordinates":[-51,-17.25]}},{"type":"Feature","properties":{"id":"5206800","nome":"Damolândia","uf":"GO"},"geometry":{"type":"Point","coordinates":[-50.44,-17.04]}},{"type":"Feature","properties":{"id":"5206909","nome":"Davinópolis","uf":"GO"},"geometry":{"type":"Point","coordinates":[-49.88,-16.83]}},{"type":"Feature","properties":{"id":"5207105","nome":"Diorama","uf":"GO"},"geometry":{"type":"Point","coordinates":[-49.32,-16.62]}},{"type":"Feature","properties":{"id":"5207253","nome":"Doverlândia","uf":"GO"},"geometry":{"type":"Point","coordinates":[-48.76,-16.41]}},{"type":"Feature","properties":{"id":"5207352","nome":"Edealina","uf":"GO"},"geometry":{"type":"Point","coordinates":[-48.2,-16.2]}},{"type":"Feature","properties":{"id":"5207402","nome":"Edéia","uf":"GO"},"geometry":{"type":"Point","coordinates":[-47.64,-15.99]}},{"type":"Feature","properties":{"id":"5207501","nome":"Estrela do Norte","uf":"GO"},"geometry":{"type":"Point","coordinates":[-47.08,-15.78]}},{"type":"Feature","properties":{"id":"5207535","nome":"Faina","uf":"GO"},"geometry":{"type":"Point","coordinates":[-46.519999999999996,-15.57]}},{"type":"Feature","properties":{"id":"5207600","nome":"Fazenda Nova","uf":"GO"},"geometry":{"type":"Point","coordinates":[-45.96,-15.36]}},{"type":"Feature","properties":{"id":"5207808","nome":"Firminópolis","uf":"GO"},"geometry":{"type":"Point","coordinates":[-45.4,-15.149999999999999]}},{"type":"Feature","properties":{"id":"5207907","nome":"Flores de Goiás","uf":"GO"},"geometry":{"type":"Point","coordinates":[-52.84,-14.94]}},{"type":"Feature","properties":{"id":"5208004","nome":"Formosa","uf":"GO"},"geometry":{"type":"Point","coordinates":[-52.28,-14.73]}},{"type":"Feature","properties":{"id":"5208103","nome":"Formoso","uf":"GO"},"geometry":{"type":"Point","coordinates":[-51.72,-14.52]}},{"type":"Feature","properties":{"id":"5208152","nome":"Gameleira de Goiás","uf":"GO"},"geometry":{"type":"Point","coordinates":[-51.16,-14.309999999999999]}},{"type":"Feature","properties":{"id":"5208301","nome":"Divinópolis de Goiás","uf":"GO"},"geometry":{"type":"Point","coordinates":[-50.6,-14.1]}},{"type":"Feature","properties":{"id":"5208400","nome":"Goianápolis","uf":"GO"},"geometry":{"type":"Point","coordinates":[-50.04,-13.89]}},{"type":"Feature","properties":{"id":"5208509","nome":"Goiandira","uf":"GO"},"geometry":{"type":"Point","coordinates":[-49.48,-13.68]}},{"type":"Feature","properties":{"id":"5208608","nome":"Goianésia","uf":"GO"},"geometry":{"type":"Point","coordinates":[-48.92,-13.469999999999999]}},{"type":"Feature","properties":{"id":"5208707","nome":"Goiânia","uf":"GO"},"geometry":{"type":"Point","coordinates":[-48.36,-13.26]}},{"type":"Feature","properties":{"id":"5208806","nome":"Goianira","uf":"GO"},"geometry":{"type":"Point","coordinates":[-47.8,-13.05]}},{"type":"Feature","properties":{"id":"5208905","nome":"Goiás","uf":"GO"},"geometry":{"type":"Point","coordinates":[-47.24,-12.84]}},{"type":"Feature","properties":{"id":"5209101","nome":"Goiatuba","uf":"GO"},"geometry":{"type":"Point","coordinates":[-46.68,-12.629999999999999]}},{"type":"Feature","properties":{"id":"5209150","nome":"Gouvelândia","uf":"GO"},"geometry":{"type":"Point","coordinates":[-46.12,-12.419999999999998]}},{"type":"Feature","properties":{"id":"5209200","nome":"Guapó","uf":"GO"},"geometry":{"type":"Point","coordinates":[-45.56,-12.209999999999999]}},{"type":"Feature","properties":{"id":"5209291","nome":"Guaraíta","uf":"GO"},"geometry":{"type":"Point","coordinates":[-53,-19]}},{"type":"Feature","properties":{"id":"5209408","nome":"Guarani de Goiás","uf":"GO"},"geometry":{"type":"Point","coordinates":[-52.44,-18.79]}},{"type":"Feature","properties":{"id":"5209457","nome":"Guarinos","uf":"GO"},"geometry":{"type":"Point","coordinates":[-51.88,-18.58]}},{"type":"Feature","properties":{"id":"5209606","nome":"Heitoraí","uf":"GO"},"geometry":{"type":"Point","coordinates":[-51.32,-18.37]}},{"type":"Feature","properties":{"id":"5209705","nome":"Hidrolândia","uf":"GO"},"geometry":{"type":"Point","coordinates":[-50.76,-18.16]}},{"type":"Feature","properties":{"id":"5209804","nome":"Hidrolina","uf":"GO"},"geometry":{"type":"Point","coordinates":[-50.2,-17.95]}},{"type":"Feature","properties":{"id":"5209903","nome":"Iaciara","uf":"GO"},"geometry":{"type":"Point","coordinates":[-49.64,-17.74]}},{"type":"Feature","properties":{"id":"5209937","nome":"Inaciolândia","uf":"GO"},"geometry":{"type":"Point","coordinates":[-49.08,-17.53]}},{"type":"Feature","properties":{"id":"5209952","nome":"Indiara","uf":"GO"},"geometry":{"type":"Point","coordinates":[-48.519999999999996,-17.32]}},{"type":"Feature","properties":{"id":"5210000","nome":"Inhumas","uf":"GO"},"geometry":{"type":"Point","coordinates":[-47.96,-17.11]}},{"type":"Feature","properties":{"id":"5210109","nome":"Ipameri","uf":"GO"},"geometry":{"type":"Point","coordinates":[-47.4,-16.9]}},{"type":"Feature","properties":{"id":"5210158","nome":"Ipiranga de Goiás","uf":"GO"},"geometry":{"type":"Point","coordinates":[-46.84,-16.69]}},{"type":"Feature","properties":{"id":"5210208","nome":"Iporá","uf":"GO"},"geometry":{"type":"Point","coordinates":[-46.28,-16.48]}},{"type":"Feature","properties":{"id":"5210307","nome":"Israelândia","uf":"GO"},"geometry":{"type":"Point","coordinates":[-45.72,-16.27]}},{"type":"Feature","properties":{"id":"5210406","nome":"Itaberaí","uf":"GO"},"geometry":{"type":"Point","coordinates":[-45.16,-16.06]}},{"type":"Feature","properties":{"id":"5210562","nome":"Itaguari","uf":"GO"},"geometry":{"type":"Point","coordinates":[-52.6,-15.85]}},{"type":"Feature","properties":{"id":"5210604","nome":"Itaguaru","uf":"GO"},"geometry":{"type":"Point","coordinates":[-52.04,-15.64]}},{"type":"Feature","properties":{"id":"5210802","nome":"Itajá","uf":"GO"},"geometry":{"type":"Point","coordinates":[-51.48,-15.43]}},{"type":"Feature","properties":{"id":"5210901","nome":"Itapaci","uf":"GO"},"geometry":{"type":"Point","coordinates":[-50.92,-15.219999999999999]}},{"type":"Feature","properties":{"id":"5211008","nome":"Itapirapuã","uf":"GO"},"geometry":{"type":"Point","coordinates":[-50.36,-15.01]}},{"type":"Feature","properties":{"id":"5211206","nome":"Itapuranga","uf":"GO"},"geometry":{"type":"Point","coordinates":[-49.8,-14.8]}},{"type":"Feature","properties":{"id":"5211305","nome":"Itarumã","uf":"GO"},"geometry":{"type":"Point","coordinates":[-49.24,-14.59]}},{"type":"Feature","properties":{"id":"5211404","nome":"Itauçu","uf":"GO"},"geometry":{"type":"Point","coordinates":[-48.68,-14.379999999999999]}},{"type":"Feature","properties":{"id":"5211503","nome":"Itumbiara","uf":"GO"},"geometry":{"type":"Point","coordinates":[-48.12,-14.17]}},{"type":"Feature","properties":{"id":"5211602","nome":"Ivolândia","uf":"GO"},"geometry":{"type":"Point","coordinates":[-47.56,-13.959999999999999]}},{"type":"Feature","properties":{"id":"5211701","nome":"Jandaia","uf":"GO"},"geometry":{"type":"Point","coordinates":[-47,-13.75]}},{"type":"Feature","properties":{"id":"5211800","nome":"Jaraguá","uf":"GO"},"geometry":{"type":"Point","coordinates":[-46.44,-13.54]}},{"type":"Feature","properties":{"id":"5211909","nome":"Jataí","uf":"GO"},"geometry":{"type":"Point","coordinates":[-45.88,-13.329999999999998]}},{"type":"Feature","properties":{"id":"5212006","nome":"Jaupaci","uf":"GO"},"geometry":{"type":"Point","coordinates":[-45.32,-13.12]}},{"type":"Feature","properties":{"id":"5212055","nome":"Jesúpolis","uf":"GO"},"geometry":{"type":"Point","coordinates":[-52.76,-12.91]}},{"type":"Feature","properties":{"id":"5212105","nome":"Joviânia","uf":"GO"},"geometry":{"type":"Point","coordinates":[-52.2,-12.7]}},{"type":"Feature","properties":{"id":"5212204","nome":"Jussara","uf":"GO"},"geometry":{"type":"Point","coordinates":[-51.64,-12.489999999999998]}},{"type":"Feature","properties":{"id":"5212253","nome":"Lagoa Santa","uf":"GO"},"geometry":{"type":"Point","coordinates":[-51.08,-12.28]}},{"type":"Feature","properties":{"id":"5212303","nome":"Leopoldo de Bulhões","uf":"GO"},"geometry":{"type":"Point","coordinates":[-50.52,-12.07]}},{"type":"Feature","properties":{"id":"5212501","nome":"Luziânia","uf":"GO"},"geometry":{"type":"Point","coordinates":[-49.96,-18.86]}},{"type":"Feature","properties":{"id":"5212600","nome":"Mairipotaba","uf":"GO"},"geometry":{"type":"Point","coordinates":[-49.4,-18.65]}},{"type":"Feature","properties":{"id":"5212709","nome":"Mambaí","uf":"GO"},"geometry":{"type":"Point","coordinates":[-48.84,-18.44]}},{"type":"Feature","properties":{"id":"5212808","nome":"Mara Rosa","uf":"GO"},"geometry":{"type":"Point","coordinates":[-48.28,-18.23]}},{"type":"Feature","properties":{"id":"5212907","nome":"Marzagão","uf":"GO"},"geometry":{"type":"Point","coordinates":[-47.72,-18.02]}},{"type":"Feature","properties":{"id":"5212956","nome":"Matrinchã","uf":"GO"},"geometry":{"type":"Point","coordinates":[-47.16,-17.81]}},{"type":"Feature","properties":{"id":"5213004","nome":"Maurilândia","uf":"GO"},"geometry":{"type":"Point","coordinates":[-46.6,-17.6]}},{"type":"Feature","properties":{"id":"5213053","nome":"Mimoso de Goiás","uf":"GO"},"geometry":{"type":"Point","coordinates":[-46.04,-17.39]}},{"type":"Feature","properties":{"id":"5213087","nome":"Minaçu","uf":"GO"},"geometry":{"type":"Point","coordinates":[-45.48,-17.18]}},{"type":"Feature","properties":{"id":"5213103","nome":"Mineiros","uf":"GO"},"geometry":{"type":"Point","coordinates":[-52.92,-16.97]}},{"type":"Feature","properties":{"id":"5213400","nome":"Moiporá","uf":"GO"},"geometry":{"type":"Point","coordinates":[-52.36,-16.759999999999998]}},{"type":"Feature","properties":{"id":"5213509","nome":"Monte Alegre de Goiás","uf":"GO"},"geometry":{"type":"Point","coordinates":[-51.8,-16.55]}},{"type":"Feature","properties":{"id":"5213707","nome":"Montes Claros de Goiás","uf":"GO"},"geometry":{"type":"Point","coordinates":[-51.24,-16.34]}},{"type":"Feature","properties":{"id":"5213756","nome":"Montividiu","uf":"GO"},"geometry":{"type":"Point","coordinates":[-50.68,-16.13]}},{"type":"Feature","properties":{"id":"5213772","nome":"Montividiu do Norte","uf":"GO"},"geometry":{"type":"Point","coordinates":[-50.12,-15.92]}},{"type":"Feature","properties":{"id":"5213806","nome":"Morrinhos","uf":"GO"},"geometry":{"type":"Point","coordinates":[-49.56,-15.709999999999999]}},{"type":"Feature","properties":{"id":"5213855","nome":"Morro Agudo de Goiás","uf":"GO"},"geometry":{"type":"Point","coordinates":[-49,-15.5]}},{"type":"Feature","properties":{"id":"5213905","nome":"Mossâmedes","uf":"GO"},"geometry":{"type":"Point","coordinates":[-48.44,-15.29]}},{"type":"Feature","properties":{"id":"5214002","nome":"Mozarlândia","uf":"GO"},"geometry":{"type":"Point","coordinates":[-47.88,-15.08]}},{"type":"Feature","properties":{"id":"5214051","nome":"Mundo Novo","uf":"GO"},"geometry":{"type":"Point","coordinates":[-47.32,-14.87]}},{"type":"Feature","properties":{"id":"5214101","nome":"Mutunópolis","uf":"GO"},"geometry":{"type":"Point","coordinates":[-46.76,-14.66]}},{"type":"Feature","properties":{"id":"5214408","nome":"Nazário","uf":"GO"},"geometry":{"type":"Point","coordinates":[-46.2,-14.45]}},{"type":"Feature","properties":{"id":"5214507","nome":"Nerópolis","uf":"GO"},"geometry":{"type":"Point","coordinates":[-45.64,-14.239999999999998]}},{"type":"Feature","properties":{"id":"5214606","nome":"Niquelândia","uf":"GO"},"geometry":{"type":"Point","coordinates":[-45.08,-14.03]}},{"type":"Feature","properties":{"id":"5214705","nome":"Nova América","uf":"GO"},"geometry":{"type":"Point","coordinates":[-52.52,-13.82]}},{"type":"Feature","properties":{"id":"5214804","nome":"Nova Aurora","uf":"GO"},"geometry":{"type":"Point","coordinates":[-51.96,-13.61]}},{"type":"Feature","properties":{"id":"5214838","nome":"Nova Crixás","uf":"GO"},"geometry":{"type":"Point","coordinates":[-51.4,-13.399999999999999]}},{"type":"Feature","properties":{"id":"5214861","nome":"Nova Glória","uf":"GO"},"geometry":{"type":"Point","coordinates":[-50.84,-13.19]}},{"type":"Feature","properties":{"id":"5214879","nome":"Nova Iguaçu de Goiás","uf":"GO"},"geometry":{"type":"Point","coordinates":[-50.28,-12.98]}},{"type":"Feature","properties":{"id":"5214903","nome":"Nova Roma","uf":"GO"},"geometry":{"type":"Point","coordinates":[-49.72,-12.77]}},{"type":"Feature","properties":{"id":"5215009","nome":"Nova Veneza","uf":"GO"},"geometry":{"type":"Point","coordinates":[-49.16,-12.559999999999999]}},{"type":"Feature","properties":{"id":"5215207","nome":"Novo Brasil","uf":"GO"},"geometry":{"type":"Point","coordinates":[-48.6,-12.35]}},{"type":"Feature","properties":{"id":"5215231","nome":"Novo Gama","uf":"GO"},"geometry":{"type":"Point","coordinates":[-48.04,-12.14]}},{"type":"Feature","properties":{"id":"5215256","nome":"Novo Planalto","uf":"GO"},"geometry":{"type":"Point","coordinates":[-47.48,-18.93]}},{"type":"Feature","properties":{"id":"5215306","nome":"Orizona","uf":"GO"},"geometry":{"type":"Point","coordinates":[-46.92,-18.72]}},{"type":"Feature","properties":{"id":"5215405","nome":"Ouro Verde de Goiás","uf":"GO"},"geometry":{"type":"Point","coordinates":[-46.36,-18.51]}},{"type":"Feature","properties":{"id":"5215504","nome":"Ouvidor","uf":"GO"},"geometry":{"type":"Point","coordinates":[-45.8,-18.3]}},{"type":"Feature","properties":{"id":"5215603","nome":"Padre Bernardo","uf":"GO"},"geometry":{"type":"Point","coordinates":[-45.24,-18.09]}},{"type":"Feature","properties":{"id":"5215652","nome":"Palestina de Goiás","uf":"GO"},"geometry":{"type":"Point","coordinates":[-52.68,-17.88]}},{"type":"Feature","properties":{"id":"5215702","nome":"Palmeiras de Goiás","uf":"GO"},"geometry":{"type":"Point","coordinates":[-52.12,-17.67]}},{"type":"Feature","properties":{"id":"5215801","nome":"Palmelo","uf":"GO"},"geometry":{"type":"Point","coordinates":[-51.56,-17.46]}},{"type":"Feature","properties":{"id":"5215900","nome":"Palminópolis","uf":"GO"},"geometry":{"type":"Point","coordinates":[-51,-17.25]}},{"type":"Feature","properties":{"id":"5216007","nome":"Panamá","uf":"GO"},"geometry":{"type":"Point","coordinates":[-50.44,-17.04]}},{"type":"Feature","properties":{"id":"5216304","nome":"Paranaiguara","uf":"GO"},"geometry":{"type":"Point","coordinates":[-49.88,-16.83]}},{"type":"Feature","properties":{"id":"5216403","nome":"Paraúna","uf":"GO"},"geometry":{"type":"Point","coordinates":[-49.32,-16.62]}},{"type":"Feature","properties":{"id":"5216452","nome":"Perolândia","uf":"GO"},"geometry":{"type":"Point","coordinates":[-48.76,-16.41]}},{"type":"Feature","properties":{"id":"5216809","nome":"Petrolina de Goiás","uf":"GO"},"geometry":{"type":"Point","coordinates":[-48.2,-16.2]}},{"type":"Feature","properties":{"id":"5216908","nome":"Pilar de Goiás","uf":"GO"},"geometry":{"type":"Point","coordinates":[-47.64,-15.99]}},{"type":"Feature","properties":{"id":"5217104","nome":"Piracanjuba","uf":"GO"},"geometry":{"type":"Point","coordinates":[-47.08,-15.78]}},{"type":"Feature","properties":{"id":"5217203","nome":"Piranhas","uf":"GO"},"geometry":{"type":"Point","coordinates":[-46.519999999999996,-15.57]}},{"type":"Feature","properties":{"id":"5217302","nome":"Pirenópolis","uf":"GO"},"geometry":{"type":"Point","coordinates":[-45.96,-15.36]}},{"type":"Feature","properties":{"id":"5217401","nome":"Pires do Rio","uf":"GO"},"geometry":{"type":"Point","coordinates":[-45.4,-15.149999999999999]}},{"type":"Feature","properties":{"id":"5217609","nome":"Planaltina","uf":"GO"},"geometry":{"type":"Point","coordinates":[-52.84,-14.94]}},{"type":"Feature","properties":{"id":"5217708","nome":"Pontalina","uf":"GO"},"geometry":{"type":"Point","coordinates":[-52.28,-14.73]}},{"type":"Feature","properties":{"id":"5218003","nome":"Porangatu","uf":"GO"},"geometry":{"type":"Point","coordinates":[-51.72,-14.52]}},{"type":"Feature","properties":{"id":"5218052","nome":"Porteirão","uf":"GO"},"geometry":{"type":"Point","coordinates":[-51.16,-14.309999999999999]}},{"type":"Feature","properties":{"id":"5218102","nome":"Portelândia","uf":"GO"},"geometry":{"type":"Point","coordinates":[-50.6,-14.1]}},{"type":"Feature","properties":{"id":"5218300","nome":"Posse","uf":"GO"},"geometry":{"type":"Point","coordinates":[-50.04,-13.89]}},{"type":"Feature","properties":{"id":"5218391","nome":"Professor Jamil","uf":"GO"},"geometry":{"type":"Point","coordinates":[-49.48,-13.68]}},{"type":"Feature","properties":{"id":"5218508","nome":"Quirinópolis","uf":"GO"},"geometry":{"type":"Point","coordinates":[-48.92,-13.469999999999999]}},{"type":"Feature","properties":{"id":"5218607","nome":"Rialma","uf":"GO"},"geometry":{"type":"Point","coordinates":[-48.36,-13.26]}},{"type":"Feature","properties":{"id":"5218706","nome":"Rianápolis","uf":"GO"},"geometry":{"type":"Point","coordinates":[-47.8,-13.05]}},{"type":"Feature","properties":{"id":"5218789","nome":"Rio Quente","uf":"GO"},"geometry":{"type":"Point","coordinates":[-47.24,-12.84]}},{"type":"Feature","properties":{"id":"5218805","nome":"Rio Verde","uf":"GO"},"geometry":{"type":"Point","coordinates":[-46.68,-12.629999999999999]}},{"type":"Feature","properties":{"id":"5218904","nome":"Rubiataba","uf":"GO"},"geometry":{"type":"Point","coordinates":[-46.12,-12.419999999999998]}},{"type":"Feature","properties":{"id":"5219001","nome":"Sanclerlândia","uf":"GO"},"geometry":{"type":"Point","coordinates":[-45.56,-12.209999999999999]}},{"type":"Feature","properties":{"id":"5219100","nome":"Santa Bárbara de Goiás","uf":"GO"},"geometry":{"type":"Point","coordinates":[-53,-19]}},{"type":"Feature","properties":{"id":"5219209","nome":"Santa Cruz de Goiás","uf":"GO"},"geometry":{"type":"Point","coordinates":[-52.44,-18.79]}},{"type":"Feature","properties":{"id":"5219258","nome":"Santa Fé de Goiás","uf":"GO"},"geometry":{"type":"Point","coordinates":[-51.88,-18.58]}},{"type":"Feature","properties":{"id":"5219308","nome":"Santa Helena de Goiás","uf":"GO"},"geometry":{"type":"Point","coordinates":[-51.32,-18.37]}},{"type":"Feature","properties":{"id":"5219357","nome":"Santa Isabel","uf":"GO"},"geometry":{"type":"Point","coordinates":[-50.76,-18.16]}},{"type":"Feature","properties":{"id":"5219407","nome":"Santa Rita do Araguaia","uf":"GO"},"geometry":{"type":"Point","coordinates":[-50.2,-17.95]}},{"type":"Feature","properties":{"id":"5219456","nome":"Santa Rita do Novo Destino","uf":"GO"},"geometry":{"type":"Point","coordinates":[-49.64,-17.74]}},{"type":"Feature","properties":{"id":"5219506","nome":"Santa Rosa de Goiás","uf":"GO"},"geometry":{"type":"Point","coordinates":[-49.08,-17.53]}},{"type":"Feature","properties":{"id":"5219605","nome":"Santa Tereza de Goiás","uf":"GO"},"geometry":{"type":"Point","coordinates":[-48.519999999999996,-17.32]}},{"type":"Feature","properties":{"id":"5219704","nome":"Santa Terezinha de Goiás","uf":"GO"},"geometry":{"type":"Point","coordinates":[-47.96,-17.11]}},{"type":"Feature","properties":{"id":"5219712","nome":"Santo Antônio da Barra","uf":"GO"},"geometry":{"type":"Point","coordinates":[-47.4,-16.9]}},{"type":"Feature","properties":{"id":"5219738","nome":"Santo Antônio de Goiás","uf":"GO"},"geometry":{"type":"Point","coordinates":[-46.84,-16.69]}},{"type":"Feature","properties":{"id":"5219753","nome":"Santo Antônio do Descoberto","uf":"GO"},"geometry":{"type":"Point","coordinates":[-46.28,-16.48]}},{"type":"Feature","properties":{"id":"5219803","nome":"São Domingos","uf":"GO"},"geometry":{"type":"Point","coordinates":[-45.72,-16.27]}},{"type":"Feature","properties":{"id":"5219902","nome":"São Francisco de Goiás","uf":"GO"},"geometry":{"type":"Point","coordinates":[-45.16,-16.06]}},{"type":"Feature","properties":{"id":"5220009","nome":"São João d'Aliança","uf":"GO"},"geometry":{"type":"Point","coordinates":[-52.6,-15.85]}},{"type":"Feature","properties":{"id":"5220058","nome":"São João da Paraúna","uf":"GO"},"geometry":{"type":"Point","coordinates":[-52.04,-15.64]}},{"type":"Feature","properties":{"id":"5220108","nome":"São Luís de Montes Belos","uf":"GO"},"geometry":{"type":"Point","coordinates":[-51.48,-15.43]}},{"type":"Feature","properties":{"id":"5220157","nome":"São Luiz do Norte","uf":"GO"},"geometry":{"type":"Point","coordinates":[-50.92,-15.219999999999999]}},{"type":"Feature","properties":{"id":"5220207","nome":"São Miguel do Araguaia","uf":"GO"},"geometry":{"type":"Point","coordinates":[-50.36,-15.01]}},{"type":"Feature","properties":{"id":"5220264","nome":"São Miguel do Passa Quatro","uf":"GO"},"geometry":{"type":"Point","coordinates":[-49.8,-14.8]}},{"type":"Feature","properties":{"id":"5220280","nome":"São Patrício","uf":"GO"},"geometry":{"type":"Point","coordinates":[-49.24,-14.59]}},{"type":"Feature","properties":{"id":"5220405","nome":"São Simão","uf":"GO"},"geometry":{"type":"Point","coordinates":[-48.68,-14.379999999999999]}},{"type":"Feature","properties":{"id":"5220454","nome":"Senador Canedo","uf":"GO"},"geometry":{"type":"Point","coordinates":[-48.12,-14.17]}},{"type":"Feature","properties":{"id":"5220504","nome":"Serranópolis","uf":"GO"},"geometry":{"type":"Point","coordinates":[-47.56,-13.959999999999999]}},{"type":"Feature","properties":{"id":"5220603","nome":"Silvânia","uf":"GO"},"geometry":{"type":"Point","coordinates":[-47,-13.75]}},{"type":"Feature","properties":{"id":"5220686","nome":"Simolândia","uf":"GO"},"geometry":{"type":"Point","coordinates":[-46.44,-13.54]}},{"type":"Feature","properties":{"id":"5220702","nome":"Sítio d'Abadia","uf":"GO"},"geometry":{"type":"Point","coordinates":[-45.88,-13.329999999999998]}},{"type":"Feature","properties":{"id":"5221007","nome":"Taquaral de Goiás","uf":"GO"},"geometry":{"type":"Point","coordinates":[-45.32,-13.12]}},{"type":"Feature","properties":{"id":"5221080","nome":"Teresina de Goiás","uf":"GO"},"geometry":{"type":"Point","coordinates":[-52.76,-12.91]}},{"type":"Feature","properties":{"id":"5221197","nome":"Terezópolis de Goiás","uf":"GO"},"geometry":{"type":"Point","coordinates":[-52.2,-12.7]}},{"type":"Feature","properties":{"id":"5221304","nome":"Três Ranchos","uf":"GO"},"geometry":{"type":"Point","coordinates":[-51.64,-12.489999999999998]}},{"type":"Feature","properties":{"id":"5221403","nome":"Trindade","uf":"GO"},"geometry":{"type":"Point","coordinates":[-51.08,-12.28]}},{"type":"Feature","properties":{"id":"5221452","nome":"Trombas","uf":"GO"},"geometry":{"type":"Point","coordinates":[-50.52,-12.07]}},{"type":"Feature","properties":{"id":"5221502","nome":"Turvânia","uf":"GO"},"geometry":{"type":"Point","coordinates":[-49.96,-18.86]}},{"type":"Feature","properties":{"id":"5221551","nome":"Turvelândia","uf":"GO"},"geometry":{"type":"Point","coordinates":[-49.4,-18.65]}},{"type":"Feature","properties":{"id":"5221577","nome":"Uirapuru","uf":"GO"},"geometry":{"type":"Point","coordinates":[-48.84,-18.44]}},{"type":"Feature","properties":{"id":"5221601","nome":"Uruaçu","uf":"GO"},"geometry":{"type":"Point","coordinates":[-48.28,-18.23]}},{"type":"Feature","properties":{"id":"5221700","nome":"Uruana","uf":"GO"},"geometry":{"type":"Point","coordinates":[-47.72,-18.02]}},{"type":"Feature","properties":{"id":"5221809","nome":"Urutaí","uf":"GO"},"geometry":{"type":"Point","coordinates":[-47.16,-17.81]}},{"type":"Feature","properties":{"id":"5221858","nome":"Valparaíso de Goiás","uf":"GO"},"geometry":{"type":"Point","coordinates":[-46.6,-17.6]}},{"type":"Feature","properties":{"id":"5221908","nome":"Varjão","uf":"GO"},"geometry":{"type":"Point","coordinates":[-46.04,-17.39]}},{"type":"Feature","properties":{"id":"5222005","nome":"Vianópolis","uf":"GO"},"geometry":{"type":"Point","coordinates":[-45.48,-17.18]}},{"type":"Feature","properties":{"id":"5222054","nome":"Vicentinópolis","uf":"GO"},"geometry":{"type":"Point","coordinates":[-52.92,-16.97]}},{"type":"Feature","properties":{"id":"5222203","nome":"Vila Boa","uf":"GO"},"geometry":{"type":"Point","coordinates":[-52.36,-16.759999999999998]}},{"type":"Feature","properties":{"id":"5222302","nome":"Vila Propício","uf":"GO"},"geometry":{"type":"Point","coordinates":[-51.8,-16.55]}}]}