{"type":"FeatureCollection","features":[{"type":"Feature","properties":{"id":"12","sigla":"AC","nome":"Acre"},"geometry":{"type":"Polygon","coordinates":[[[-74,-11],[-66,-11],[-66,-7],[-74,-7],[-74,-11]]]}},{"type":"Feature","properties":{"id":"27","sigla":"AL","nome":"Alagoas"},"geometry":{"type":"Polygon","coordinates":[[[-38,-10],[-35,-10],[-35,-8],[-38,-8],[-38,-10]]]}},{"type":"Feature","properties":{"id":"16","sigla":"AP","nome":"Amapá"},"geometry":{"type":"Polygon","coordinates":[[[-54,1],[-46,1],[-46,5],[-54,5],[-54,1]]]}},{"type":"Feature","properties":{"id":"13","sigla":"AM","nome":"Amazonas"},"geometry":{"type":"Polygon","coordinates":[[[-74,-10],[-56,-10],[-56,2],[-74,2],[-74,-10]]]}},{"type":"Feature","properties":{"id":"29","sigla":"BA","nome":"Bahia"},"geometry":{"type":"Polygon","coordinates":[[[-46,-18],[-37,-18],[-37,-8],[-46,-8],[-46,-18]]]}},{"type":"Feature","properties":{"id":"23","sigla":"CE","nome":"Ceará"},"geometry":{"type":"Polygon","coordinates":[[[-41,-8],[-37,-8],[-37,-2],[-41,-2],[-41,-8]]]}},{"type":"Feature","properties":{"id":"53","sigla":"DF","nome":"Distrito Federal"},"geometry":{"type":"Polygon","coordinates":[[[-55,-20],[-50,-20],[-50,-15],[-55,-15],[-55,-20]]]}},{"type":"Feature","properties":{"id":"32","sigla":"ES","nome":"Espírito Santo"},"geometry":{"type":"Polygon","coordinates":[[[-41,-21],[-39,-21],[-39,-17],[-41,-17],[-41,-21]]]}},{"type":"Feature","properties":{"id":"52","sigla":"GO","nome":"Goiás"},"geometry":{"type":"Polygon","coordinates":[[[-53,-19],[-45,-19],[-45,-12],[-53,-12],[-53,-19]]]}},{"type":"Feature","properties":{"id":"21","sigla":"MA","nome":"Maranhão"},"geometry":{"type":"Polygon","coordinates":[[[-48,-10],[-41,-10],[-41,-1],[-48,-1],[-48,-10]]]}},{"type":"Feature","properties":{"id":"51","sigla":"MT","nome":"Mato Grosso"},"geometry":{"type":"Polygon","coordinates":[[[-61,-18],[-50,-18],[-50,-7],[-61,-7],[-61,-18]]]}},{"type":"Feature","properties":{"id":"50","sigla":"MS","nome":"Mato Grosso do Sul"},"geometry":{"type":"Polygon","coordinates":[[[-58,-24],[-50,-24],[-50,-17],[-58,-17],[-58,-24]]]}},{"type":"Feature","properties":{"id":"31","sigla":"MG","nome":"Minas Gerais"},"geometry":{"type":"Polygon","coordinates":[[[-51,-23],[-39,-23],[-39,-14],[-51,-14],[-51,-23]]]}},{"type":"Feature","properties":{"id":"15","sigla":"PA","nome":"Pará"},"geometry":{"type":"Polygon","coordinates":[[[-58,-10],[-46,-10],[-46,2],[-58,2],[-58,-10]]]}},{"type":"Feature","properties":{"id":"25","sigla":"PB","nome":"Paraíba"},"geometry":{"type":"Polygon","coordinates":[[[-38,-8],[-34,-8],[-34,-6],[-38,-6],[-38,-8]]]}},{"type":"Feature","properties":{"id":"41","sigla":"PR","nome":"Paraná"},"geometry":{"type":"Polygon","coordinates":[[[-54,-27],[-48,-27],[-48,-22],[-54,-22],[-54,-27]]]}},{"type":"Feature","properties":{"id":"26","sigla":"PE","nome":"Pernambuco"},"geometry":{"type":"Polygon","coordinates":[[[-41,-10],[-34,-10],[-34,-7],[-41,-7],[-41,-10]]]}},{"type":"Feature","properties":{"id":"22","sigla":"PI","nome":"Piauí"},"geometry":{"type":"Polygon","coordinates":[[[-45,-11],[-40,-11],[-40,-2],[-45,-2],[-45,-11]]]}},{"type":"Feature","properties":{"id":"33","sigla":"RJ","nome":"Rio de Janeiro"},"geometry":{"type":"Polygon","coordinates":[[[-45,-23],[-40,-23],[-40,-20],[-45,-20],[-45,-23]]]}},{"type":"Feature","properties":{"id":"24","sigla":"RN","nome":"Rio Grande do Norte"},"geometry":{"type":"Polygon","coordinates":[[[-38,-7],[-34,-7],[-34,-4],[-38,-4],[-38,-7]]]}},{"type":"Feature","properties":{"id":"43","sigla":"RS","nome":"Rio Grande do Sul"},"geometry":{"type":"Polygon","coordinates":[[[-58,-34],[-49,-34],[-49,-27],[-58,-27],[-58,-34]]]}},{"type":"Feature","properties":{"id":"11","sigla":"RO","nome":"Rondônia"},"geometry":{"type":"Polygon","coordinates":[[[-66,-13],[-59,-13],[-59,-7],[-66,-7],[-66,-13]]]}},{"type":"Feature","properties":{"id":"14","sigla":"RR","nome":"Roraima"},"geometry":{"type":"Polygon","coordinates":[[[-65,1],[-59,1],[-59,6],[-65,6],[-65,1]]]}},{"type":"Feature","properties":{"id":"42","sigla":"SC","nome":"Santa Catarina"},"geometry":{"type":"Polygon","coordinates":[[[-54,-29],[-48,-29],[-48,-25],[-54,-25],[-54,-29]]]}},{"type":"Feature","properties":{"id":"35","sigla":"SP","nome":"São Paulo"},"geometry":{"type":"Polygon","coordinates":[[[-53,-25],[-44,-25],[-44,-19],[-53,-19],[-53,-25]]]}},{"type":"Feature","properties":{"id":"28","sigla":"SE","nome":"Sergipe"},"geometry":{"type":"Polygon","coordinates":[[[-38,-11],[-36,-11],[-36,-9],[-38,-9],[-38,-11]]]}},{"type":"Feature","properties":{"id":"17","sigla":"TO","nome":"Tocantins"},"geometry":{"type":"Polygon","coordinates":[[[-50,-13],[-45,-13],[-45,-5],[-50,-5],[-50,-13]]]}}]}